Column1,postcode,address,lon,lat
0,2516,"Bulli NSW 2516, Australia",150.904556,-34.3284699
1,3042,"Airport West VIC 3042, Australia",144.8758725,-37.7245197
2,4750,"Shoal Point QLD 4750, Australia",149.1443634,-21.0306595
3,2765,"Maraylya NSW 2765, Australia",150.8725666,-33.6496795
4,2229,"Port Hacking NSW 2229, Australia",151.1228434,-34.0460194
5,3162,"Caulfield South VIC 3162, Australia",145.0217795,-37.8932076
6,6150,"Winthrop WA 6150, Australia",115.8373885,-32.0584003
7,4306,"Pine Mountain QLD 4306, Australia",152.3095833,-26.9231696
8,6020,"Watermans Bay WA 6020, Australia",115.7516025,-31.825112
9,4161,"Alexandra Hills QLD 4161, Australia",153.220588,-27.522958
10,4818,"Burdell QLD 4818, Australia",146.5168094,-19.2049974
11,4650,"Poona QLD 4650, Australia",152.695998,-25.5350235
12,4740,"Cremorne QLD 4740, Australia",149.1271385,-21.1499948
13,2176,"Greenfield Park NSW 2176, Australia",150.8783824,-33.8709405
14,3810,"Rythdale VIC 3810, Australia",145.4693163,-38.0578366
15,2330,"New South Wales 2330, Australia",150.8609358,-32.7319195
16,3179,"Scoresby VIC 3179, Australia",145.220397,-37.9042587
17,3342,"Bunding VIC 3342, Australia",144.215646,-37.6114047
18,4022,"Rothwell QLD 4022, Australia",153.0527075,-27.2144286
19,3013,"Yarraville VIC 3013, Australia",144.8813738,-37.819811
20,5255,"Angas Plains SA 5255, Australia",139.0009403,-35.2657984
21,2795,"New South Wales 2795, Australia",149.5642369,-33.5390607
22,2145,"Mays Hill NSW 2145, Australia",150.9481887,-33.8173961
23,3357,"Buninyong VIC 3357, Australia",143.8943543,-37.6521937
24,2641,"Hamilton Valley NSW 2641, Australia",146.9548653,-36.0303655
25,3044,"Pascoe Vale VIC 3044, Australia",144.9364069,-37.7310813
26,7248,"Newnham TAS 7248, Australia",147.1446457,-41.3887982
27,2866,"Cundumbul NSW 2866, Australia",148.96649,-32.9287927
28,2777,"Sun Valley NSW 2777, Australia",150.6168974,-33.6858294
29,2541,"Bangalee NSW 2541, Australia",150.5936766,-34.8772295
30,4670,"Norville QLD 4670, Australia",152.3593807,-24.8822309
31,3950,"Strzelecki VIC 3950, Australia",145.8245558,-38.4372473
32,2470,"Irvington NSW 2470, Australia",152.9676695,-28.878424
33,4342,"Lockrose QLD 4342, Australia",152.4621561,-27.4857911
34,3620,"Wyuna East VIC 3620, Australia",145.093449,-36.2508546
35,3880,"Boole Poole VIC 3880, Australia",147.7573,-37.9215501
36,3337,"Kurunjang VIC 3337, Australia",144.5875645,-37.6095412
37,3109,"Doncaster East VIC 3109, Australia",145.1541397,-37.7883929
38,4305,"Newtown QLD 4305, Australia",152.7676633,-27.6372514
39,4350,"Charlton QLD 4350, Australia",151.9533185,-27.5564884
40,5161,"Reynella SA 5161, Australia",138.5337293,-35.0958327
41,2298,"Waratah West NSW 2298, Australia",151.7210265,-32.9025199
42,3338,"Eynesbury VIC 3338, Australia",144.5437205,-37.7810237
43,3385,"Roses Gap VIC 3385, Australia",142.6600232,-36.9066682
44,5201,"Kuitpo SA 5201, Australia",138.6990679,-35.2329394
45,2323,"Metford NSW 2323, Australia",151.4902483,-32.9103365
46,4817,"Kirwan QLD 4817, Australia",146.6060735,-19.3321474
47,2295,"Fern Bay NSW 2295, Australia",151.7999723,-32.8674273
48,5084,"Blair Athol SA 5084, Australia",138.5937955,-34.8553998
49,4868,"Woree QLD 4868, Australia",145.7464633,-16.9678678
50,4814,"Mount Louisa QLD 4814, Australia",146.7552341,-19.2878252
51,2233,"Engadine NSW 2233, Australia",151.0704263,-34.1193032
52,3224,"Moolap VIC 3224, Australia",144.4451578,-38.1833957
53,6023,"Duncraig WA 6023, Australia",115.7752703,-31.8306124
54,3340,"Parwan VIC 3340, Australia",144.4123303,-37.7356162
55,5015,"New Port SA 5015, Australia",138.5037206,-34.8455742
56,3156,"Ferntree Gully VIC 3156, Australia",145.3032906,-37.9368007
57,2324,"Twelve Mile Creek NSW 2324, Australia",151.9111422,-32.6400424
58,4567,"Noosa Heads QLD 4567, Australia",153.1018054,-26.4065351
59,3630,"Shepparton VIC 3630, Australia",145.5579927,-36.4615673
60,2582,"New South Wales 2582, Australia",148.8289611,-34.9445333
61,2282,"Lakelands NSW 2282, Australia",151.6479611,-32.9648241
62,3175,"Bangholme VIC 3175, Australia",145.2148736,-38.0191689
63,2278,"Barnsley NSW 2278, Australia",151.548643,-32.9351373
64,3012,"Maidstone VIC 3012, Australia",144.8456217,-37.8146251
65,3021,"Kealba VIC 3021, Australia",144.8016402,-37.7435941
66,3909,"Lake Tyers Beach VIC 3909, Australia",148.0299382,-37.8136883
67,2148,"Blacktown NSW 2148, Australia",150.9016476,-33.7849921
68,5039,"Edwardstown SA 5039, Australia",138.5737662,-34.9844595
69,7310,"Tarleton TAS 7310, Australia",146.2018576,-41.3586159
70,3472,"Betley VIC 3472, Australia",143.6068646,-36.8747643
71,3996,"Pound Creek VIC 3996, Australia",145.7800733,-38.6086874
72,2871,"New South Wales 2871, Australia",147.7346113,-33.5103372
73,3690,"Wodonga VIC 3690, Australia",146.8423556,-36.1118041
74,3223,"Bellarine VIC 3223, Australia",144.6753231,-38.1610488
75,2216,"Banksia NSW 2216, Australia",151.1490585,-33.9531396
76,3418,"Victoria 3418, Australia",141.5991643,-36.2520776
77,5109,"Salisbury Heights SA 5109, Australia",138.673985,-34.7692638
78,6152,"Salter Point WA 6152, Australia",115.8699209,-32.0115829
79,4869,"Bentley Park QLD 4869, Australia",145.7448496,-17.0187557
80,2478,"South Ballina NSW 2478, Australia",153.5570056,-28.8529354
81,4220,"Miami QLD 4220, Australia",153.4331163,-28.0963527
82,3939,"Cape Schanck VIC 3939, Australia",144.8951287,-38.4218526
83,3722,"Mansfield VIC 3722, Australia",146.1365456,-37.0313019
84,3350,"Ballarat East VIC 3350, Australia",143.8563224,-37.5691087
85,2261,"The Entrance NSW 2261, Australia",151.4318742,-33.3603327
86,3108,"Doncaster VIC 3108, Australia",145.1210303,-37.7865824
87,6210,"Falcon WA 6210, Australia",115.7220148,-32.5461633
88,3500,"Mildura VIC 3500, Australia",142.1169401,-34.2151229
89,2149,"Australia 2149, Conchalí, Región Metropolitana, Chile",-70.6771385,-33.3922543
90,2320,"Anambah NSW 2320, Australia",151.5369624,-32.7147232
91,5043,"Ascot Park SA 5043, Australia",138.5537441,-34.9944528
92,5169,"Seaford Meadows SA 5169, Australia",138.4837239,-35.1936786
93,3319,"Bringalbert VIC 3319, Australia",141.0540674,-36.8910613
94,2539,"Fishermans Paradise NSW 2539, Australia",150.2342337,-35.3536829
95,4341,"Kensington Grove QLD 4341, Australia",152.333048,-27.6849335
96,2570,"Bickley Vale NSW 2570, Australia",150.6285091,-34.0252949
97,2192,"Belmore NSW 2192, Australia",151.0908086,-33.9178204
98,4216,"Coombabah QLD 4216, Australia",153.4036287,-27.9004034
99,2146,"Toongabbie NSW 2146, Australia",150.9569167,-33.7915266
100,4130,"Cornubia QLD 4130, Australia",153.2267554,-27.6740515
101,2747,"Kingswood NSW 2747, Australia",150.7330562,-33.7568098
102,4405,"Bunya Mountains QLD 4405, Australia",151.2660028,-27.1944148
103,2799,"Kings Plains NSW 2799, Australia",149.265005,-33.5995926
104,3730,"Telford VIC 3730, Australia",145.8913207,-36.0520717
105,6330,"Drome WA 6330, Australia",117.8780275,-34.9754734
106,2650,"New South Wales 2650, Australia",147.4174803,-35.283152
107,4565,"Ringtail Creek QLD 4565, Australia",152.9912123,-26.303935
108,3150,"Glen Waverley VIC 3150, Australia",145.1706992,-37.8921876
109,6025,"Padbury WA 6025, Australia",115.7456852,-31.7998382
110,2322,"Hexham NSW 2322, Australia",151.6654939,-32.8189255
111,2350,"New South Wales 2350, Australia",151.9813913,-30.4941859
112,4551,"Golden Beach QLD 4551, Australia",153.1359352,-26.7977396
113,2680,"Griffith NSW 2680, Australia",145.9358581,-34.394413
114,4132,"Crestmead QLD 4132, Australia",153.0912986,-27.6781718
115,2749,"Cranebrook NSW 2749, Australia",150.6865817,-33.7039148
116,2317,"Salamander Bay NSW 2317, Australia",152.0897462,-32.7326108
117,3523,"Redcastle VIC 3523, Australia",144.7412036,-36.8919051
118,4069,"Pullenvale QLD 4069, Australia",152.8970569,-27.5020161
119,4000,"Spring Hill QLD 4000, Australia",153.023588,-27.4660994
120,3196,"Bonbeach VIC 3196, Australia",145.1210303,-38.048116
121,3688,"Barnawartha VIC 3688, Australia",146.7299747,-36.1542047
122,4700,"Rockhampton City QLD 4700, Australia",150.5004652,-23.3762489
123,5251,"Mount Barker SA 5251, Australia",138.9001364,-35.0961731
124,4160,"Wellington Point QLD 4160, Australia",153.2390188,-27.4869721
125,5158,"Sheidow Park SA 5158, Australia",138.5337293,-35.0684234
126,7305,"Merseylea TAS 7305, Australia",146.4590156,-41.3669133
127,7179,"Eaglehawk Neck TAS 7179, Australia",147.9278156,-42.9956989
128,3130,"Blackburn North VIC 3130, Australia",145.1541397,-37.8258214
129,3550,"White Hills VIC 3550, Australia",144.2920769,-36.7665875
130,3222,"Clifton Springs VIC 3222, Australia",144.5875645,-38.2049453
131,4078,"Ellen Grove QLD 4078, Australia",152.9617842,-27.6185546
132,3450,"Moonlight Flat VIC 3450, Australia",144.2265602,-37.0636472
133,3134,"Warrandyte South VIC 3134, Australia",145.2424941,-37.7900435
134,4061,"The Gap QLD 4061, Australia",152.9382447,-27.4401591
135,4034,"Zillmere QLD 4034, Australia",153.0441933,-27.3645676
136,3038,"Keilor Downs VIC 3038, Australia",144.7906484,-37.7024727
137,2456,"Sandy Beach NSW 2456, Australia",153.1325243,-30.0520062
138,4053,"Everton Park QLD 4053, Australia",152.9853264,-27.3957404
139,2207,"Bardwell Park NSW 2207, Australia",151.1228434,-33.9541086
140,2221,"Connells Point NSW 2221, Australia",151.1111936,-33.9919897
141,3022,"Ardeer VIC 3022, Australia",144.7988921,-37.7776716
142,2170,"Mount Pritchard NSW 2170, Australia",150.9190988,-33.9477825
143,3850,"Wurruk VIC 3850, Australia",147.0675028,-38.096577
144,3616,"Gillieston VIC 3616, Australia",145.2038278,-36.4591947
145,2500,"West Wollongong NSW 2500, Australia",150.8783824,-34.4207112
146,3167,"Oakleigh South VIC 3167, Australia",145.0989646,-37.9193474
147,4207,"Yarrabilba QLD 4207, Australia",153.2061661,-27.7319516
148,2166,"Cabramatta West NSW 2166, Australia",150.9365521,-33.8961316
149,5021,"West Lakes SA 5021, Australia",138.496221,-34.8722171
150,3039,"Moonee Ponds VIC 3039, Australia",144.9198932,-37.7675363
151,4510,"Beachmere QLD 4510, Australia",152.9518951,-27.0796844
152,6009,"Dalkeith WA 6009, Australia",115.8107681,-31.9820615
153,2290,"Charlestown NSW 2290, Australia",151.712257,-32.9754667
154,7250,"Prospect TAS 7250, Australia",147.0977983,-41.45012
155,3658,"Strath Creek VIC 3658, Australia",145.093449,-37.2372916
156,2486,"Upper Duroby NSW 2486, Australia",153.4744054,-28.2187657
157,3806,"Berwick VIC 3806, Australia",145.3475331,-38.0264207
158,2487,"Fingal Head NSW 2487, Australia",153.5452038,-28.2768342
159,2165,"Fairfield Heights NSW 2165, Australia",150.9452794,-33.8702903
160,2263,"Canton Beach NSW 2263, Australia",151.5077645,-33.2504355
161,3214,"Corio VIC 3214, Australia",144.3576473,-38.0788809
162,3840,"Morwell VIC 3840, Australia",146.4495924,-38.2671612
163,2118,"Carlingford NSW 2118, Australia",151.0413133,-33.7799114
164,3041,"Strathmore VIC 3041, Australia",144.9006313,-37.7306079
165,3280,"Dennington VIC 3280, Australia",142.4678659,-38.3603292
166,2652,"New South Wales 2652, Australia",146.8311117,-34.6723667
167,3105,"Bulleen VIC 3105, Australia",145.0879338,-37.7660476
168,2230,"Woolooware NSW 2230, Australia",151.1461455,-34.0621862
169,2767,"Woodcroft NSW 2767, Australia",150.8783824,-33.7585633
170,5163,"Hackham SA 5163, Australia",138.56876,-35.1332262
171,2100,"Allambie Heights NSW 2100, Australia",151.2627078,-33.7645979
172,2264,"Dora Creek NSW 2264, Australia",151.4552213,-33.1186851
173,6121,"Oakford WA 6121, Australia",115.9231471,-32.216928
174,6018,"Karrinyup WA 6018, Australia",115.7871034,-31.8917374
175,3678,"Victoria 3678, Australia",146.5168094,-36.7132294
176,2390,"New South Wales 2390, Australia",149.9334764,-30.1669781
177,2281,"Pinny Beach NSW 2281, Australia",151.6362736,-33.1170985
178,2103,"Mona Vale NSW 2103, Australia",151.3064407,-33.6757024
179,2155,"Rouse Hill NSW 2155, Australia",150.9423702,-33.6880666
180,3177,"Eumemmerring VIC 3177, Australia",145.2424941,-37.9957951
181,2287,"Elermore Vale NSW 2287, Australia",151.6654939,-32.9018298
182,4218,"Broadbeach QLD 4218, Australia",153.4213208,-28.0396814
183,3030,"Derrimut VIC 3030, Australia",144.6753231,-37.938058
184,4215,"Labrador QLD 4215, Australia",153.4036287,-27.965505
185,3941,"Tootgarook VIC 3941, Australia",144.8181305,-38.3862088
186,3073,"Reservoir VIC 3073, Australia",145.0107588,-37.7118644
187,3058,"Coburg VIC 3058, Australia",144.9666905,-37.7343488
188,3919,"Crib Point VIC 3919, Australia",145.1983055,-38.3534427
189,3082,"Mill Park VIC 3082, Australia",145.0658766,-37.6649616
190,3178,"Rowville VIC 3178, Australia",145.2424941,-37.9210442
191,4561,"Bridges QLD 4561, Australia",152.9554676,-26.5626224
192,2420,"Wallarobba NSW 2420, Australia",151.7473377,-32.3296556
193,2227,"Gymea Bay NSW 2227, Australia",151.0849848,-34.043981
194,6059,"Dianella WA 6059, Australia",115.8699209,-31.8843665
195,4021,"Kippa-Ring QLD 4021, Australia",153.0824656,-27.223156
196,6070,"Darlington WA 6070, Australia",116.0827607,-31.9226334
197,3090,"Plenty VIC 3090, Australia",145.1099967,-37.670486
198,3121,"Richmond VIC 3121, Australia",144.9997396,-37.8203499
199,2586,"Reids Flat NSW 2586, Australia",148.8289611,-34.4652711
200,3502,"3502 Australia Way W, Clearwater, FL 33763, USA",-82.7397574,27.9970038
201,4121,"Holland Park QLD 4121, Australia",153.0589533,-27.5223127
202,7170,"Mount Rumney TAS 7170, Australia",147.468076,-42.8507505
203,4011,"Hendra QLD 4011, Australia",153.0589126,-27.4191871
204,4560,"Montville QLD 4560, Australia",152.9323602,-26.6077924
205,2800,"Ophir NSW 2800, Australia",149.0582632,-33.2792017
206,3752,"South Morang VIC 3752, Australia",145.082419,-37.6377485
207,4119,"Underwood QLD 4119, Australia",153.1119105,-27.6092593
208,4178,"Lytton QLD 4178, Australia",153.17369,-27.4437553
209,3975,"Lynbrook VIC 3975, Australia",145.2424941,-38.0704681
210,2646,"New South Wales 2646, Australia",146.2929381,-35.7553785
211,2460,"New South Wales 2460, Australia",152.7323884,-29.6427683
212,2220,"Hurstville Grove NSW 2220, Australia",151.0995447,-33.9583688
213,2489,"Hastings Point NSW 2489, Australia",153.5629067,-28.3834692
214,2536,"Surfside NSW 2536, Australia",150.0722053,-35.6491178
215,3122,"Hawthorn VIC 3122, Australia",145.0328017,-37.8222114
216,3847,"Nambrok VIC 3847, Australia",146.8086278,-38.2317005
217,4854,"Cardstone QLD 4854, Australia",145.8023118,-17.983313
218,5540,"Port Pirie South SA 5540, Australia",138.1200592,-33.2080635
219,2325,"Corrabare NSW 2325, Australia",151.1869325,-32.9380528
220,2340,"New South Wales 2340, Australia",151.0471355,-31.2814691
221,3143,"Armadale VIC 3143, Australia",145.0190242,-37.857253
222,5162,"Morphett Vale SA 5162, Australia",138.5437358,-35.118261
223,2557,"Rossmore NSW 2557, Australia",150.7737333,-33.9968842
224,3084,"Viewbank VIC 3084, Australia",145.0769045,-37.7436031
225,2485,"Tweed Heads NSW 2485, Australia",153.5157018,-28.178556
226,2326,"Abermain NSW 2326, Australia",151.4552213,-32.787791
227,2258,"Ourimbah NSW 2258, Australia",151.3501856,-33.3295763
228,3071,"Thornbury VIC 3071, Australia",145.0080039,-37.7600493
229,3737,"Barwidgee VIC 3737, Australia",146.6962857,-36.8466834
230,2640,"Wymah NSW 2640, Australia",147.259277,-35.9976838
231,6163,"North Coogee WA 6163, Australia",115.7930198,-32.0865957
232,5017,"Osborne SA 5017, Australia",138.4937213,-34.8047928
233,3036,"Keilor VIC 3036, Australia",144.8126334,-37.6912843
234,3825,"Hill End VIC 3825, Australia",146.2929381,-38.0474021
235,3363,"Mount Beckworth VIC 3363, Australia",143.8780526,-37.409312
236,7304,"Tasmania 7304, Australia",146.5526657,-41.7246682
237,3556,"California Gully VIC 3556, Australia",144.1938221,-36.6478425
238,4051,"Newmarket QLD 4051, Australia",152.9882693,-27.4261914
239,3046,"Oak Park VIC 3046, Australia",144.9336544,-37.7044261
240,3060,"Fawkner VIC 3060, Australia",144.9666905,-37.6969273
241,3075,"Lalor VIC 3075, Australia",145.0107588,-37.6650543
242,2193,"Ashbury NSW 2193, Australia",151.1199309,-33.909932
243,2560,"Cataract NSW 2560, Australia",150.8144215,-34.2364674
244,4179,"Manly QLD 4179, Australia",153.1833308,-27.4666718
245,3401,"Victoria 3401, Australia",142.2762322,-36.9503512
246,4815,"Kelso QLD 4815, Australia",146.7244769,-19.3884456
247,4502,"Petrie QLD 4502, Australia",152.9706122,-27.2651516
248,4169,"East Brisbane QLD 4169, Australia",153.0412496,-27.4806276
249,3078,"Fairfield VIC 3078, Australia",145.0190242,-37.7824868
250,2379,"Napier Lane NSW 2379, Australia",149.7948904,-31.0917446
251,3585,"Pira VIC 3585, Australia",143.5202874,-35.4094202
252,2388,"New South Wales 2388, Australia",149.3800105,-30.3602829
253,3564,"Echuca West VIC 3564, Australia",144.6314321,-36.1149809
254,2545,"Eurobodalla NSW 2545, Australia",149.7948904,-36.1284919
255,7260,"Scottsdale TAS 7260, Australia",147.5014271,-41.1510634
256,5290,"Mount Gambier SA 5290, Australia",140.7712393,-37.8256039
257,2575,"Balaclava NSW 2575, Australia",150.3500838,-34.358075
258,3943,"Sorrento VIC 3943, Australia",144.746696,-38.3477833
259,6057,"High Wycombe WA 6057, Australia",116.0118335,-31.948787
260,2844,"Dunedoo NSW 2844, Australia",149.3339956,-32.0462102
261,4017,"Sandgate QLD 4017, Australia",153.0339889,-27.3190241
262,3361,"Skipton VIC 3361, Australia",143.3474304,-37.7488709
263,3111,"Donvale VIC 3111, Australia",145.1872619,-37.7901921
264,3931,"Mornington VIC 3931, Australia",145.0603633,-38.2277083
265,6167,"Medina WA 6167, Australia",115.8403461,-32.2244737
266,2283,"Fennell Bay NSW 2283, Australia",151.5953736,-33.050132
267,3844,"Carrajung VIC 3844, Australia",146.5840737,-38.2728501
268,3061,"Campbellfield VIC 3061, Australia",144.955677,-37.665113
269,4550,"Landsborough QLD 4550, Australia",152.9666291,-26.8000383
270,5108,"Salisbury North SA 5108, Australia",138.6288642,-34.7552535
271,4500,"Cashmere QLD 4500, Australia",152.9323602,-27.3033237
272,2594,"Memagong NSW 2594, Australia",148.0982046,-34.2563299
273,2225,"Oyster Bay NSW 2225, Australia",151.0791612,-34.0016599
274,2750,"South Penrith NSW 2750, Australia",150.6865817,-33.744767
275,4221,"Palm Beach QLD 4221, Australia",153.4543191,-28.1288855
276,3250,"Colac West VIC 3250, Australia",143.5852111,-38.3313559
277,2168,"Hinchinbrook NSW 2168, Australia",150.8783824,-33.9117729
278,2711,"New South Wales 2711, Australia",144.4342138,-33.9871774
279,3104,"Balwyn North VIC 3104, Australia",145.0879338,-37.7941151
280,2830,"New South Wales 2830, Australia",148.6001005,-32.1754247
281,3166,"Huntingdale VIC 3166, Australia",145.0989646,-37.9006677
282,6722,"Western Australia 6722, Australia",119.1390642,-20.2571534
283,2147,"Lalor Park NSW 2147, Australia",150.9365521,-33.7632936
284,2506,"Berkeley NSW 2506, Australia",150.840584,-34.4793722
285,3249,"Dreeite South VIC 3249, Australia",143.4338092,-38.36853
286,5037,"Kurralta Park SA 5037, Australia",138.5512419,-34.9545329
287,4870,"Westcourt QLD 4870, Australia",145.7405497,-16.918648
288,6021,"Balcatta WA 6021, Australia",115.8107681,-31.8759953
289,2213,"Picnic Point NSW 2213, Australia",150.9947439,-33.9519315
290,3088,"St Helena VIC 3088, Australia",145.1099967,-37.698595
291,3032,"Ascot Vale VIC 3032, Australia",144.9006313,-37.7773364
292,4159,"Birkdale QLD 4159, Australia",153.2208914,-27.4880371
293,2441,"Cooperabung NSW 2441, Australia",152.8029443,-31.2127192
294,4208,"Gilberton QLD 4208, Australia",153.2857165,-27.7674471
295,3934,"Mount Martha VIC 3934, Australia",145.016269,-38.287039
296,2577,"Canyonleigh NSW 2577, Australia",150.4428323,-34.6253671
297,2262,"Doyalson North NSW 2262, Australia",151.5428026,-33.2075583
298,2113,"East Ryde NSW 2113, Australia",151.134494,-33.7934648
299,3356,"Delacombe VIC 3356, Australia",143.8183092,-37.5881949
300,4580,"Cooloola Cove QLD 4580, Australia",153.0618566,-26.0346017
301,3165,"Bentleigh East VIC 3165, Australia",145.0658766,-37.9174873
302,3891,"Wangarabell VIC 3891, Australia",149.5642369,-37.5126059
303,4154,"Wakerley QLD 4154, Australia",153.161976,-27.486707
304,2164,"Woodpark NSW 2164, Australia",150.9132815,-33.8492918
305,4019,"Clontarf QLD 4019, Australia",153.0912986,-27.2439947
306,2318,"Campvale NSW 2318, Australia",151.8643252,-32.753389
307,2151,"North Rocks NSW 2151, Australia",151.0180269,-33.7739537
308,2643,"Howlong NSW 2643, Australia",146.6289429,-35.9580119
309,3146,"Glen Iris VIC 3146, Australia",145.0548502,-37.8577136
310,5048,"Hove SA 5048, Australia",138.5237246,-35.0185675
311,5034,"Kings Park SA 5034, Australia",138.5912914,-34.9528246
312,4812,"Mysterton QLD 4812, Australia",146.7917682,-19.2873647
313,3380,"Stawell VIC 3380, Australia",142.7777088,-37.0517769
314,7307,"Sassafras TAS 7307, Australia",146.5081573,-41.2301525
315,3140,"Lilydale VIC 3140, Australia",145.3475331,-37.7643547
316,3636,"Naring VIC 3636, Australia",145.5136433,-36.102425
317,2450,"Upper Orara NSW 2450, Australia",152.9676695,-30.16526
318,2143,"Potts Hill NSW 2143, Australia",151.0296696,-33.8893965
319,3215,"Hamlyn Heights VIC 3215, Australia",144.3357845,-38.1083132
320,3644,"New South Wales 3644, Australia",145.736481,-35.9546799
321,3747,"Stanley VIC 3747, Australia",146.6962857,-36.3851254
322,4077,"Inala QLD 4077, Australia",152.9794406,-27.5951554
323,2305,"New Lambton NSW 2305, Australia",151.7064109,-32.9274242
324,7030,"Tasmania 7030, Australia",147.0214014,-42.1876915
325,2576,"Kangaloon NSW 2576, Australia",150.4660289,-34.5304441
326,3029,"Tarneit VIC 3029, Australia",144.7082568,-37.8282806
327,7252,"Windermere TAS 7252, Australia",147.061503,-41.0866925
328,2756,"Lower Portland NSW 2756, Australia",150.7214362,-33.3137032
329,2163,"Lansdowne NSW 2163, Australia",150.9801939,-33.884368
330,5112,"Elizabeth Vale SA 5112, Australia",138.673985,-34.7325385
331,3192,"Cheltenham VIC 3192, Australia",145.0658766,-37.964155
332,5069,"St Peters SA 5069, Australia",138.6263585,-34.9078055
333,3216,"Highton VIC 3216, Australia",144.3139277,-38.1747227
334,6026,"Kingsley WA 6026, Australia",115.798936,-31.8042538
335,6065,"Hocking WA 6065, Australia",115.816684,-31.763241
336,2620,"New South Wales 2620, Australia",149.0123679,-35.631888
337,5070,"Payneham SA 5070, Australia",138.6413941,-34.8956922
338,2257,"Killcare Heights NSW 2257, Australia",151.3385191,-33.5220832
339,6156,"Willagee WA 6156, Australia",115.8018941,-32.0396369
340,4037,"Eatons Hill QLD 4037, Australia",152.9353024,-27.3392025
341,2712,"Berrigan NSW 2712, Australia",145.8023118,-35.7148531
342,3049,"Westmeadows VIC 3049, Australia",144.8896264,-37.6707522
343,3221,"Barrabool VIC 3221, Australia",144.1501922,-38.1636337
344,2590,"Cootamundra NSW 2590, Australia",147.9617144,-34.6546705
345,4558,"Kuluin QLD 4558, Australia",153.0795213,-26.6541595
346,2280,"Marks Point NSW 2280, Australia",151.6713386,-33.0223311
347,4212,"Helensvale QLD 4212, Australia",153.4036287,-27.7918539
348,3064,"Donnybrook VIC 3064, Australia",144.9391595,-37.5424079
349,3619,"3619 Australia Dr, Lexington Park, MD 20653, USA",-76.4685007,38.2584887
350,7011,"Berriedale TAS 7011, Australia",147.2330077,-42.7954134
351,5018,"Outer Harbor SA 5018, Australia",138.4937213,-34.7773088
352,3717,"Flowerdale VIC 3717, Australia",145.402868,-37.3030137
353,3373,"Lake Goldsmith VIC 3373, Australia",143.3474304,-37.4528631
354,3020,"Sunshine VIC 3020, Australia",144.823628,-37.7791149
355,3995,"Harmers Haven VIC 3995, Australia",145.6023644,-38.6238593
356,3695,"Sandy Creek VIC 3695, Australia",147.1238691,-36.3055342
357,4068,"Taringa QLD 4068, Australia",152.973555,-27.5017624
358,4226,"Merrimac QLD 4226, Australia",153.3859379,-28.0648601
359,4165,"Redland Bay QLD 4165, Australia",153.2999867,-27.5833177
360,2731,"Womboota NSW 2731, Australia",144.6533747,-35.874342
361,2208,"Kingsgrove NSW 2208, Australia",151.0995447,-33.9379361
362,2160,"Merrylands NSW 2160, Australia",150.9831038,-33.8365794
363,4505,"Burpengary East QLD 4505, Australia",152.9727474,-27.1544509
364,2770,"Blackett NSW 2770, Australia",150.8086082,-33.7610185
365,5142,"Uraidla SA 5142, Australia",138.7417347,-34.9599982
366,4214,"Parkwood QLD 4214, Australia",153.3623524,-27.9623616
367,7140,"Tasmania 7140, Australia",146.5885592,-42.5170721
368,3355,"Mitchell Park VIC 3355, Australia",143.7911684,-37.5089149
369,2745,"Regentville NSW 2745, Australia",150.6517354,-33.8479652
370,6010,"Karrakatta WA 6010, Australia",115.7752703,-31.9685608
371,2785,"Blackheath NSW 2785, Australia",150.2458144,-33.7110343
372,4508,"Deception Bay QLD 4508, Australia",153.0206446,-27.1859323
373,2130,"Summer Hill NSW 2130, Australia",151.1359504,-33.8922971
374,7008,"New Town TAS 7008, Australia",147.2858972,-42.8667403
375,5291,"Carpenter Rocks SA 5291, Australia",140.7091777,-37.9551815
376,2447,"Congarinni NSW 2447, Australia",152.8735247,-30.740808
377,2347,"Cobbadah NSW 2347, Australia",150.4892292,-30.3053875
378,2256,"Patonga NSW 2256, Australia",151.2568777,-33.5117779
379,2259,"Hamlyn Terrace NSW 2259, Australia",151.3501856,-33.2059456
380,6016,"Mount Hawthorn WA 6016, Australia",115.8373885,-31.920607
381,2329,"New South Wales 2329, Australia",150.1184797,-32.0459832
382,2533,"Kiama Downs NSW 2533, Australia",150.7795452,-34.6635132
383,4114,"Kingston QLD 4114, Australia",153.1030766,-27.6372491
384,4554,"Eudlo QLD 4554, Australia",152.9617842,-26.7280729
385,4211,"Pacific Pines QLD 4211, Australia",153.3222261,-27.995579
386,4573,"Mount Coolum QLD 4573, Australia",153.0879644,-26.5394151
387,4509,"Mango Hill QLD 4509, Australia",153.0265315,-27.2360306
388,3137,"Kilsyth VIC 3137, Australia",145.3198788,-37.8253798
389,5125,"Golden Grove SA 5125, Australia",138.7241621,-34.7715516
390,3300,"Hamilton VIC 3300, Australia",142.0003599,-37.783845
391,3173,"Keysborough VIC 3173, Australia",145.1706992,-38.0042683
392,3643,"3643 Australia Dr, Lexington Park, MD 20653, USA",-76.4685013,38.2584895
393,2121,"Epping NSW 2121, Australia",151.0791612,-33.7716764
394,2452,"Sawtell NSW 2452, Australia",153.0912986,-30.3581041
395,3272,"Mortlake VIC 3272, Australia",142.8312661,-38.002399
396,5353,"Cambrai SA 5353, Australia",139.3247147,-34.5869221
397,5159,"Aberfoyle Park SA 5159, Australia",138.5887875,-35.0684302
398,6109,"Orange Grove WA 6109, Australia",116.0118335,-32.0440832
399,3072,"Preston VIC 3072, Australia",145.0107588,-37.7399362
400,5051,"Blackwood SA 5051, Australia",138.623853,-35.0326583
401,7320,"Upper Burnie TAS 7320, Australia",145.8962992,-41.0701328
402,2300,"Bar Beach NSW 2300, Australia",151.7795013,-32.9272155
403,3149,"Mount Waverley VIC 3149, Australia",145.1265477,-37.8772869
404,2316,"Bobs Farm NSW 2316, Australia",152.0399534,-32.7647951
405,4655,"Nikenbah QLD 4655, Australia",152.8235456,-25.2965245
406,3946,"Bena VIC 3946, Australia",145.7245012,-38.4506894
407,2668,"Barmedman NSW 2668, Australia",147.4174803,-34.0966466
408,4217,"Benowa QLD 4217, Australia",153.4095259,-28.004695
409,4885,"Jaggan QLD 4885, Australia",145.5936206,-17.3535838
410,2444,"Blackmans Point NSW 2444, Australia",152.8499952,-31.392698
411,2530,"Penrose NSW 2530, Australia",150.7446771,-34.5227686
412,2790,"Sheedys Gully NSW 2790, Australia",150.1647697,-33.495962
413,5041,"Cumberland Park SA 5041, Australia",138.5937955,-34.9836086
414,4873,"Dagmar QLD 4873, Australia",145.2701235,-16.2446478
415,3597,"Narrung VIC 3597, Australia",143.1749726,-34.9071543
416,5107,"Green Fields SA 5107, Australia",138.613832,-34.7811623
417,7325,"Calder TAS 7325, Australia",145.6211457,-41.0680807
418,7315,"Leith TAS 7315, Australia",146.1037444,-41.3068098
419,3136,"Croydon South VIC 3136, Australia",145.2811778,-37.7983502
420,5097,"St Agnes SA 5097, Australia",138.7040858,-34.8183744
421,2630,"New South Wales 2630, Australia",149.1960526,-36.3150116
422,2304,"Sandgate NSW 2304, Australia",151.7356433,-32.877603
423,5253,"Ettrick SA 5253, Australia",139.4872858,-35.0218395
424,4606,"Mp Creek QLD 4606, Australia",151.8175207,-26.277494
425,3646,"Mount Major VIC 3646, Australia",145.7133909,-36.2251044
426,3194,"Moorabbin Airport VIC 3194, Australia",145.0741474,-37.9786189
427,2112,"Putney NSW 2112, Australia",151.1111936,-33.807991
428,2211,"Padstow Heights NSW 2211, Australia",151.0296696,-33.9608964
429,5085,"Northgate SA 5085, Australia",138.613832,-34.854518
430,3037,"Taylors Hill VIC 3037, Australia",144.7521888,-37.6940036
431,2142,"Clyde NSW 2142, Australia",151.006385,-33.8323277
432,4060,"Ashgrove QLD 4060, Australia",152.9823835,-27.4412376
433,3714,"Acheron VIC 3714, Australia",145.6245586,-37.1872994
434,3056,"Brunswick VIC 3056, Australia",144.9584302,-37.7666099
435,3465,"Timor VIC 3465, Australia",143.6935405,-37.0550295
436,6230,"Bunbury WA 6230, Australia",115.6273131,-33.3870825
437,6164,"Beeliar WA 6164, Australia",115.8640062,-32.1346584
438,3047,"Broadmeadows VIC 3047, Australia",144.9336544,-37.6763574
439,4385,"Queensland 4385, Australia",151.0707902,-28.8427232
440,2125,"West Pennant Hills NSW 2125, Australia",151.0296696,-33.7462388
441,3139,"Don Valley VIC 3139, Australia",145.5579927,-37.8251456
442,2333,"Gungal NSW 2333, Australia",150.7214362,-32.2415573
443,2126,"Cherrybrook NSW 2126, Australia",151.0413133,-33.7287467
444,2197,"Bass Hill NSW 2197, Australia",150.9976541,-33.8990652
445,4157,"Sheldon QLD 4157, Australia",153.1979543,-27.5819961
446,3144,"Kooyong VIC 3144, Australia",145.0355574,-37.8535148
447,4164,"Thornlands QLD 4164, Australia",153.2621415,-27.5671583
448,3011,"Seddon VIC 3011, Australia",144.9006313,-37.7960195
449,4005,"New Farm QLD 4005, Australia",153.0471371,-27.4655769
450,3089,"Diamond Creek VIC 3089, Australia",145.1541397,-37.6666174
451,3051,"North Melbourne VIC 3051, Australia",144.9419122,-37.7983816
452,6008,"Subiaco WA 6008, Australia",115.8137261,-31.9575626
453,6053,"Bayswater WA 6053, Australia",115.9172336,-31.9164799
454,3765,"Montrose VIC 3765, Australia",145.353065,-37.8083883
455,3079,"Ivanhoe VIC 3079, Australia",145.0438252,-37.7698427
456,3155,"Boronia VIC 3155, Australia",145.2867055,-37.8610682
457,2538,"Woodburn NSW 2538, Australia",150.2805623,-35.4461873
458,2200,"Bankstown NSW 2200, Australia",151.0296696,-33.9200458
459,3195,"Waterways VIC 3195, Australia",145.1044805,-38.0005492
460,3807,"Beaconsfield VIC 3807, Australia",145.3862638,-38.0347309
461,2291,"The Junction NSW 2291, Australia",151.744414,-32.9497012
462,6050,"Mount Lawley WA 6050, Australia",115.8699209,-31.9267875
463,3127,"Mont Albert VIC 3127, Australia",145.0989646,-37.8259003
464,2203,"Dulwich Hill NSW 2203, Australia",151.1374068,-33.9041707
465,2250,"Central Mangrove NSW 2250, Australia",151.1869325,-33.3502247
466,3984,"Corinella VIC 3984, Australia",145.5579927,-38.3114378
467,2787,"New South Wales 2787, Australia",149.9334764,-33.9632764
468,4101,"Highgate Hill QLD 4101, Australia",153.0118145,-27.4799195
469,2782,"Wentworth Falls NSW 2782, Australia",150.3790612,-33.7206345
470,4155,"Chandler QLD 4155, Australia",153.1559725,-27.5139687
471,5355,"Stockwell SA 5355, Australia",139.0211225,-34.4459575
472,2528,"Windang NSW 2528, Australia",150.8551207,-34.5566631
473,6215,"Wagerup WA 6215, Australia",115.8994923,-32.8757647
474,6166,"Henderson WA 6166, Australia",115.7871034,-32.146131
475,3304,"Winnap VIC 3304, Australia",141.3889736,-37.9678788
476,4152,"Carindale QLD 4152, Australia",153.1030766,-27.5070527
477,7330,"Tasmania 7330, Australia",144.9885732,-40.8894957
478,3517,"Bears Lagoon VIC 3517, Australia",143.8671868,-36.515547
479,5250,"Totness SA 5250, Australia",138.8648975,-35.0404491
480,2217,"Kogarah Bay NSW 2217, Australia",151.1374068,-33.9757081
481,3953,"Leongatha VIC 3953, Australia",146.002705,-38.4586497
482,3015,"Spotswood VIC 3015, Australia",144.8786231,-37.8352097
483,2766,"Eastern Creek NSW 2766, Australia",150.8493059,-33.8072744
484,3777,"Toolangi VIC 3777, Australia",145.5136433,-37.5848772
485,3719,"Yarck VIC 3719, Australia",145.6023644,-37.0473079
486,3233,"Cape Otway VIC 3233, Australia",143.6285244,-38.7494709
487,5153,"Green Hills Range SA 5153, Australia",138.7794089,-35.08318
488,5022,"Grange SA 5022, Australia",138.496221,-34.9042495
489,2106,"Newport NSW 2106, Australia",151.3122727,-33.6566564
490,4370,"Mount Tabor QLD 4370, Australia",152.0281585,-28.215734
491,5267,"South Australia 5267, Australia",140.4308159,-36.0969888
492,4128,"Tanah Merah QLD 4128, Australia",153.1737578,-27.6519632
493,4280,"Jimboomba QLD 4280, Australia",153.0383059,-27.835059
494,2196,"Punchbowl NSW 2196, Australia",151.0558691,-33.9293131
495,7054,"Leslie Vale TAS 7054, Australia",147.2181098,-42.8994454
496,3205,"South Melbourne VIC 3205, Australia",144.963937,-37.8338889
497,3028,"Altona Meadows VIC 3028, Australia",144.7796581,-37.8760399
498,5261,"Coomandook SA 5261, Australia",139.7319925,-35.5620717
499,5014,"Hendon SA 5014, Australia",138.5137217,-34.8680352
500,4285,"Chinghee Creek QLD 4285, Australia",152.9676695,-28.0150124
501,4860,"East Innisfail QLD 4860, Australia",146.0278258,-17.5226829
502,4680,"Benaraby QLD 4680, Australia",151.2463137,-23.8783576
503,2548,"Bournda NSW 2548, Australia",149.8757147,-36.8301133
504,3204,"McKinnon VIC 3204, Australia",145.0438252,-37.9193526
505,4122,"Mount Gravatt East QLD 4122, Australia",153.0912986,-27.5480097
506,3093,"Lower Plenty VIC 3093, Australia",145.112755,-37.7393287
507,3228,"Bells Beach VIC 3228, Australia",144.2374759,-38.3419249
508,5256,"Nurragi SA 5256, Australia",139.0211225,-35.4388004
509,3085,"Macleod VIC 3085, Australia",145.0769045,-37.7248812
510,2117,"Dundas Valley NSW 2117, Australia",151.0296696,-33.7973906
511,3048,"Coolaroo VIC 3048, Australia",144.9226452,-37.6539007
512,2153,"Bella Vista NSW 2153, Australia",150.9889238,-33.7613862
513,7018,"Montagu Bay TAS 7018, Australia",147.3974376,-42.8727195
514,5211,"Waitpinga SA 5211, Australia",138.5187229,-35.5042622
515,2768,"Glenwood NSW 2768, Australia",150.9278252,-33.7278158
516,2550,"New South Wales 2550, Australia",149.7487272,-36.6279305
517,3083,"Bundoora VIC 3083, Australia",145.0548502,-37.6987006
518,4209,"Willow Vale QLD 4209, Australia",153.2992885,-27.852293
519,3068,"Fitzroy North VIC 3068, Australia",144.9887218,-37.7885749
520,6239,"Beelerup WA 6239, Australia",115.8758354,-33.6142021
521,3094,"Montmorency VIC 3094, Australia",145.1237889,-37.7196403
522,4032,"Chermside West QLD 4032, Australia",153.023588,-27.3847107
523,3478,"Warrenmang VIC 3478, Australia",143.2827118,-37.0021242
524,3187,"Brighton East VIC 3187, Australia",145.0190242,-37.9179439
525,5062,"Springfield SA 5062, Australia",138.6338758,-34.9818924
526,2753,"Hobartville NSW 2753, Australia",150.6981989,-33.6149421
527,2228,"Miranda NSW 2228, Australia",151.1024569,-34.03825
528,5260,"Tailem Bend SA 5260, Australia",139.5076392,-35.3064118
529,4517,"Beerburrum QLD 4517, Australia",153.0265315,-26.953469
530,5064,"Urrbrae SA 5064, Australia",138.6439004,-34.9585672
531,5032,"Lockleys SA 5032, Australia",138.5437358,-34.9262534
532,2628,"Byadbo Wilderness NSW 2628, Australia",148.7831534,-36.5490119
533,3193,"Black Rock VIC 3193, Australia",145.0328017,-37.9809272
534,2760,"Colyton NSW 2760, Australia",150.7737333,-33.7520107
535,2338,"Sandy Creek NSW 2338, Australia",151.0005643,-31.7295314
536,3128,"Box Hill South VIC 3128, Australia",145.1210303,-37.8333543
537,3377,"Eversley VIC 3377, Australia",142.9170407,-37.2971613
538,5061,"Unley SA 5061, Australia",138.6063175,-34.9544679
539,2260,"North Avoca NSW 2260, Australia",151.4377107,-33.4287117
540,3131,"Forest Hill VIC 3131, Australia",145.1762197,-37.8239091
541,3266,"Elingamite VIC 3266, Australia",143.1534436,-38.3948462
542,3854,"Glengarry VIC 3854, Australia",146.5840737,-38.1223546
543,3977,"Junction Village VIC 3977, Australia",145.2811778,-38.1347885
544,2773,"Glenbrook NSW 2773, Australia",150.6227031,-33.7639036
545,2757,"Kurmond NSW 2757, Australia",150.7011034,-33.5517656
546,4880,"Arriga QLD 4880, Australia",145.3585972,-16.9941129
547,4701,"Kawana QLD 4701, Australia",150.5501151,-23.3500536
548,3170,"Mulgrave VIC 3170, Australia",145.1762197,-37.9267579
549,3169,"Clayton South VIC 3169, Australia",145.1210303,-37.9454838
550,4123,"Rochedale QLD 4123, Australia",153.1207447,-27.5812621
551,4210,"Wongawallan QLD 4210, Australia",153.2805288,-27.9336003
552,6154,"Myaree WA 6154, Australia",115.8255575,-32.0397876
553,812,"Australia 812, Solidaridad, Voluntad y Trabajo, 89317 Tampico, Tamps., Mexico",-97.8528869,22.3118417
554,4503,"Murrumba Downs QLD 4503, Australia",152.9926352,-27.2508424
555,5063,"Eastwood SA 5063, Australia",138.6213476,-34.9515307
556,7216,"Goulds Country TAS 7216, Australia",148.1277503,-41.2708866
557,3763,"Kinglake VIC 3763, Australia",145.3696628,-37.5087273
558,2776,"Faulconbridge NSW 2776, Australia",150.5501477,-33.6863276
559,2150,"Harris Park NSW 2150, Australia",151.0092954,-33.8151823
560,2440,"New South Wales 2440, Australia",152.5443612,-30.9630729
561,7053,"Taroona TAS 7053, Australia",147.3427927,-42.9517774
562,2829,"New South Wales 2829, Australia",148.4629997,-30.7820705
563,2352,"Limbri NSW 2352, Australia",151.1636244,-31.0794521
564,4807,"Mcdesme QLD 4807, Australia",147.1464245,-19.9200364
565,2199,"Yagoona NSW 2199, Australia",151.0209375,-33.9050378
566,7005,"Sandy Bay TAS 7005, Australia",147.3433798,-42.9148213
567,2335,"North Rothbury NSW 2335, Australia",151.3501856,-32.6270649
568,3106,"Templestowe VIC 3106, Australia",145.1486206,-37.7537669
569,5019,"Semaphore Park SA 5019, Australia",138.4812248,-34.8476837
570,2525,"Figtree NSW 2525, Australia",150.8434913,-34.4319396
571,2758,"Kurrajong Heights NSW 2758, Australia",150.535641,-33.5114239
572,6054,"Ashfield WA 6054, Australia",115.9408868,-31.9007183
573,3551,"Myrtle Creek VIC 3551, Australia",144.4779988,-36.8021738
574,3135,"Heathmont VIC 3135, Australia",145.2535448,-37.8218486
575,3930,"Mount Eliza VIC 3930, Australia",145.0879338,-38.1952209
576,2131,"Ashfield NSW 2131, Australia",151.125756,-33.8909735
577,2138,"Rhodes NSW 2138, Australia",151.0908086,-33.8462611
578,2454,"Brierfield NSW 2454, Australia",152.8735247,-30.4855002
579,2285,"Cardiff Heights NSW 2285, Australia",151.6187438,-32.9110348
580,4020,"Scarborough QLD 4020, Australia",153.1060212,-27.2171518
581,6031,"Banksia Grove WA 6031, Australia",115.7693535,-31.6884631
582,2321,"Glen William NSW 2321, Australia",151.4435474,-32.6916544
583,3076,"Epping VIC 3076, Australia",145.016269,-37.6341341
584,3608,"Goulburn Weir VIC 3608, Australia",145.1155133,-36.7719697
585,5068,"Kensington SA 5068, Australia",138.6564337,-34.9202316
586,2529,"Shell Cove NSW 2529, Australia",150.8551207,-34.5971935
587,2154,"Castle Hill NSW 2154, Australia",150.9947439,-33.7270691
588,3201,"Carrum Downs VIC 3201, Australia",145.1706992,-38.0975353
589,4714,"Mount Morgan QLD 4714, Australia",150.3965401,-23.6436045
590,2540,"New South Wales 2540, Australia",150.5976674,-35.1516626
591,5152,"Crafers West SA 5152, Australia",138.7091042,-34.9900747
592,4514,"Neurum QLD 4514, Australia",152.7779946,-26.9550035
593,3918,"Bittern VIC 3918, Australia",145.165179,-38.3329437
594,2701,"Rannock NSW 2701, Australia",147.2366964,-34.6770935
595,6149,"Leeming WA 6149, Australia",115.8580914,-32.0671284
596,2122,"4 Corunna Rd, Eastwood NSW 2122, Australia",151.0939569,-33.7836737
597,3174,"Noble Park North VIC 3174, Australia",145.1762197,-37.9641212
598,2847,"Portland NSW 2847, Australia",149.9681453,-33.3520881
599,3434,"Cherokee VIC 3434, Australia",144.7192376,-37.3550485
600,3103,"Balwyn VIC 3103, Australia",145.0769045,-37.8090918
601,2334,"Greta NSW 2334, Australia",151.38519,-32.6875639
602,7173,"Carlton TAS 7173, Australia",147.6846018,-42.8403868
603,3125,"Burwood VIC 3125, Australia",145.1099967,-37.8483275
604,7322,"Somerset TAS 7322, Australia",145.7875622,-41.0574425
605,3133,"Vermont VIC 3133, Australia",145.1983055,-37.8500602
606,4112,"Kuraby QLD 4112, Australia",153.0942431,-27.605579
607,6017,"Herdsman WA 6017, Australia",115.8107681,-31.9078253
608,5214,"Goolwa SA 5214, Australia",138.8397403,-35.4919667
609,4223,"Currumbin Waters QLD 4223, Australia",153.4341362,-28.1700418
610,3783,"Gembrook VIC 3783, Australia",145.6023644,-37.9524044
611,7000,"North Hobart TAS 7000, Australia",147.3100401,-42.8744692
612,4515,"Glenfern QLD 4515, Australia",152.4973826,-26.789344
613,2265,"Cooranbong NSW 2265, Australia",151.4435474,-33.0641471
614,4566,"Noosaville QLD 4566, Australia",153.0505806,-26.4134913
615,6035,"Yanchep WA 6035, Australia",115.7338502,-31.536528
616,6024,"Greenwood WA 6024, Australia",115.8107681,-31.8335417
617,3915,"Hastings VIC 3915, Australia",145.1265477,-38.3059216
618,3400,"Horsham VIC 3400, Australia",142.1806128,-36.7204107
619,2502,"Warrawong NSW 2502, Australia",150.8754745,-34.4884509
620,3102,"Kew East VIC 3102, Australia",145.0548502,-37.7922797
621,6061,"Nollamara WA 6061, Australia",115.8462613,-31.8682916
622,2517,"Russell Vale NSW 2517, Australia",150.9016476,-34.3454996
623,3186,"Brighton VIC 3186, Australia",144.9997396,-37.9044002
624,2774,"Blaxland NSW 2774, Australia",150.6168974,-33.7266709
625,2464,"Yuraygir NSW 2464, Australia",153.332874,-29.4843022
626,3190,"Highett VIC 3190, Australia",145.0410692,-37.9487497
627,2462,"Ulmarra NSW 2462, Australia",153.1325243,-29.7093022
628,3018,"Altona VIC 3018, Australia",144.8126334,-37.859343
629,4205,"Bethania QLD 4205, Australia",153.1590306,-27.6895821
630,4555,"Palmwoods QLD 4555, Australia",152.9559142,-26.6934868
631,2546,"Cuttagee NSW 2546, Australia",149.9797036,-36.2586281
632,4118,"Hillcrest QLD 4118, Australia",153.0500809,-27.6749806
633,4340,"Rosevale QLD 4340, Australia",152.4973826,-27.7418746
634,3034,"Avondale Heights VIC 3034, Australia",144.8648709,-37.7628247
635,4858,"Mourilyan QLD 4858, Australia",146.0702738,-17.5833191
636,5167,"Port Noarlunga South SA 5167, Australia",138.4737282,-35.1530214
637,3172,"Springvale South VIC 3172, Australia",145.1320653,-37.9772192
638,5095,"Mawson Lakes SA 5095, Australia",138.613832,-34.8178472
639,4387,"Bybera QLD 4387, Australia",151.0800137,-28.4158556
640,2299,"Lambton NSW 2299, Australia",151.7034879,-32.9085765
641,2835,"New South Wales 2835, Australia",145.1375834,-31.6862716
642,4300,"Carole Park QLD 4300, Australia",152.908824,-27.6453606
643,5045,"Glenelg South SA 5045, Australia",138.5162223,-34.9765911
644,4170,"Cannon Hill QLD 4170, Australia",153.0750052,-27.4620175
645,2214,"Milperra NSW 2214, Australia",150.9801939,-33.9405364
646,3024,"Wyndham Vale VIC 3024, Australia",144.5875645,-37.8706337
647,3059,"Greenvale VIC 3059, Australia",144.8841246,-37.6454887
648,3757,"Kinglake Central VIC 3757, Australia",145.1596592,-37.4666309
649,2120,"Pennant Hills NSW 2120, Australia",151.0762495,-33.7274311
650,2204,"Marrickville NSW 2204, Australia",151.1548847,-33.9086291
651,2566,"St Andrews NSW 2566, Australia",150.8493059,-34.0317453
652,2850,"New South Wales 2850, Australia",149.5642369,-32.5593561
653,3305,"Portland West VIC 3305, Australia",141.4706543,-38.290126
654,3805,"Narre Warren VIC 3805, Australia",145.3032906,-38.0302499
655,3107,"Templestowe Lower VIC 3107, Australia",145.1099967,-37.7641408
656,3467,"Avoca VIC 3467, Australia",143.4554195,-37.0638618
657,3936,"Dromana VIC 3936, Australia",144.9942305,-38.3352183
658,2622,"New South Wales 2622, Australia",149.7487272,-35.52059
659,2210,"Lugarno NSW 2210, Australia",151.0529578,-33.9566557
660,5007,"Brompton SA 5007, Australia",138.571263,-34.9033293
661,5096,"Para Hills West SA 5096, Australia",138.6539268,-34.8068805
662,4879,"Ellis Beach QLD 4879, Australia",145.6717627,-16.7705777
663,2477,"Rous Mill NSW 2477, Australia",153.4154233,-28.9094612
664,4016,"4016 Australia Way W, Clearwater, FL 33763, USA",-82.7397537,27.9969759
665,2161,"Old Guildford NSW 2161, Australia",150.9831038,-33.8570185
666,7004,"South Hobart TAS 7004, Australia",147.2829703,-42.8954918
667,5052,"Glenalta SA 5052, Australia",138.6439004,-35.004348
668,2101,"Narrabeen NSW 2101, Australia",151.2685382,-33.6891976
669,3324,"Mount Bute VIC 3324, Australia",143.3474304,-37.8964298
670,6030,"Ridgewood WA 6030, Australia",115.7220148,-31.6986683
671,3207,"Port Melbourne VIC 3207, Australia",144.9226452,-37.8315264
672,2219,"Sans Souci NSW 2219, Australia",151.1315813,-33.9946489
673,5090,"Hope Valley SA 5090, Australia",138.6965591,-34.8450957
674,3660,"Whiteheads Creek VIC 3660, Australia",145.2480193,-37.0435482
675,6005,"West Perth WA 6005, Australia",115.8373885,-31.9577214
676,4035,"Albany Creek QLD 4035, Australia",152.9794406,-27.3565346
677,7190,"Orford TAS 7190, Australia",147.8670095,-42.4174663
678,3677,"Wangaratta VIC 3677, Australia",146.3264849,-36.3742363
679,5066,"Stonyfell SA 5066, Australia",138.663955,-34.9485341
680,2104,"Bayview NSW 2104, Australia",151.2889461,-33.6610245
681,5081,"Medindie SA 5081, Australia",138.6163371,-34.8899195
682,4344,"Stockyard QLD 4344, Australia",152.1238169,-27.5496811
683,6007,"West Leederville WA 6007, Australia",115.8373885,-31.9365146
684,3152,"Wantirna VIC 3152, Australia",145.220397,-37.8668518
685,4303,"New Chum QLD 4303, Australia",152.8441133,-27.5938311
686,6173,"Secret Harbour WA 6173, Australia",115.7634366,-32.4051251
687,3101,"Kew VIC 3101, Australia",145.0328017,-37.803516
688,6157,"Bicton WA 6157, Australia",115.7841452,-32.0381954
689,5044,"Glengowrie SA 5044, Australia",138.5262256,-34.9944627
690,4506,"Morayfield QLD 4506, Australia",152.9264759,-27.133839
691,2141,"Lidcombe NSW 2141, Australia",151.0413133,-33.8719405
692,6153,"Brentwood WA 6153, Australia",115.8433037,-32.0253285
693,2488,"Bogangar NSW 2488, Australia",153.5393031,-28.3352184
694,2223,"Oatley NSW 2223, Australia",151.0762495,-33.9830462
695,4012,"Wavell Heights QLD 4012, Australia",153.0479657,-27.3930139
696,5168,"Noarlunga Centre SA 5168, Australia",138.5012206,-35.1621961
697,7256,"Yarra Creek TAS 7256, Australia",143.9370758,-39.8753477
698,4013,"Northgate QLD 4013, Australia",153.0706888,-27.3944936
699,5171,"Tatachilla SA 5171, Australia",138.5387323,-35.2029084
700,5266,"Deepwater SA 5266, Australia",139.9366899,-36.0477628
701,3910,"Langwarrin VIC 3910, Australia",145.1927835,-38.1608986
702,2463,"Woodford Island NSW 2463, Australia",153.2739287,-29.6112567
703,4174,"Hemmant QLD 4174, Australia",153.1295793,-27.4447063
704,2430,"Possum Brush NSW 2430, Australia",152.4973826,-31.9225132
705,4311,"Coominya QLD 4311, Australia",152.4269361,-27.4025873
706,2205,"Arncliffe NSW 2205, Australia",151.1490585,-33.9378099
707,2875,"Fifield NSW 2875, Australia",147.5532762,-32.9751777
708,2535,"Jaspers Brush NSW 2535, Australia",150.6981989,-34.7533953
709,4343,"College View QLD 4343, Australia",152.2799511,-27.5635723
710,2421,"Fishers Hill NSW 2421, Australia",151.5369624,-32.5902258
711,4272,"Tamborine Mountain QLD 4272, Australia",153.1973233,-27.9496437
712,6158,"East Fremantle WA 6158, Australia",115.7663951,-32.0367504
713,3555,"Big Hill VIC 3555, Australia",144.2483931,-36.808032
714,5024,"Fulham Gardens SA 5024, Australia",138.5137217,-34.9229531
715,6429,"Western Australia 6429, Australia",120.5279096,-30.9666494
716,4307,"Radford QLD 4307, Australia",152.6148504,-27.8318494
717,4066,"Toowong QLD 4066, Australia",152.9917027,-27.4756536
718,4075,"Oxley QLD 4075, Australia",152.9823847,-27.5443032
719,3928,"Main Ridge VIC 3928, Australia",144.9721978,-38.4018779
720,2132,"Croydon NSW 2132, Australia",151.114106,-33.8828873
721,3019,"Braybrook VIC 3019, Australia",144.8566207,-37.7903679
722,6110,"Gosnells WA 6110, Australia",116.0295671,-32.0772258
723,5023,"Seaton SA 5023, Australia",138.5137217,-34.8954981
724,4519,"Crohamhurst QLD 4519, Australia",152.8970569,-26.8507005
725,4127,"Daisy Hill QLD 4127, Australia",153.1443045,-27.629563
726,5074,"Campbelltown SA 5074, Australia",138.6714773,-34.8806117
727,2778,"Linden NSW 2778, Australia",150.4805286,-33.7344756
728,3352,"Blowhard VIC 3352, Australia",143.8671868,-37.7122033
729,4660,"South Isis QLD 4660, Australia",152.3095833,-25.1854347
730,6014,"Jolimont WA 6014, Australia",115.8018941,-31.9389216
731,6081,"Parkerville WA 6081, Australia",116.1477598,-31.8606768
732,2206,"Clemton Park NSW 2206, Australia",151.125756,-33.9267511
733,3638,"Kotupna VIC 3638, Australia",145.2038278,-36.0388917
734,3161,"Caulfield North VIC 3161, Australia",145.0190242,-37.8712631
735,2116,"Rydalmere NSW 2116, Australia",151.0384023,-33.8124093
736,3323,"Duverney VIC 3323, Australia",143.4986586,-38.0061194
737,4006,"Herston QLD 4006, Australia",153.0345152,-27.4500534
738,2537,"Kiora NSW 2537, Australia",149.9334764,-35.8894726
739,3531,"Boigbeat VIC 3531, Australia",142.9170407,-35.6512854
740,3206,"Middle Park VIC 3206, Australia",144.9584302,-37.8460268
741,2267,"Wangi Wangi NSW 2267, Australia",151.5749274,-33.0683359
742,3052,"Parkville VIC 3052, Australia",144.9474178,-37.7862363
743,3147,"Ashwood VIC 3147, Australia",145.0906914,-37.8675054
744,2473,"Evans Head NSW 2473, Australia",153.4213208,-29.1102761
745,3284,"Orford VIC 3284, Australia",142.2007574,-38.3689713
746,3124,"Camberwell VIC 3124, Australia",145.0658766,-37.8334095
747,3070,"Northcote VIC 3070, Australia",144.9997396,-37.7736132
748,5025,"Kidman Park SA 5025, Australia",138.5362308,-34.9117
749,4507,"Bongaree QLD 4507, Australia",153.1325243,-26.9861003
750,3289,"Gazette VIC 3289, Australia",142.318772,-37.8854097
751,3163,"Carnegie VIC 3163, Australia",145.0548502,-37.8950779
752,3054,"Princes Hill VIC 3054, Australia",144.9694441,-37.7843702
753,4671,"Booyal QLD 4671, Australia",151.9554405,-24.9910749
754,5010,"Angle Park SA 5010, Australia",138.5637543,-34.8612941
755,5013,"Wingfield SA 5013, Australia",138.5437358,-34.8438433
756,6056,"Bellevue WA 6056, Australia",116.0532101,-31.8602523
757,2198,"Georges Hall NSW 2198, Australia",150.9831038,-33.9183098
758,2480,"Rosebank NSW 2480, Australia",153.250355,-28.7665066
759,2578,"Bundanoon NSW 2578, Australia",150.2921468,-34.6559402
760,2666,"Springdale NSW 2666, Australia",147.5532762,-34.4152092
761,2355,"Retreat NSW 2355, Australia",151.0937206,-30.7474594
762,3451,"Guildford VIC 3451, Australia",144.1938221,-37.0991896
763,2845,"Wallerawang NSW 2845, Australia",150.0606392,-33.4174224
764,4859,"No 6 Branch QLD 4859, Australia",145.9955686,-17.5972126
765,4124,"Greenbank QLD 4124, Australia",152.946986,-27.7420185
766,4133,"Chambers Flat QLD 4133, Australia",153.1030766,-27.7240022
767,4213,"Austinville QLD 4213, Australia",153.3347271,-28.142191
768,2190,"Greenacre NSW 2190, Australia",151.0529578,-33.90558
769,2869,"Peak Hill NSW 2869, Australia",148.0982046,-32.6462279
770,3074,"Thomastown VIC 3074, Australia",145.0107588,-37.6837819
771,2307,"Shortland NSW 2307, Australia",151.6917966,-32.879801
772,3123,"Hawthorn East VIC 3123, Australia",145.0520938,-37.8310813
773,4113,"Runcorn QLD 4113, Australia",153.0795213,-27.5889518
774,3384,"Landsborough VIC 3384, Australia",143.0888943,-36.9882754
775,4116,"Stretton QLD 4116, Australia",153.0499871,-27.6238851
776,4575,"Bokarina QLD 4575, Australia",153.1300249,-26.7230355
777,2824,"New South Wales 2824, Australia",147.825395,-31.3469752
778,3414,"Antwerp VIC 3414, Australia",142.0639245,-36.314886
779,2849,"Olinda NSW 2849, Australia",150.1184797,-32.7056049
780,5008,"Croydon SA 5008, Australia",138.5637543,-34.8887724
781,3775,"Yarra Glen VIC 3775, Australia",145.3807298,-37.6158673
782,3723,"Victoria 3723, Australia",146.2929381,-37.2909944
783,2621,"Rossi NSW 2621, Australia",149.4490642,-35.4176011
784,5033,"West Richmond SA 5033, Australia",138.5612516,-34.9403794
785,2443,"Lakewood NSW 2443, Australia",152.7088752,-31.7402243
786,4613,"Okeden QLD 4613, Australia",151.6024678,-26.1648642
787,4156,"MacKenzie QLD 4156, Australia",153.1630145,-27.5589679
788,4163,"Cleveland QLD 4163, Australia",153.2667742,-27.5334347
789,5072,"Magill SA 5072, Australia",138.7040858,-34.9101042
790,4570,"East Deep Creek QLD 4570, Australia",152.6705427,-26.1882554
791,3444,"Greenhill VIC 3444, Australia",144.5656396,-37.1335012
792,4304,"Blackstone QLD 4304, Australia",152.8088251,-27.6080535
793,2794,"Bumbaldry NSW 2794, Australia",148.6001005,-33.8788824
794,3396,"Hopetoun VIC 3396, Australia",142.318772,-35.7360202
795,2403,"Gragin NSW 2403, Australia",150.7214362,-29.6456255
796,2428,"Green Point NSW 2428, Australia",152.4738975,-32.2735633
797,2763,"Acacia Gardens NSW 2763, Australia",150.8900145,-33.7206583
798,4310,"Frenches Creek QLD 4310, Australia",152.6853649,-28.0413603
799,7253,"George Town TAS 7253, Australia",146.8934925,-41.0894117
800,3180,"Knoxfield VIC 3180, Australia",145.250782,-37.8887649
801,2551,"Nungatta NSW 2551, Australia",149.7948904,-37.2277856
802,3095,"Eltham VIC 3095, Australia",145.1706992,-37.7049998
803,4557,"Mooloolaba QLD 4557, Australia",153.1010891,-26.6990471
804,5049,"Marino SA 5049, Australia",138.5237246,-35.0459889
805,3260,"Pomborneit VIC 3260, Australia",143.1319209,-38.1491105
806,2663,"Wantiool NSW 2663, Australia",147.6212403,-34.8118996
807,3219,"St Albans Park VIC 3219, Australia",144.3849841,-38.176358
808,3689,"3689 Australia Dr, Lexington Park, MD 20653, USA",-76.4685023,38.2584912
809,3033,"Keilor East VIC 3033, Australia",144.8566207,-37.7343192
810,3623,"Stanhope South VIC 3623, Australia",144.9832134,-36.4617737
811,5016,"Largs Bay SA 5016, Australia",138.4937213,-34.8231111
812,4054,"Keperra QLD 4054, Australia",152.9549828,-27.4119662
813,2714,"Tocumwal NSW 2714, Australia",145.3585972,-35.7249968
814,3141,"South Yarra VIC 3141, Australia",144.9914761,-37.838568
815,5581,"Port Vincent SA 5581, Australia",137.8328517,-34.7513478
816,3641,"Mywee VIC 3641, Australia",145.4471613,-35.9078595
817,3277,"Naringal VIC 3277, Australia",142.6814062,-38.4034955
818,4563,"Cooroy QLD 4563, Australia",152.8852905,-26.4240134
819,4821,"Stamford QLD 4821, Australia",144.1997353,-20.8464738
820,3171,"Springvale VIC 3171, Australia",145.1541397,-37.9473307
821,2344,"Winton NSW 2344, Australia",150.6981989,-31.1325489
822,3328,"Teesdale VIC 3328, Australia",144.0630048,-38.022066
823,2820,"Stuart Town NSW 2820, Australia",149.0123679,-32.5743502
824,2232,"Woronora NSW 2232, Australia",151.0646032,-34.0311029
825,3053,"Carlton VIC 3053, Australia",144.9694441,-37.798389
826,3311,"Corndale VIC 3311, Australia",141.2841298,-37.5824909
827,4715,"Biloela QLD 4715, Australia",150.3037323,-24.6360972
828,4742,"Elphinstone QLD 4742, Australia",148.4629997,-21.6738504
829,5113,"Elizabeth Downs SA 5113, Australia",138.673985,-34.7049853
830,2135,"Strathfield Plaza, 45 11/47 The Boulevarde, Strathfield NSW 2135, Australia",151.0940175,-33.8730275
831,3145,"Malvern East VIC 3145, Australia",145.0548502,-37.8763981
832,5087,"Klemzig SA 5087, Australia",138.6464068,-34.8702649
833,2580,"New South Wales 2580, Australia",149.7487272,-34.7206289
834,7301,"Longford TAS 7301, Australia",147.0767717,-41.6061044
835,6255,"Winnejup WA 6255, Australia",116.2777073,-33.8773133
836,5245,"Paechtown SA 5245, Australia",138.8095665,-35.0314617
837,4556,"Tanawha QLD 4556, Australia",153.0500809,-26.6971583
838,2573,"Tahmoor NSW 2573, Australia",150.587872,-34.233219
839,4007,"Hamilton QLD 4007, Australia",153.0648006,-27.4366918
840,3114,"Park Orchards VIC 3114, Australia",145.2148736,-37.7760752
841,3023,"Burnside VIC 3023, Australia",144.7521888,-37.7687064
842,3631,"Shepparton East VIC 3631, Australia",145.4693163,-36.4324574
843,2226,"Jannali NSW 2226, Australia",151.0646032,-34.0106901
844,2700,"New South Wales 2700, Australia",146.2929381,-34.9767465
845,2315,"Corlette NSW 2315, Australia",152.151274,-32.7344109
846,7277,"Legana TAS 7277, Australia",146.9726748,-41.3812198
847,5453,"Kybunga SA 5453, Australia",138.598804,-33.8487592
848,6450,"Western Australia 6450, Australia",122.2653887,-33.6707296
849,4018,"Fitzgibbon QLD 4018, Australia",153.0441933,-27.3428542
850,4228,"Tallebudgera Valley QLD 4228, Australia",153.4285672,-28.1404831
851,4415,"Myall Park QLD 4415, Australia",150.3037323,-26.5252094
852,2396,"Goorianawa NSW 2396, Australia",149.1501056,-30.9238593
853,4553,"Glenview QLD 4553, Australia",153.0167101,-26.7664958
854,3381,"Mount Dryden VIC 3381, Australia",142.5745556,-37.1716807
855,3198,"Seaford VIC 3198, Australia",145.1431018,-38.1021858
856,3184,"Elwood VIC 3184, Australia",144.9859676,-37.878722
857,6111,"Champion Lakes WA 6111, Australia",116.1832068,-32.1384821
858,4270,"Tamborine QLD 4270, Australia",153.1236742,-27.8856135
859,2880,"New South Wales 2880, Australia",141.6834275,-30.5512963
860,3618,"Merrigum VIC 3618, Australia",145.1706992,-36.3624013
861,3189,"Moorabbin VIC 3189, Australia",145.0576067,-37.9403568
862,2564,"Macquarie Fields NSW 2564, Australia",150.8900145,-33.9963891
863,3579,"Benjeroop VIC 3579, Australia",143.8671868,-35.7583662
864,4805,"Bogie QLD 4805, Australia",151.700565,-22.5822615
865,2319,"Tanilba Bay NSW 2319, Australia",152.0048138,-32.7043146
866,2195,"Lakemba NSW 2195, Australia",151.0733379,-33.9235692
867,5116,"Hillier SA 5116, Australia",138.7241621,-34.6336951
868,2251,"Avoca Beach NSW 2251, Australia",151.38519,-33.4721323
869,2843,"Coolah NSW 2843, Australia",149.7487272,-31.7845656
870,3759,"Panton Hill VIC 3759, Australia",145.2424941,-37.6400391
871,2954,"Australia 2954, Cdad. Autónoma de Buenos Aires, Argentina",-58.3885634,-34.6467863
872,3461,"Porcupine Ridge VIC 3461, Australia",144.1938221,-37.286475
873,2400,"New South Wales 2400, Australia",149.7487272,-29.4491211
874,3938,"McCrae VIC 3938, Australia",144.9336544,-38.3562816
875,4271,"Tamborine Mountain QLD 4271, Australia",153.206161,-27.9162702
876,3153,"Bayswater VIC 3153, Australia",145.2756505,-37.8386354
877,5065,"Glenside SA 5065, Australia",138.6439004,-34.9402486
878,2761,"Plumpton NSW 2761, Australia",150.8434913,-33.7393563
879,2209,"Narwee NSW 2209, Australia",151.0791612,-33.9454921
880,6006,"North Perth WA 6006, Australia",115.8551339,-31.9273539
881,2336,"Davis Creek NSW 2336, Australia",151.1869325,-32.1089351
882,2754,"Tennyson NSW 2754, Australia",150.7156265,-33.5631923
883,4850,"Macknade QLD 4850, Australia",146.1622593,-18.6498411
884,2306,"Windale NSW 2306, Australia",151.680106,-32.9908543
885,3782,"Macclesfield VIC 3782, Australia",145.4582381,-37.9137981
886,6027,"Beldon WA 6027, Australia",115.7693535,-31.752231
887,3168,"1907 Dandenong Rd, Clayton VIC 3168, Australia",145.1228367,-37.911231
888,7302,"Cressy TAS 7302, Australia",147.0820342,-41.7808695
889,5038,"Plympton Park SA 5038, Australia",138.5537441,-34.9670082
890,5046,"Warradale SA 5046, Australia",138.5437358,-35.008591
891,2579,"Brayton NSW 2579, Australia",150.1647697,-34.7125661
892,2152,"Northmead NSW 2152, Australia",150.9918338,-33.7902573
893,3264,"Terang VIC 3264, Australia",142.8955875,-38.2273268
894,7116,"Police Point TAS 7116, Australia",146.8904415,-43.1516532
895,3799,"Millgrove VIC 3799, Australia",145.8023118,-37.6990844
896,2133,"Croydon Park NSW 2133, Australia",151.1082813,-33.8967345
897,2804,"Moorbel NSW 2804, Australia",148.6001005,-33.5565485
898,2110,"Hunters Hill NSW 2110, Australia",151.1374068,-33.8274649
899,5571,"Rogues Point SA 5571, Australia",137.8822604,-34.3615548
900,2289,"Kotara NSW 2289, Australia",151.7064109,-32.9481404
901,4109,"Sunnybank QLD 4109, Australia",153.0559687,-27.5840406
902,3031,"Kensington VIC 3031, Australia",144.9198932,-37.790896
903,2158,"Dural NSW 2158, Australia",151.0354914,-33.6914284
904,5012,"Woodville North SA 5012, Australia",138.5437358,-34.8621629
905,2137,"Breakfast Point NSW 2137, Australia",151.1024569,-33.8543494
906,5223,"South Australia 5223, Australia",137.058302,-35.8495682
907,4811,"Cluden QLD 4811, Australia",146.8198691,-19.360968
908,2284,"Speers Point NSW 2284, Australia",151.6187438,-32.9524472
909,3824,"Thorpdale South VIC 3824, Australia",146.1812023,-38.2177192
910,2472,"Buckendoon NSW 2472, Australia",153.3210837,-29.1481762
911,5042,"Bedford Park SA 5042, Australia",138.5837799,-35.0069082
912,3199,"Frankston VIC 3199, Australia",145.1486206,-38.1645944
913,2119,"Cheltenham NSW 2119, Australia",151.0646032,-33.7551665
914,4614,"Neumgna QLD 4614, Australia",151.9774802,-26.8392162
915,4131,"Loganlea QLD 4131, Australia",153.1384143,-27.666306
916,3096,"Wattle Glen VIC 3096, Australia",145.1872619,-37.6683887
917,4358,"Cambooya QLD 4358, Australia",151.8569756,-27.7118713
918,4816,"Torrens Creek QLD 4816, Australia",145.1375834,-21.1851758
919,2370,"New South Wales 2370, Australia",151.9813913,-29.6445018
920,6701,"Western Australia 6701, Australia",114.524264,-23.9673429
921,2162,"Sefton NSW 2162, Australia",151.006385,-33.883427
922,6170,"Leda WA 6170, Australia",115.8107681,-32.2679505
923,2111,"Huntleys Point NSW 2111, Australia",151.125756,-33.8296098
924,3440,"Macedon VIC 3440, Australia",144.5546793,-37.4205517
925,3971,"Snake Island VIC 3971, Australia",146.6065057,-38.5613687
926,5092,"Modbury SA 5092, Australia",138.6840168,-34.8192845
927,2179,"Austral NSW 2179, Australia",150.8086082,-33.9549525
928,4568,"Federal QLD 4568, Australia",152.8559985,-26.3629933
929,2527,"Albion Park NSW 2527, Australia",150.7562989,-34.5764532
930,4070,"Bellbowrie QLD 4070, Australia",152.8676421,-27.5554476
931,3043,"Tullamarine VIC 3043, Australia",144.8786231,-37.7044206
932,2218,"Carlton NSW 2218, Australia",151.1199309,-33.9712426
933,4110,"Larapinta QLD 4110, Australia",153.0166574,-27.6166842
934,3142,"Toorak VIC 3142, Australia",145.0190242,-37.8432402
935,2720,"Gilmore NSW 2720, Australia",148.2804541,-35.4209913
936,2455,"Urunga NSW 2455, Australia",152.9794406,-30.5198264
937,5114,"Smithfield Plains SA 5114, Australia",138.7794089,-34.7161335
938,2115,"Ermington NSW 2115, Australia",151.0616918,-33.8132521
939,2303,"Hamilton South NSW 2303, Australia",151.7502614,-32.9252332
940,2759,"Erskine Park NSW 2759, Australia",150.7853574,-33.8060826
941,3887,"Nowa Nowa VIC 3887, Australia",148.0299382,-37.6989476
942,3188,"Hampton VIC 3188, Australia",145.0135139,-37.9394031
943,2623,"Captains Flat NSW 2623, Australia",149.4490642,-35.576588
944,4301,"Redbank Plains QLD 4301, Australia",152.8558773,-27.628802
945,3218,"Herne Hill VIC 3218, Australia",144.2047333,-38.1180538
946,2642,"New South Wales 2642, Australia",148.052689,-36.0220179
947,3940,"Rosebud West VIC 3940, Australia",144.8786231,-38.3745297
948,3116,"Chirnside Park VIC 3116, Australia",145.3088196,-37.7373267
949,3818,"Drouin South VIC 3818, Australia",145.8690603,-38.1155251
950,4702,"Wallaroo QLD 4702, Australia",149.3303348,-23.6457869
951,6232,"Millbridge WA 6232, Australia",115.7279326,-33.3072511
952,3027,"Williams Landing VIC 3027, Australia",144.7439497,-37.8614859
953,5127,"Wynn Vale SA 5127, Australia",138.686525,-34.7996704
954,5232,"Cudlee Creek SA 5232, Australia",138.8296806,-34.8562147
955,3191,"Sandringham VIC 3191, Australia",145.0135139,-37.9533967
956,2775,"Singletons Mill NSW 2775, Australia",151.0005643,-33.3029838
957,3842,"Churchill VIC 3842, Australia",146.4160017,-38.3219988
958,2508,"Coalcliff NSW 2508, Australia",150.9307341,-34.2055707
959,5238,"Julanka Holdings SA 5238, Australia",139.609512,-34.8860063
960,7025,"Dulcot TAS 7025, Australia",147.4131838,-42.7346405
961,3351,"Nintingbool VIC 3351, Australia",143.0029169,-37.6978029
962,2515,"Thirroul NSW 2515, Australia",150.933643,-34.295339
963,6015,"City Beach WA 6015, Australia",115.7634366,-31.9393057
964,4031,"Kedron QLD 4031, Australia",153.0294751,-27.4076416
965,6155,"Canning Vale WA 6155, Australia",115.91132,-32.0819784
966,3728,"Wilby VIC 3728, Australia",145.9135867,-36.1554528
967,3197,"Carrum VIC 3197, Australia",145.1431018,-38.0742262
968,2469,"New South Wales 2469, Australia",152.5443612,-28.9152316
969,3360,"Willowvale VIC 3360, Australia",143.5202874,-37.7370214
970,3126,"Canterbury VIC 3126, Australia",145.0741474,-37.8245223
971,5110,"Globe Derby Park SA 5110, Australia",138.56876,-34.7304381
972,2431,"Jerseyville NSW 2431, Australia",153.0500809,-30.9186021
973,4610,"Durong QLD 4610, Australia",151.84313,-26.5397645
974,3087,"Watsonia VIC 3087, Australia",145.0851764,-37.7019248
975,4871,"Conjuboy QLD 4871, Australia",143.2244216,-18.5471467
976,6208,"Fairbridge WA 6208, Australia",115.8048521,-32.6440296
977,2167,"Glenfield NSW 2167, Australia",150.8929227,-33.9690916
978,2831,"New South Wales 2831, Australia",146.741207,-31.038393
979,4751,"Palmyra QLD 4751, Australia",149.0556384,-21.1629333
980,5031,"Mile End South SA 5031, Australia",138.5662571,-34.924146
981,2429,"Firefly NSW 2429, Australia",152.3095833,-31.7944775
982,3796,"Mount Evelyn VIC 3796, Australia",145.3917982,-37.7791563
983,4559,"Diddillibah QLD 4559, Australia",152.9665872,-26.6667341
984,2571,"Picton NSW 2571, Australia",150.6401218,-34.2011979
985,2832,"New South Wales 2832, Australia",148.0982046,-30.0220265
986,2656,"Milbrulong NSW 2656, Australia",146.786149,-35.2474643
987,4806,"Wunjunga QLD 4806, Australia",147.3722545,-19.9245624
988,2337,"New South Wales 2337, Australia",151.0937206,-31.9193182
989,2648,"New South Wales 2648, Australia",142.1912307,-33.3707197
990,3066,"Collingwood VIC 3066, Australia",144.9873447,-37.8009595
991,4884,"Gadgarra QLD 4884, Australia",145.5830739,-17.2711364
992,2783,"Lawson NSW 2783, Australia",150.4370338,-33.7256417
993,5098,"Ingle Farm SA 5098, Australia",138.6413941,-34.8315199
994,4487,"Begonia QLD 4487, Australia",148.5866384,-28.042334
995,4014,"Nudgee QLD 4014, Australia",153.0912986,-27.3743379
996,5075,"Dernancourt SA 5075, Australia",138.6764928,-34.8689266
997,2156,"Glenhaven NSW 2156, Australia",150.9656452,-33.6530868
998,5172,"Willunga Hill SA 5172, Australia",138.5787728,-35.2925472
999,4413,"Chinchilla QLD 4413, Australia",150.7679216,-26.3724452
1000,3480,"Rich Avon West VIC 3480, Australia",142.9170407,-36.3286415
1001,3345,"Gordon VIC 3345, Australia",144.1174856,-37.5678296
1002,2870,"Daroobalgie NSW 2870, Australia",148.2804541,-33.0218853
1003,2380,"Gunnedah NSW 2380, Australia",150.1647697,-30.9361952
1004,4275,"O'Reilly QLD 4275, Australia",153.1796489,-28.0380223
1005,4521,"Mount Pleasant QLD 4521, Australia",152.8029443,-27.1352804
1006,2651,"Forest Hill NSW 2651, Australia",147.4740404,-35.1526817
1007,3622,"Strathallan VIC 3622, Australia",144.8951287,-36.2037168
1008,3040,"Aberfeldie VIC 3040, Australia",144.9006313,-37.7493029
1009,2234,"Illawong NSW 2234, Australia",151.006385,-34.0161592
1010,2365,"New South Wales 2365, Australia",151.6070583,-30.0677809
1011,3634,"Bunbartha VIC 3634, Australia",145.4250118,-36.2266803
1012,2178,"Cecil Park NSW 2178, Australia",150.8027952,-33.8769426
1013,4036,"Bald Hills QLD 4036, Australia",153.0088712,-27.3138088
1014,3212,"Point Wilson VIC 3212, Australia",144.4561033,-38.0110859
1015,3097,"Kangaroo Ground VIC 3097, Australia",145.2369693,-37.6897828
1016,5083,"Broadview SA 5083, Australia",138.6113271,-34.8786853
1017,5575,"Hardwicke Bay SA 5575, Australia",137.5668376,-34.8106597
1018,6162,"Beaconsfield WA 6162, Australia",115.7663951,-32.068544
1019,2567,"Mount Annan NSW 2567, Australia",150.7562989,-34.048387
1020,5137,"Ashton SA 5137, Australia",138.7442455,-34.9358196
1021,3226,"Ocean Grove VIC 3226, Australia",144.5382417,-38.2573292
1022,2827,"Biddon NSW 2827, Australia",148.6458369,-31.6552936
1023,3860,"Coongulla VIC 3860, Australia",146.9661233,-37.6951451
1024,2725,"Stockinbingal NSW 2725, Australia",147.848103,-34.4822804
1025,2194,"Campsie NSW 2194, Australia",151.1024569,-33.9105784
1026,2357,"New South Wales 2357, Australia",149.1960526,-31.3085444
1027,3927,"Somers VIC 3927, Australia",145.165179,-38.3793743
1028,6052,"Bedford WA 6052, Australia",115.884707,-31.915616
1029,3325,"Vite Vite North VIC 3325, Australia",143.1749726,-37.9076784
1030,6073,"Mundaring WA 6073, Australia",116.165484,-31.9256022
1031,5067,"Beulah Park SA 5067, Australia",138.6313699,-34.9236189
1032,3635,"Kaarimba VIC 3635, Australia",145.3364703,-36.1592629
1033,3409,"Duchembegarra VIC 3409, Australia",141.8100218,-36.8127092
1034,2114,"West Ryde NSW 2114, Australia",151.0849848,-33.8089747
1035,5154,"Aldgate SA 5154, Australia",138.7442455,-35.0183091
1036,3862,"Victoria 3862, Australia",147.1915504,-37.4228208
1037,6064,"Girrawheen WA 6064, Australia",115.8462613,-31.8364571
1038,2748,"Orchard Hills NSW 2748, Australia",150.7330562,-33.818067
1039,3754,"Mernda VIC 3754, Australia",145.1265477,-37.5963626
1040,3437,"Bullengarook VIC 3437, Australia",144.5437205,-37.5197014
1041,3379,"Stavely VIC 3379, Australia",142.6172766,-37.5195066
1042,3008,"Docklands VIC 3008, Australia",144.9419122,-37.8170652
1043,4287,"Barney View QLD 4287, Australia",152.8029443,-28.2608723
1044,2587,"Kingsvale NSW 2587, Australia",148.3260629,-34.6013985
1045,3820,"Bona Vista VIC 3820, Australia",145.9469958,-38.1692482
1046,7012,"Glenlusk TAS 7012, Australia",147.1788375,-42.8373287
1047,6019,"Scarborough WA 6019, Australia",115.7634366,-31.896864
1048,2549,"South Pambula NSW 2549, Australia",149.817978,-36.9804396
1049,2449,"Tewinga NSW 2449, Australia",152.6853649,-30.6133236
1050,4581,"Inskip QLD 4581, Australia",153.1560853,-25.2663148
1051,3612,"Wanalta VIC 3612, Australia",145.005249,-36.602205
1052,3000,"Collins St, Melbourne VIC 3000, Australia",144.963937,-37.8152065
1053,4362,"Berat QLD 4362, Australia",151.9831687,-28.0334119
1054,3699,"Mount Beauty VIC 3699, Australia",147.3270485,-36.8124613
1055,2140,"Homebush NSW 2140, Australia",151.0791612,-33.858623
1056,6254,"North Greenbushes WA 6254, Australia",116.0532101,-33.8556029
1057,3182,"St Kilda West VIC 3182, Australia",144.9777054,-37.8595773
1058,3335,"Plumpton VIC 3335, Australia",144.6753231,-37.7143753
1059,4711,"Glenlee QLD 4711, Australia",150.5064931,-23.276056
1060,3025,"Altona North VIC 3025, Australia",144.8346241,-37.8388686
1061,3588,"Woorinen South VIC 3588, Australia",143.4446136,-35.2972762
1062,4103,"Annerley QLD 4103, Australia",153.032997,-27.5120542
1063,3802,"Endeavour Hills VIC 3802, Australia",145.2590707,-37.9780214
1064,6391,"Quindanning WA 6391, Australia",116.749645,-33.019094
1065,5000,"Adelaide SA 5000, Australia",138.6038129,-34.9328294
1066,4674,"Oyster Creek QLD 4674, Australia",151.9345555,-24.5002555
1067,832,"Australia 832, Solidaridad, Voluntad y Trabajo, 89317 Tampico, Tamps., Mexico",-97.8520927,22.3120781
1068,5501,"Lewiston SA 5501, Australia",138.3589086,-34.4875437
1069,3873,"Gormandale VIC 3873, Australia",146.6738329,-38.3016024
1070,4735,"Winton QLD 4735, Australia",141.7258239,-23.3216584
1071,3770,"Yering VIC 3770, Australia",145.4250118,-37.7057909
1072,2144,"Auburn NSW 2144, Australia",151.0296696,-33.8485157
1073,6566,"West Toodyay WA 6566, Australia",116.4665975,-31.5676669
1074,3584,"Lake Boga VIC 3584, Australia",143.6285244,-35.4661938
1075,6175,"Singleton WA 6175, Australia",115.754561,-32.4466752
1076,3235,"Benwerrin VIC 3235, Australia",143.9324048,-38.455233
1077,6011,"Cottesloe WA 6011, Australia",115.7604781,-31.9956284
1078,4608,"Wooroolin QLD 4608, Australia",151.7473377,-26.3706839
1079,3803,"Hallam VIC 3803, Australia",145.2756505,-38.0069505
1080,4804,"Collinsville QLD 4804, Australia",147.8443629,-20.5530661
1081,5073,"Tranmere SA 5073, Australia",138.6815087,-34.8939181
1082,2312,"Nabiac NSW 2312, Australia",152.3799862,-32.1257631
1083,6558,"Wooroloo WA 6558, Australia",116.3131356,-31.8029829
1084,6004,"East Perth WA 6004, Australia",115.8787926,-31.9540106
1085,2780,"Leura NSW 2780, Australia",150.3211123,-33.7054049
1086,2354,"New South Wales 2354, Australia",151.8877321,-31.0638225
1087,4117,"Berrinba QLD 4117, Australia",153.0795213,-27.6431814
1088,3138,"Mooroolbark VIC 3138, Australia",145.3309395,-37.7822365
1089,5222,"Willson River SA 5222, Australia",137.9614096,-35.775644
1090,4353,"East Cooyar QLD 4353, Australia",151.8760283,-27.2083514
1091,2177,"Bonnyrigg Heights NSW 2177, Australia",150.8812903,-33.8946607
1092,3951,"Kongwak VIC 3951, Australia",145.7356129,-38.5195374
1093,4630,"Coominglah Forest QLD 4630, Australia",151.1241149,-24.8662907
1094,6055,"Guildford WA 6055, Australia",115.9822747,-31.8545729
1095,4309,"Tarome QLD 4309, Australia",152.6230662,-27.9433107
1096,7020,"Clifton Beach TAS 7020, Australia",147.4748606,-42.9517898
1097,2834,"Lightning Ridge NSW 2834, Australia",147.9617144,-29.2801652
1098,2520,"Australia 2520, C1296ABF CABA, Argentina",-58.3830721,-34.6458697
1099,6112,"Mount Nasura WA 6112, Australia",116.005922,-32.1670352
1100,7264,"Mount William TAS 7264, Australia",148.0537476,-41.0222132
1101,3505,"Merbein West VIC 3505, Australia",141.8100218,-34.189156
1102,2821,"Burroway NSW 2821, Australia",148.0982046,-32.3212524
1103,7316,"Cuprona TAS 7316, Australia",145.9953724,-41.2131788
1104,5011,"Woodville Park SA 5011, Australia",138.5337293,-34.8854877
1105,3458,"Lerderderg VIC 3458, Australia",144.3685809,-37.459275
1106,2806,"Eugowra NSW 2806, Australia",148.3260629,-33.3984728
1107,3874,"Woodside Beach VIC 3874, Australia",146.8985944,-38.5234965
1108,7177,"Boomer Bay TAS 7177, Australia",147.8054144,-42.8784013
1109,3183,"St Kilda East VIC 3183, Australia",144.9997396,-37.8670566
1110,2762,"Schofields NSW 2762, Australia",150.8667511,-33.7044482
1111,7300,"Perth TAS 7300, Australia",147.2320073,-41.627092
1112,4572,"Alexandra Headland QLD 4572, Australia",153.1045489,-26.6715056
1113,3568,"Gannawarra VIC 3568, Australia",144.215646,-35.8021206
1114,7015,"Geilston Bay TAS 7015, Australia",147.3550909,-42.8394367
1115,4486,"Hebel QLD 4486, Australia",148.2284289,-28.5818815
1116,6028,"Kinross WA 6028, Australia",115.7279326,-31.7239719
1117,2171,"Middleton Grange NSW 2171, Australia",150.8434913,-33.9333763
1118,4171,"Bulimba QLD 4171, Australia",153.0589126,-27.4517481
1119,3979,"Glen Alvie VIC 3979, Australia",145.6134608,-38.4509941
1120,3371,"Talbot VIC 3371, Australia",143.6718623,-37.2153546
1121,4518,"Glass House Mountains QLD 4518, Australia",152.9323602,-26.9123315
1122,2752,"Silverdale NSW 2752, Australia",150.5936766,-33.9245658
1123,2878,"New South Wales 2878, Australia",144.4342138,-32.733105
1124,5280,"Thornlea SA 5280, Australia",140.265662,-37.4887446
1125,4501,"Lawnton QLD 4501, Australia",152.9823835,-27.2838811
1126,3283,"Crossley VIC 3283, Australia",142.2337184,-38.2179522
1127,4158,"Thorneside QLD 4158, Australia",153.2002692,-27.4864891
1128,6062,"Morley WA 6062, Australia",115.9054062,-31.8872484
1129,3302,"Branxholme VIC 3302, Australia",141.8100218,-37.8391588
1130,6714,"Western Australia 6714, Australia",117.0794082,-20.967771
1131,2631,"Holts Flat NSW 2631, Australia",149.3339956,-36.5504439
1132,2713,"Blighty NSW 2713, Australia",145.5358152,-35.5514125
1133,5082,"Thorngate SA 5082, Australia",138.5937955,-34.8828879
1134,4745,"Dysart QLD 4745, Australia",148.2804541,-22.4848385
1135,3912,"Pearcedale VIC 3912, Australia",145.2148736,-38.2242212
1136,2102,"Warriewood NSW 2102, Australia",151.2947775,-33.6881414
1137,4504,"Narangba QLD 4504, Australia",152.9655318,-27.2015813
1138,3516,"Bridgewater North VIC 3516, Australia",144.0194472,-36.6251143
1139,2360,"New South Wales 2360, Australia",151.2335592,-29.640762
1140,4741,"Eungella Hinterland QLD 4741, Australia",148.8744888,-21.0486737
1141,5259,"Jervois SA 5259, Australia",139.4059435,-35.5041395
1142,6233,"Wellesley WA 6233, Australia",115.7338502,-33.1853877
1143,828,"Australia 828, Solidaridad, Voluntad y Trabajo, 89317 Tampico, Tamps., Mexico",-97.8522514,22.3120309
1144,5086,"Oakden SA 5086, Australia",138.6413941,-34.8590277
1145,2423,"Boolambayte NSW 2423, Australia",152.215754,-32.358861
1146,2779,"Hazelbrook NSW 2779, Australia",150.4573297,-33.7284065
1147,3925,"Cape Woolamai VIC 3925, Australia",145.3862638,-38.5282425
1148,2556,"Bringelly NSW 2556, Australia",150.7330562,-33.9404662
1149,4872,"Barwidgi QLD 4872, Australia",144.9611836,-18.0178418
1150,3675,"Boweya North VIC 3675, Australia",146.1812023,-36.5103613
1151,3464,"Carisbrook VIC 3464, Australia",143.8454596,-37.0150311
1152,7306,"Stoodley TAS 7306, Australia",146.0234118,-41.6653269
1153,3954,"Koonwarra VIC 3954, Australia",145.9469958,-38.5615123
1154,5417,"South Australia 5417, Australia",139.8547266,-33.4148756
1155,5035,"Black Forest SA 5035, Australia",138.5762695,-34.9511792
1156,4064,"Paddington QLD 4064, Australia",153.0000416,-27.4611923
1157,4055,"Ferny Hills QLD 4055, Australia",152.9323602,-27.3901209
1158,4102,"Woolloongabba QLD 4102, Australia",153.0353622,-27.4956759
1159,3375,"Ballyrogan VIC 3375, Australia",143.1749726,-37.390738
1160,7212,"Evandale TAS 7212, Australia",147.4572613,-41.5934307
1161,3498,"Irymple VIC 3498, Australia",142.159382,-34.2495272
1162,4855,"Jaffa QLD 4855, Australia",146.0000983,-17.8000401
1163,5272,"Woolumbool SA 5272, Australia",140.265662,-37.199509
1164,7249,"Kings Meadows TAS 7249, Australia",147.1575845,-41.4740678
1165,2157,"Glenorie NSW 2157, Australia",151.0122058,-33.5420387
1166,3691,"Leneva VIC 3691, Australia",146.9661233,-36.2373927
1167,2792,"Burnt Yards NSW 2792, Australia",148.9894267,-33.6046193
1168,3402,"3402 Australian Ct, West Palm Beach, FL 33407, USA",-80.0686121,26.7436393
1169,3185,"Elsternwick VIC 3185, Australia",145.0080039,-37.8862009
1170,3006,"South Wharf VIC 3006, Australia",144.963937,-37.8245483
1171,3242,"Birregurra VIC 3242, Australia",143.8128803,-38.3300725
1172,5166,"O'Sullivan Beach SA 5166, Australia",138.476227,-35.1198409
1173,2647,"Mulwala NSW 2647, Australia",146.0472969,-35.9286597
1174,6012,"Mosman Park WA 6012, Australia",115.7634366,-32.0135412
1175,5279,"Mount McIntyre SA 5279, Australia",140.5549719,-37.5682107
1176,4065,"Bardon QLD 4065, Australia",152.9764978,-27.461705
1177,3286,"MacArthur VIC 3286, Australia",141.9791849,-38.0490245
1178,4352,"Cement Mills QLD 4352, Australia",151.9470976,-27.4595003
1179,2448,"Hyland Park NSW 2448, Australia",152.9558991,-30.5997515
1180,3700,"Tallangatta East VIC 3700, Australia",147.168985,-36.2031354
1181,2461,"Australia 2461, B1754FZE San Justo, Buenos Aires, Argentina",-58.5532863,-34.6833556
1182,5134,"Cherryville SA 5134, Australia",138.7492675,-34.8966143
1183,7117,"Dover TAS 7117, Australia",147.020751,-43.3040071
1184,7321,"Tasmania 7321, Australia",145.2688105,-41.3706396
1185,2484,"Eungella NSW 2484, Australia",153.3446649,-28.3541283
1186,2174,"Edmondson Park NSW 2174, Australia",150.8580282,-33.9651827
1187,4076,"Darra QLD 4076, Australia",152.9264759,-27.5786368
1188,3544,"Ultima VIC 3544, Australia",143.1749726,-35.4401221
1189,3793,"Monbulk VIC 3793, Australia",145.4360858,-37.8689357
1190,5020,"West Lakes Shore SA 5020, Australia",138.4862231,-34.86349
1191,2710,"New South Wales 2710, Australia",144.9611836,-35.247342
1192,3595,"Nyah West VIC 3595, Australia",143.3366401,-35.1832549
1193,4574,"Gheerulla QLD 4574, Australia",152.7794229,-26.5872796
1194,2798,"Guyong NSW 2798, Australia",149.1271385,-33.4806818
1195,3132,"Mitcham VIC 3132, Australia",145.1983055,-37.8219905
1196,3001,"Australia 3001, Cci Ejidatarios, 21160 Mexicali, B.C., Mexico",-115.52414,32.6397229
1197,3322,"Cressy VIC 3322, Australia",143.6285244,-38.0526438
1198,5040,"Novar Gardens SA 5040, Australia",138.5312279,-34.9645281
1199,4620,"Gungaloon QLD 4620, Australia",152.3095833,-25.6207597
1200,7184,"Nubeena TAS 7184, Australia",147.7373056,-43.1737113
1201,3713,"Lake Eildon VIC 3713, Australia",145.9804173,-37.3038068
1202,4808,"Colevale QLD 4808, Australia",147.3559601,-19.5553717
1203,7050,"Kingston TAS 7050, Australia",147.2997707,-42.9553592
1204,3567,"Leitchville VIC 3567, Australia",144.2374759,-35.9048344
1205,4361,"Kings Creek QLD 4361, Australia",151.8409214,-27.943502
1206,5164,"Christie Downs SA 5164, Australia",138.496221,-35.1281692
1207,3181,"Prahran VIC 3181, Australia",144.996985,-37.8544481
1208,2292,"Hamilton North NSW 2292, Australia",151.7341816,-32.9225853
1209,3926,"Balnarring Beach VIC 3926, Australia",145.1044805,-38.3541527
1210,3788,"Olinda VIC 3788, Australia",145.3751961,-37.8532703
1211,6083,"Gidgegannup WA 6083, Australia",116.2068354,-31.7311075
1212,7262,"Waterhouse TAS 7262, Australia",147.6155813,-40.9608794
1213,6271,"Peppermint Grove Beach WA 6271, Australia",115.5799503,-33.5859042
1214,2840,"New South Wales 2840, Australia",144.4342138,-29.5392065
1215,3081,"Heidelberg West VIC 3081, Australia",145.0438252,-37.7417753
1216,6312,"Narrogin WA 6312, Australia",117.4086488,-32.9486659
1217,3687,"Wahgunyah VIC 3687, Australia",146.4383942,-35.9852648
1218,7261,"Warrentinna TAS 7261, Australia",147.7357075,-41.1585814
1219,3318,"Langkoop VIC 3318, Australia",141.3050851,-37.0613621
1220,2644,"Little Billabong NSW 2644, Australia",147.4174803,-35.7533631
1221,4419,"Wandoan QLD 4419, Australia",150.1184797,-25.9692426
1222,3220,"Newtown VIC 3220, Australia",144.3521811,-38.155681
1223,5341,"South Australia 5341, Australia",140.5964124,-33.7748397
1224,3390,"Murtoa VIC 3390, Australia",142.4891909,-36.6209737
1225,7019,"Clarendon Vale TAS 7019, Australia",147.4367555,-42.8951371
1226,6107,"Queens Park WA 6107, Australia",115.9645378,-32.0121014
1227,7109,"Hastings TAS 7109, Australia",146.8775919,-43.267535
1228,4313,"Biarra QLD 4313, Australia",152.3762221,-27.0874883
1229,5352,"Stone Well SA 5352, Australia",138.9404364,-34.5609108
1230,3238,"Johanna VIC 3238, Australia",143.4122052,-38.7443167
1231,2842,"Yarragrin NSW 2842, Australia",149.1501056,-31.7501864
1232,3976,"Hampton Park VIC 3976, Australia",145.2756505,-38.0349647
1233,2212,"Revesby NSW 2212, Australia",151.0151163,-33.9495044
1234,5165,"Christies Beach SA 5165, Australia",138.476227,-35.1335313
1235,2565,"Denham Court NSW 2565, Australia",150.8493059,-33.9909712
1236,4571,"Kin Kin QLD 4571, Australia",152.8747229,-26.2633136
1237,2633,"Tombong NSW 2633, Australia",148.8747865,-36.9653136
1238,3764,"High Camp VIC 3764, Australia",144.9171412,-37.2531649
1239,5126,"Yatala Vale SA 5126, Australia",138.7266721,-34.7978361
1240,4678,"Bororen QLD 4678, Australia",151.6244968,-24.0837943
1241,3067,"Abbotsford VIC 3067, Australia",144.9983623,-37.8023601
1242,4662,"Torbanlea QLD 4662, Australia",152.5952794,-25.3472258
1243,5202,"Hindmarsh Tiers SA 5202, Australia",138.4987208,-35.4049348
1244,870,"Australia 870, B1752DTR Lomas del Mirador, Buenos Aires, Argentina",-58.5406687,-34.6748757
1245,3808,"Dewhurst VIC 3808, Australia",145.4360858,-37.999986
1246,5050,"Eden Hills SA 5050, Australia",138.5837799,-35.025203
1247,6076,"Pickering Brook WA 6076, Australia",116.1595761,-31.9956933
1248,6725,"Western Australia 6725, Australia",122.7181375,-18.9833384
1249,3113,"Warrandyte VIC 3113, Australia",145.2148736,-37.7386037
1250,6151,"South Perth WA 6151, Australia",115.8699209,-31.9797919
1251,3448,"Sutton Grange VIC 3448, Australia",144.3685809,-37.0470063
1252,3758,"Wandong VIC 3758, Australia",145.0383133,-37.3787648
1253,3099,"Hurstbridge VIC 3099, Australia",145.2148736,-37.5885255
1254,3697,"Tawonga VIC 3697, Australia",147.168985,-36.6673311
1255,6430,"Broadwood WA 6430, Australia",121.4570447,-30.7519667
1256,5577,"Foul Bay SA 5577, Australia",137.2533007,-35.0373927
1257,3055,"Brunswick West VIC 3055, Australia",144.9419122,-37.761
1258,4552,"Balmoral Ridge QLD 4552, Australia",152.7559043,-26.7346009
1259,3148,"Chadstone VIC 3148, Australia",145.0989646,-37.8819831
1260,2681,"Myall Park NSW 2681, Australia",146.1588712,-34.1102303
1261,3442,"Carlsruhe VIC 3442, Australia",144.5437205,-37.3324774
1262,3321,"Inverleigh VIC 3321, Australia",143.9541563,-38.1130535
1263,2848,"Charbon NSW 2848, Australia",149.956588,-32.9298576
1264,3960,"Foster North VIC 3960, Australia",146.3376699,-38.9962856
1265,2297,"Tighes Hill NSW 2297, Australia",151.7575709,-32.9050024
1266,3957,"Stony Creek VIC 3957, Australia",146.1030672,-38.5941498
1267,2588,"Wallendbeen NSW 2588, Australia",148.1209694,-34.522128
1268,3557,"Fosterville VIC 3557, Australia",144.5437205,-36.6546373
1269,3767,"Mount Dandenong VIC 3767, Australia",145.3420015,-37.8421584
1270,2574,"Yanderra NSW 2574, Australia",150.6517354,-34.3767989
1271,6169,"Shoalwater WA 6169, Australia",115.7693535,-32.32457
1272,4883,"Wongabel QLD 4883, Australia",145.4858493,-17.2661339
1273,4852,"Garners Beach QLD 4852, Australia",146.0972186,-17.8666147
1274,830,"Australia 830, Solidaridad, Voluntad y Trabajo, 89317 Tampico, Tamps., Mexico",-97.8521722,22.3120545
1275,2526,"Unanderra NSW 2526, Australia",150.7911697,-34.4132402
1276,4183,"Dunwich QLD 4183, Australia",153.4000698,-27.4999713
1277,3988,"Mountain View VIC 3988, Australia",145.7800733,-38.310594
1278,3063,"Yuroke VIC 3063, Australia",144.8401227,-37.5930751
1279,6060,"Tuart Hill WA 6060, Australia",115.8462613,-31.9001174
1280,2729,"Ellerslie NSW 2729, Australia",147.9617144,-35.2879839
1281,4516,"Elimbah QLD 4516, Australia",152.9607727,-27.0367308
1282,3823,"Allambee VIC 3823, Australia",146.0584482,-38.2245094
1283,2327,"Pelaw Main NSW 2327, Australia",151.4844099,-32.8312613
1284,3160,"Belgrave VIC 3160, Australia",145.3475331,-37.932935
1285,4227,"Reedy Creek QLD 4227, Australia",153.3977316,-28.110678
1286,4712,"Duaringa QLD 4712, Australia",149.6727487,-23.7177729
1287,3809,"Officer South VIC 3809, Australia",145.4139392,-38.0673549
1288,650,"Australia 650, B1752DTN Lomas del Mirador, Buenos Aires, Argentina",-58.5386612,-34.6735999
1289,6102,"Bentley WA 6102, Australia",115.9083631,-32.0058457
1290,3294,"Moutajup VIC 3294, Australia",142.318772,-37.6658132
1291,6171,"Baldivis WA 6171, Australia",115.8285153,-32.3222184
1292,3978,"Clyde North VIC 3978, Australia",145.3807298,-38.140252
1293,3539,"3539 Australia Dr, Lexington Park, MD 20653, USA",-76.4684988,38.2584857
1294,2339,"Parraweena NSW 2339, Australia",150.535641,-31.7795952
1295,6051,"Maylands WA 6051, Australia",115.9024493,-31.938255
1296,2124,"2124 Princes Hwy, Narre Warren VIC 3805, Australia",145.3050831,-38.0182107
1297,3211,"Little River VIC 3211, Australia",144.4561033,-37.9368044
1298,6160,"Fremantle WA 6160, Australia",115.7604781,-32.0539328
1299,6108,"Thornlie WA 6108, Australia",115.9527126,-32.0570426
1300,6104,"Belmont WA 6104, Australia",115.9290605,-31.9456987
1301,4059,"Red Hill QLD 4059, Australia",153.0059279,-27.4515704
1302,5522,"Port Broughton SA 5522, Australia",137.9020367,-33.6538303
1303,4074,"Jindalee QLD 4074, Australia",152.9264759,-27.5569601
1304,3571,"Kamarooka North VIC 3571, Australia",144.1283863,-36.3797092
1305,5076,"Athelstone SA 5076, Australia",138.7040858,-34.873423
1306,3987,"Nyora VIC 3987, Australia",145.6800684,-38.3054452
1307,3761,"St Andrews VIC 3761, Australia",145.2811778,-37.5919774
1308,3756,"Upper Plenty VIC 3756, Australia",144.9832134,-37.4071549
1309,3254,"Cororooke VIC 3254, Australia",143.5256956,-38.2962142
1310,6168,"East Rockingham WA 6168, Australia",115.7693535,-32.2822732
1311,2810,"Warraderry NSW 2810, Australia",148.0982046,-33.9363618
1312,6084,"Lower Chittering WA 6084, Australia",116.0886704,-31.5660082
1313,4470,"Langlo QLD 4470, Australia",146.0249982,-26.2260696
1314,6066,"Ballajura WA 6066, Australia",115.8935783,-31.836786
1315,4312,"Murrumba QLD 4312, Australia",152.4186279,-27.236469
1316,2627,"New South Wales 2627, Australia",148.4629997,-36.5726432
1317,2471,"East Coraki NSW 2471, Australia",153.2267838,-28.9987239
1318,5088,"Holden Hill SA 5088, Australia",138.6714773,-34.8531022
1319,2665,"New South Wales 2665, Australia",146.8311117,-34.3566955
1320,5157,"Ashbourne SA 5157, Australia",138.6589406,-35.0700533
1321,4615,"Maidenwell QLD 4615, Australia",152.0048138,-26.6635867
1322,3558,"Elmore VIC 3558, Australia",144.5875645,-36.4802144
1323,3016,"Williamstown North VIC 3016, Australia",144.8813738,-37.8571449
1324,5141,"Horsnell Gully SA 5141, Australia",138.7040858,-34.9376057
1325,6058,"Forrestfield WA 6058, Australia",116.0000104,-31.9831525
1326,4737,"Armstrong Beach QLD 4737, Australia",149.2167555,-21.4226027
1327,4756,"Finch Hatton QLD 4756, Australia",148.577239,-21.1234579
1328,4401,"Rosalie Plains QLD 4401, Australia",151.7473377,-27.3203817
1329,2476,"Lower Acacia Creek NSW 2476, Australia",152.4269361,-28.3950477
1330,3387,"Marnoo West VIC 3387, Australia",142.8312661,-36.8204775
1331,5271,"South Australia 5271, Australia",140.5964124,-36.8947607
1332,4108,"Archerfield QLD 4108, Australia",153.0206446,-27.5658223
1333,5606,"Port Lincoln SA 5606, Australia",135.8564576,-34.7307511
1334,2868,"Yeoval NSW 2868, Australia",148.6001005,-32.7462554
1335,2172,"Sandy Point NSW 2172, Australia",150.9743743,-33.9645606
1336,2660,"Morven NSW 2660, Australia",147.0787735,-35.6696233
1337,3707,"Corryong VIC 3707, Australia",147.9162555,-36.4104992
1338,3115,"Wonga Park VIC 3115, Australia",145.2590707,-37.7347069
1339,2446,"Werrikimbe NSW 2446, Australia",152.3565156,-31.4267124
1340,3945,"Krowera VIC 3945, Australia",145.6911745,-38.3930465
1341,3151,"Burwood East VIC 3151, Australia",145.1513801,-37.8552869
1342,2134,"Burwood NSW 2134, Australia",151.1024569,-33.8799121
1343,4030,"Lutwyche QLD 4030, Australia",153.0340375,-27.4230215
1344,3487,"Lascelles VIC 3487, Australia",142.5959129,-35.5546022
1345,6071,"Hovea WA 6071, Australia",116.1004894,-31.8922583
1346,3903,"Swan Reach VIC 3903, Australia",147.8594587,-37.8097254
1347,3672,"Benalla VIC 3672, Australia",145.9804173,-36.6181709
1348,3065,"Fitzroy VIC 3065, Australia",144.9804594,-37.7974551
1349,2702,"Ganmain NSW 2702, Australia",147.0336982,-34.7932199
1350,3274,"Caramut VIC 3274, Australia",142.5105224,-37.9386771
1351,3570,"Raywood VIC 3570, Australia",144.3904526,-36.469814
1352,5254,"Wall Flat SA 5254, Australia",139.1625989,-35.0380696
1353,2224,"Sylvania Waters NSW 2224, Australia",151.0995447,-34.0094315
1354,2422,"New South Wales 2422, Australia",151.7941232,-31.9652427
1355,4878,"Smithfield QLD 4878, Australia",145.6908596,-16.8314187
1356,4406,"Moola QLD 4406, Australia",150.3037323,-27.7210976
1357,2518,"Towradgi NSW 2518, Australia",150.9016476,-34.3759776
1358,4184,"Coochiemudlo Island QLD 4184, Australia",153.3551435,-27.6120425
1359,4722,"Nandowrie QLD 4722, Australia",148.0873152,-24.1146499
1360,3240,"Gherang VIC 3240, Australia",144.1283863,-38.2482932
1361,4520,"Wights Mountain QLD 4520, Australia",152.8676186,-27.37121
1362,3671,"3671 Australia Dr, Lexington Park, MD 20653, USA",-76.4685019,38.2584906
1363,6726,"Cable Beach WA 6726, Australia",122.2114952,-17.9521644
1364,3268,"Paaratte VIC 3268, Australia",142.9385002,-38.4984954
1365,2231,"Kurnell NSW 2231, Australia",151.1985879,-34.0194134
1366,4562,"Belli Park QLD 4562, Australia",152.908824,-26.4941369
1367,3591,"Vinifera VIC 3591, Australia",143.4014055,-35.205935
1368,4111,"Nathan QLD 4111, Australia",153.0559687,-27.5515001
1369,2805,"Gooloogong NSW 2805, Australia",148.4401655,-33.6525088
1370,4882,"Tolga QLD 4882, Australia",145.4517071,-17.2031744
1371,3129,"Mont Albert North VIC 3129, Australia",145.1210303,-37.8052948
1372,4129,"Loganholme QLD 4129, Australia",153.1884859,-27.6848624
1373,2108,"Great Mackerel Beach NSW 2108, Australia",151.2976932,-33.6298875
1374,2483,"Ocean Shores NSW 2483, Australia",153.5098019,-28.4536389
1375,7215,"Upper Scamander TAS 7215, Australia",148.2278837,-41.6050056
1376,5700,"Port Paterson SA 5700, Australia",137.8624914,-32.6009669
1377,2427,"Crowdy Head NSW 2427, Australia",152.6501045,-31.8634637
1378,3091,"Yarrambat VIC 3091, Australia",145.1320653,-37.6404295
1379,3781,"Cockatoo VIC 3781, Australia",145.5025595,-37.9473069
1380,4404,"Wainui QLD 4404, Australia",151.4668962,-27.3446354
1381,6207,"Myara WA 6207, Australia",116.0650307,-32.5233883
1382,4356,"Broxburn QLD 4356, Australia",151.5603244,-27.6233205
1383,3621,"Yambuna VIC 3621, Australia",144.9832134,-36.2331845
1384,4865,"Gordonvale QLD 4865, Australia",145.7847472,-17.0923129
1385,3812,"Nar Nar Goon North VIC 3812, Australia",145.5690835,-38.0817495
1386,303,"303 Heaths Rd, Werribee VIC 3029, Australia",144.6774883,-37.876015
1387,5418,"Collinsville SA 5418, Australia",139.1625989,-33.4058554
1388,3632,"3632 Australia Way W, Clearwater, FL 33763, USA",-82.7397565,27.9969967
1389,3715,"Woodfield VIC 3715, Australia",145.7356129,-36.9771194
1390,4106,"Rocklea QLD 4106, Australia",153.0000416,-27.5533851
1391,2358,"Mihi NSW 2358, Australia",151.373521,-30.5621734
1392,4746,"May Downs QLD 4746, Australia",148.6983715,-22.8139627
1393,3892,"Mallacoota VIC 3892, Australia",149.7718067,-37.5130708
1394,2735,"Speewa NSW 2735, Australia",143.4986586,-35.1540393
1395,3942,"Blairgowrie VIC 3942, Australia",144.7686693,-38.3645949
1396,3496,"Victoria 3496, Australia",141.4309582,-34.3907124
1397,3814,"Garfield VIC 3814, Australia",145.6800684,-38.0999051
1398,3858,"Victoria 3858, Australia",146.6513853,-37.557605
1399,2191,"Belfield NSW 2191, Australia",151.0849848,-33.9061117
1400,5235,"Mount Pleasant SA 5235, Australia",139.1019233,-34.7002931
1401,3310,"Merino VIC 3310, Australia",141.5781151,-37.7322539
1402,2159,"Galston NSW 2159, Australia",151.0704263,-33.5876386
1403,5173,"Aldinga SA 5173, Australia",138.4737282,-35.2806692
1404,3666,"Riggs Creek VIC 3666, Australia",145.5801757,-36.7549385
1405,5373,"Fords SA 5373, Australia",138.9202828,-34.275645
1406,3432,"Bolinda VIC 3432, Australia",144.7741635,-37.439438
1407,3251,"Weering VIC 3251, Australia",143.6718623,-38.1418099
1408,5252,"Dawesley SA 5252, Australia",138.9706803,-35.0425171
1409,6225,"Collie WA 6225, Australia",116.2777073,-33.3775705
1410,2346,"Namoi River NSW 2346, Australia",150.6749653,-30.6870373
1411,5307,"Karoonda SA 5307, Australia",139.9777136,-35.1433044
1412,3312,"Victoria 3312, Australia",141.095836,-37.382002
1413,3711,"Buxton VIC 3711, Australia",145.702282,-37.430404
1414,3202,"Heatherton VIC 3202, Australia",145.0879338,-37.9529597
1415,2107,"Whale Beach NSW 2107, Australia",151.321021,-33.6357749
1416,2371,"Emmaville NSW 2371, Australia",151.6070583,-29.3880642
1417,4411,"Tuckerang QLD 4411, Australia",151.0005643,-26.8110238
1418,2173,"Holsworthy NSW 2173, Australia",150.9307341,-34.0425826
1419,6029,"Trigg WA 6029, Australia",115.7604781,-31.8736239
1420,2175,"Horsley Park NSW 2175, Australia",150.8493059,-33.848126
1421,4703,"Barmoya QLD 4703, Australia",150.7333257,-23.1334578
1422,4856,"Walter Lever Estate QLD 4856, Australia",145.8913207,-17.753872
1423,4753,"Devereux Creek QLD 4753, Australia",148.9512029,-21.1463311
1424,2852,"Gulgong NSW 2852, Australia",149.4260421,-32.3173317
1425,5277,"Comaum SA 5277, Australia",140.8040271,-37.3768832
1426,2453,"Tallowwood Ridge NSW 2453, Australia",152.5913512,-30.2516968
1427,2222,"Penshurst NSW 2222, Australia",151.0849848,-33.9623045
1428,3888,"Victoria 3888, Australia",148.6458369,-37.2474912
1429,5093,"Valley View SA 5093, Australia",138.6614478,-34.8352083
1430,3438,"New Gisborne VIC 3438, Australia",144.620463,-37.4618532
1431,5213,"Middleton SA 5213, Australia",138.7091042,-35.4834441
1432,5354,"Marks Landing SA 5354, Australia",139.6503106,-34.5686036
1433,5009,"Beverley SA 5009, Australia",138.5512419,-34.8950354
1434,3725,"Boxwood VIC 3725, Australia",145.958135,-36.4002774
1435,2569,"Douglas Park NSW 2569, Australia",150.7040079,-34.1924773
1436,6530,"Rangeway WA 6530, Australia",113.8584737,-28.7776521
1437,2558,"Eschol Park NSW 2558, Australia",150.8057017,-34.0331927
1438,3633,"Congupna VIC 3633, Australia",145.480396,-36.2927129
1439,3120,"Australia 3120, B1610ALT Ricardo Rojas, Buenos Aires, Argentina",-58.6858267,-34.4626819
1440,3590,"Beverford VIC 3590, Australia",143.4662269,-35.2285875
1441,3483,"Karyrie VIC 3483, Australia",142.8312661,-35.9221523
1442,2519,"Mount Ousley NSW 2519, Australia",150.8783824,-34.3902523
1443,2786,"Mount Wilson NSW 2786, Australia",150.3211123,-33.5115869
1444,3200,"Frankston North VIC 3200, Australia",145.162419,-38.1250223
1445,3501,"Nichols Point VIC 3501, Australia",142.318772,-34.678204
1446,3956,"Tarwin VIC 3956, Australia",145.8690603,-38.675332
1447,6442,"Kambalda East WA 6442, Australia",121.6511258,-31.2249828
1448,3154,"The Basin VIC 3154, Australia",145.3198788,-37.8534742
1449,3265,"Cudgee VIC 3265, Australia",142.7455935,-38.2633053
1450,258,"258/100 Burwood Rd, Burwood NSW 2134, Australia",151.1054146,-33.874637
1451,7021,"Lauderdale TAS 7021, Australia",147.4888173,-42.9042835
1452,283,"283 Yarra St, Geelong VIC 3220, Australia",144.3629644,-38.1464041
1453,4512,"Wamuran QLD 4512, Australia",152.8499952,-27.014804
1454,2293,"Maryville NSW 2293, Australia",151.7575709,-32.9153665
1455,2286,"Holmesville NSW 2286, Australia",151.5720067,-32.8995067
1456,2632,"Cathcart NSW 2632, Australia",149.1960526,-36.9411375
1457,4105,"Tennyson QLD 4105, Australia",153.0259992,-27.535027
1458,2505,"Port Kembla NSW 2505, Australia",150.8900145,-34.4744767
1459,4225,"Coolangatta QLD 4225, Australia",153.5127518,-28.164389
1460,3341,"Myrniong VIC 3341, Australia",144.3248554,-37.5934691
1461,5156,"Upper Sturt SA 5156, Australia",138.6940504,-35.0250749
1462,4372,"Tannymorel QLD 4372, Australia",152.2476363,-28.2914624
1463,3429,"Wildwood VIC 3429, Australia",144.7192376,-37.5424727
1464,7016,"Risdon Vale TAS 7016, Australia",147.366961,-42.8037216
1465,3303,"Breakaway Creek VIC 3303, Australia",141.5570726,-37.9603082
1466,5091,"Banksia Park SA 5091, Australia",138.7342029,-34.8215901
1467,3610,"Murchison VIC 3610, Australia",145.2480193,-36.5881288
1468,2730,"Batlow NSW 2730, Australia",148.0754444,-35.5382202
1469,3158,"Upwey VIC 3158, Australia",145.3309395,-37.9039829
1470,6000,"Perth WA 6000, Australia",115.8610488,-31.9525739
1471,4357,"Lavelle QLD 4357, Australia",151.0471355,-27.8934129
1472,3435,"Nulla Vale VIC 3435, Australia",144.7192376,-37.2423687
1473,3629,"Coomboona VIC 3629, Australia",145.2922335,-36.2976747
1474,5155,"Bridgewater SA 5155, Australia",138.7643362,-34.9990972
1475,7303,"Osmaston TAS 7303, Australia",146.807507,-41.5574882
1476,3676,"3676 Australia Way W, Clearwater, FL 33763, USA",-82.7397562,27.9969944
1477,2381,"Curlewis NSW 2381, Australia",149.9797036,-31.305517
1478,6063,"Beechboro WA 6063, Australia",115.9408868,-31.8689096
1479,3293,"Glenthompson VIC 3293, Australia",142.5745556,-37.7609742
1480,5345,"Barmera SA 5345, Australia",140.4514913,-34.2654444
1481,3669,"Koonda VIC 3669, Australia",145.7133909,-36.6078959
1482,6037,"Two Rocks WA 6037, Australia",115.6273131,-31.4847915
1483,6181,"Stake Hill WA 6181, Australia",115.798936,-32.492398
1484,2825,"New South Wales 2825, Australia",147.1013188,-31.7929088
1485,4477,"Upper Warrego QLD 4477, Australia",146.5833663,-25.7999814
1486,6892,"6892 Australia Way W, Clearwater, FL 33763, USA",-82.7397331,27.9968202
1487,4073,"Seventeen Mile Rocks QLD 4073, Australia",152.9529566,-27.5435374
1488,5089,"Highbury SA 5089, Australia",138.7342029,-34.8491256
1489,3573,"Pine Grove VIC 3573, Australia",144.3904526,-36.1663341
1490,6122,"Cardup WA 6122, Australia",116.0650307,-32.2702417
1491,5583,"Sultana Point SA 5583, Australia",137.7144578,-35.0643264
1492,4125,"Park Ridge South QLD 4125, Australia",153.0441933,-27.7225265
1493,3944,"Portsea VIC 3944, Australia",144.7027669,-38.3234069
1494,5118,"Kalbeeba SA 5118, Australia",138.739224,-34.5892749
1495,2769,"The Ponds NSW 2769, Australia",150.9016476,-33.7031923
1496,2672,"Curlew Waters NSW 2672, Australia",146.2929381,-33.399431
1497,2671,"New South Wales 2671, Australia",147.3722545,-33.8840393
1498,2793,"Darbys Falls NSW 2793, Australia",148.8747865,-33.794889
1499,6101,"East Victoria Park WA 6101, Australia",115.9083631,-31.9846562
1500,4886,"Moregatta QLD 4886, Australia",145.6023644,-17.5121402
1501,4511,"Sandstone Point QLD 4511, Australia",153.0834039,-27.066757
1502,2659,"Walla Walla NSW 2659, Australia",146.8760951,-35.7436011
1503,4115,"Parkinson QLD 4115, Australia",153.0336149,-27.6113884
1504,4891,"Karumba QLD 4891, Australia",140.8768541,-17.4912391
1505,4371,"Yangan QLD 4371, Australia",152.333048,-28.1592715
1506,4390,"Callandoon QLD 4390, Australia",150.3040002,-28.5406528
1507,3315,"Konongwootong VIC 3315, Australia",141.7255991,-37.4420537
1508,7010,"Goodwood TAS 7010, Australia",147.2556802,-42.8372769
1509,3057,"Brunswick East VIC 3057, Australia",144.9804594,-37.769412
1510,6743,"Western Australia 6743, Australia",127.6386622,-16.6687048
1511,3290,"Australia 3290, Manuel Alberti, Buenos Aires, Argentina",-58.7684128,-34.4224471
1512,3649,"Katamatite VIC 3649, Australia",145.6911745,-36.0834857
1513,3639,"Lower Moira VIC 3639, Australia",145.005249,-35.9921604
1514,3530,"Culgoa VIC 3530, Australia",143.1534436,-35.7166782
1515,7024,"Cremorne TAS 7024, Australia",147.5238773,-42.9500417
1516,7017,"Grasstree Hill TAS 7017, Australia",147.3379482,-42.7007869
1517,4569,"Cooran QLD 4569, Australia",152.8088251,-26.3376411
1518,2386,"Drildool NSW 2386, Australia",148.8289611,-30.0503142
1519,4421,"Tara QLD 4421, Australia",150.5175918,-27.0745513
1520,4710,"Emu Park QLD 4710, Australia",150.8260487,-23.2673695
1521,5460,"Barabba SA 5460, Australia",138.5387323,-34.2859564
1522,3271,"Darlington VIC 3271, Australia",143.0029169,-37.9185598
1523,4825,"Fielding QLD 4825, Australia",138.3988186,-20.6905688
1524,5343,"Gurra Gurra SA 5343, Australia",140.534262,-34.3722813
1525,6003,"Highgate WA 6003, Australia",115.8588307,-31.9470932
1526,4008,"Brisbane Airport QLD 4008, Australia",153.1207447,-27.3858666
1527,6253,"Balingup WA 6253, Australia",115.9704503,-33.8014415
1528,5422,"South Australia 5422, Australia",138.9605972,-32.8387684
1529,6105,"Cloverdale WA 6105, Australia",115.9586253,-31.9657302
1530,2751,"Australia 2751, Cdad. Autónoma de Buenos Aires, Argentina",-58.3858894,-34.646541
1531,6113,"6113 Australia Dr, Lexington Park, MD 20653, USA",-76.4685595,38.2585811
1532,5006,"North Adelaide SA 5006, Australia",138.5962997,-34.9091145
1533,880,"Australia 880, Oceanía Boulevares Amp, 25290 Saltillo, Coah., Mexico",-100.9641402,25.4514569
1534,3237,"Yuulong VIC 3237, Australia",143.4554195,-38.6505708
1535,5573,"Weetulta SA 5573, Australia",137.6455169,-34.407519
1536,3851,"Pearsondale VIC 3851, Australia",147.1464245,-38.2064012
1537,3870,"Grand Ridge VIC 3870, Australia",146.3600438,-38.4631226
1538,3673,"Molyullah VIC 3673, Australia",146.1588712,-36.675664
1539,6124,"Jarrahdale WA 6124, Australia",116.1595761,-32.3759261
1540,3958,"Buffalo VIC 3958, Australia",146.013851,-38.6765966
1541,6082,"Mount Helena WA 6082, Australia",116.3131356,-31.739438
1542,7171,"Penna TAS 7171, Australia",147.5095171,-42.765277
1543,3285,"Toolong VIC 3285, Australia",141.9822579,-38.2498873
1544,3002,"East Melbourne VIC 3002, Australia",144.9804594,-37.8161444
1545,7155,"Kettering TAS 7155, Australia",147.2260865,-43.1254976
1546,3682,"Boralma VIC 3682, Australia",146.4495924,-36.1723841
1547,5607,"South Australia 5607, Australia",135.6763443,-34.6576031
1548,6390,"North Bannister WA 6390, Australia",116.3249438,-32.9066317
1549,3485,"Willangie VIC 3485, Australia",142.7455935,-35.6652195
1550,3003,"West Melbourne VIC 3003, Australia",144.9253974,-37.8114504
1551,2343,"New South Wales 2343, Australia",150.3037323,-31.4297744
1552,2572,"Thirlmere NSW 2572, Australia",150.5124332,-34.177879
1553,3913,"Tyabb VIC 3913, Australia",145.1706992,-38.2651079
1554,6487,"South Yelbeni WA 6487, Australia",117.666952,-31.1892076
1555,3720,"Bonnie Doon VIC 3720, Australia",145.8690603,-37.0207039
1556,4153,"Belmont QLD 4153, Australia",153.1354693,-27.511066
1557,4472,"Blackall QLD 4472, Australia",145.3143491,-24.7102231
1558,7120,"Lemont TAS 7120, Australia",147.592724,-42.3702085
1559,2302,"Newcastle West NSW 2302, Australia",151.7604948,-32.9264461
1560,7258,"Breadalbane TAS 7258, Australia",147.2437064,-41.5159459
1561,6556,"Beechina WA 6556, Australia",116.3485586,-31.9538218
1562,6211,"Dawesville WA 6211, Australia",115.6509915,-32.7093444
1563,810,"Australia 810, Solidaridad, Voluntad y Trabajo, 89317 Tampico, Tamps., Mexico",-97.8529661,22.3118182
1564,5330,"South Australia 5330, Australia",140.1009527,-34.0363353
1565,2294,"Carrington NSW 2294, Australia",151.7663428,-32.9123334
1566,3797,"Gilderoy VIC 3797, Australia",145.702282,-37.8447909
1567,3694,"4190 Anzac Parade, Bandiana VIC 3694, Australia",146.9213861,-36.1432044
1568,3904,"Metung VIC 3904, Australia",147.8367484,-37.8600459
1569,3575,"Sylvaterre VIC 3575, Australia",144.1283863,-36.0765288
1570,4173,"Tingalpa QLD 4173, Australia",153.1295793,-27.4718491
1571,6176,"Karnup WA 6176, Australia",115.7930198,-32.4250674
1572,5351,"Pewsey Vale SA 5351, Australia",138.9202828,-34.6448853
1573,6033,"Carabooda WA 6033, Australia",115.7160969,-31.5988865
1574,2797,"Garland NSW 2797, Australia",148.9894267,-33.6854778
1575,2341,"Werris Creek NSW 2341, Australia",150.6052865,-31.3599657
1576,3241,"Bambra VIC 3241, Australia",143.9541563,-38.260588
1577,3791,"Kallista VIC 3791, Australia",145.4111713,-37.9051015
1578,4010,"Albion QLD 4010, Australia",153.0427215,-27.4307455
1579,2382,"Wean NSW 2382, Australia",150.1647697,-30.6855751
1580,6147,"Lynwood WA 6147, Australia",115.9261038,-32.0443356
1581,5203,"Bald Hills SA 5203, Australia",138.3389644,-35.5560092
1582,7290,"Hadspen TAS 7290, Australia",147.0610516,-41.5100237
1583,5560,"Bute SA 5560, Australia",138.0406759,-33.9141345
1584,2395,"Weetaliba NSW 2395, Australia",149.4260421,-31.5759338
1585,2409,"Boonal NSW 2409, Australia",150.1184797,-28.696216
1586,3562,"Torrumbarry VIC 3562, Australia",144.5437205,-36.0471946
1587,6308,"Codjatotine WA 6308, Australia",116.702495,-32.653153
1588,2136,"Enfield NSW 2136, Australia",151.0733379,-33.8929126
1589,4621,"Coalstoun Lakes QLD 4621, Australia",152.0282394,-25.4760129
1590,3561,"Rochester VIC 3561, Australia",144.6533747,-36.3317046
1591,7263,"Talawa TAS 7263, Australia",147.7111044,-41.2926877
1592,2833,"Collarenebri NSW 2833, Australia",148.5543821,-29.2282132
1593,4659,"Burgowan QLD 4659, Australia",152.6148504,-25.2686005
1594,5523,"Beetaloo Valley SA 5523, Australia",138.1200592,-33.3562876
1595,3447,"Taradale VIC 3447, Australia",144.3576473,-37.1465105
1596,2581,"Merrill NSW 2581, Australia",149.3800105,-34.7796381
1597,7270,"Greens Beach TAS 7270, Australia",146.7530872,-41.1958161
1598,3980,"Blind Bight VIC 3980, Australia",145.3917982,-38.2092442
1599,3331,"Sutherlands Creek VIC 3331, Australia",144.1938221,-37.9939081
1600,4425,"Bogandilla QLD 4425, Australia",149.7948904,-26.7068322
1601,3004,"Melbourne VIC 3004, Australia",144.9804594,-37.8301583
1602,3804,"Narre Warren East VIC 3804, Australia",145.3309395,-37.9788019
1603,3446,"Drummond North VIC 3446, Australia",144.3576473,-37.1840298
1604,3282,"Illowa VIC 3282, Australia",142.3719834,-38.2971689
1605,6510,"Gillingarra WA 6510, Australia",116.0886704,-30.7132852
1606,6410,"Mount Caroline WA 6410, Australia",117.6904167,-31.6263077
1607,4800,"Cape Gloucester QLD 4800, Australia",148.5807213,-20.4049878
1608,2626,"Bumbalong NSW 2626, Australia",149.1501056,-35.8686568
1609,7213,"Avoca TAS 7213, Australia",147.7878006,-41.8509077
1610,3515,"Wilsons Hill VIC 3515, Australia",144.0630048,-36.8284445
1611,4359,"East Greenmount QLD 4359, Australia",151.9066549,-27.78646
1612,4676,"Gindoran QLD 4676, Australia",151.6538052,-24.6172263
1613,3875,"Calulu VIC 3875, Australia",147.5532762,-37.6874281
1614,3441,"Mount Macedon VIC 3441, Australia",144.5985292,-37.3981393
1615,4120,"Greenslopes QLD 4120, Australia",153.0479859,-27.5070097
1616,6100,"Victoria Park WA 6100, Australia",115.8965353,-31.9660425
1617,6032,"Nowergup WA 6032, Australia",115.7693535,-31.6459321
1618,5120,"Buckland Park SA 5120, Australia",138.5287267,-34.6588375
1619,5244,"Mount Torrens SA 5244, Australia",138.9404364,-34.929131
1620,6335,"Pallinup WA 6335, Australia",118.0654445,-33.9480602
1621,2740,"Australia 2740, B1610ALL Ricardo Rojas, Buenos Aires, Argentina",-58.6806385,-34.4599239
1622,3664,"Avenel VIC 3664, Australia",145.3364703,-36.9214551
1623,6159,"North Fremantle WA 6159, Australia",115.7486438,-32.0353019
1624,3911,"Langwarrin South VIC 3911, Australia",145.1762197,-38.1972006
1625,5241,"Lobethal SA 5241, Australia",138.8699303,-34.9094528
1626,4360,"Nobby QLD 4360, Australia",151.9028584,-27.8545522
1627,3712,"Rubicon VIC 3712, Australia",145.8245558,-37.3476485
1628,3301,"Mount Napier VIC 3301, Australia",141.8945505,-37.7255033
1629,4861,"Babinda QLD 4861, Australia",145.9275759,-17.3407399
1630,7009,"West Moonah TAS 7009, Australia",147.3008839,-42.8418713
1631,5221,"Ballast Head SA 5221, Australia",137.7538931,-35.7676396
1632,2474,"Kilgra NSW 2474, Australia",152.9205918,-28.4803132
1633,3236,"Mount Sabine VIC 3236, Australia",143.7043819,-38.5115754
1634,509,"509/1B Pearl St, Hurstville NSW 2220, Australia",151.0960055,-33.9632539
1635,2296,"Islington NSW 2296, Australia",151.7458759,-32.9125002
1636,2445,"Jolly Nose NSW 2445, Australia",152.8029443,-31.5931838
1637,6042,"Seabird WA 6042, Australia",115.4615092,-31.2638905
1638,3542,"Cokum VIC 3542, Australia",143.4122052,-35.6565961
1639,4612,"Wigton QLD 4612, Australia",151.6931283,-26.1759151
1640,4388,"Kurumbul QLD 4388, Australia",150.753252,-28.5736169
1641,3227,"Breamlea VIC 3227, Australia",144.4232713,-38.2498059
1642,872,"Australia 872, B1752DTR Lomas del Mirador, Buenos Aires, Argentina",-58.5406947,-34.6748926
1643,3698,"Tawonga South VIC 3698, Australia",147.1351462,-36.762851
1644,316,"316/6-14 Castle St, Castle Hill NSW 2154, Australia",151.0056801,-33.7311276
1645,3922,"Summerlands VIC 3922, Australia",145.2038278,-38.4898703
1646,2823,"Gin Gin NSW 2823, Australia",148.0982046,-31.8320618
1647,4400,"Kings Siding QLD 4400, Australia",151.8213549,-27.4750959
1648,3736,"3736 Australia Way W, Clearwater, FL 33763, USA",-82.7397557,27.9969911
1649,5212,"Port Elliot SA 5212, Australia",138.6689697,-35.5032052
1650,7331,"Stanley TAS 7331, Australia",145.2841706,-40.7578918
1651,3750,"Wollert VIC 3750, Australia",144.9942305,-37.5891893
1652,3981,"Dalmore VIC 3981, Australia",145.5912693,-38.1825837
1653,2722,"Brungle NSW 2722, Australia",148.143739,-34.9459647
1654,2105,"Church Point NSW 2105, Australia",151.290404,-33.6395909
1655,5236,"Tungkillo SA 5236, Australia",139.0615086,-34.8681641
1656,4564,"Marcoola QLD 4564, Australia",153.0795213,-26.6105931
1657,3990,"Glen Forbes VIC 3990, Australia",145.5247285,-38.4399786
1658,4887,"Kalunga QLD 4887, Australia",145.093449,-17.4318581
1659,6244,"Kulikup WA 6244, Australia",116.5137964,-33.8646057
1660,2584,"Binalong NSW 2584, Australia",148.6687118,-34.6796688
1661,4104,"Yeronga QLD 4104, Australia",153.0149526,-27.5140455
1662,4627,"Wuruma Dam QLD 4627, Australia",151.1215391,-25.3721972
1663,5047,"Seacombe Heights SA 5047, Australia",138.5537441,-35.0310331
1664,3463,"Bradford VIC 3463, Australia",143.9759139,-36.9483008
1665,3896,"Swifts Creek VIC 3896, Australia",147.7799935,-37.1819263
1666,5419,"Ulooloo SA 5419, Australia",139.0009403,-33.3414846
1667,6036,"Butler WA 6036, Australia",115.692424,-31.6465364
1668,3566,"Gunbower VIC 3566, Australia",144.3576473,-35.9553896
1669,4820,"Grand Secret QLD 4820, Australia",146.2585756,-20.0762578
1670,6912,"6912 Australia Way W, Clearwater, FL 33763, USA",-82.7397329,27.9968191
1671,4172,"Murarrie QLD 4172, Australia",153.1030766,-27.452781
1672,3159,"Menzies Creek VIC 3159, Australia",145.3862638,-37.9225135
1673,4365,"Leyburn QLD 4365, Australia",151.5836897,-28.0364199
1674,2563,"Menangle Park NSW 2563, Australia",150.7504879,-34.1028697
1675,3835,"Thorpdale VIC 3835, Australia",146.1812023,-38.2926842
1676,4373,"Killarney QLD 4373, Australia",152.2960993,-28.3431907
1677,5582,"Stansbury SA 5582, Australia",137.7736217,-34.8899072
1678,6502,"Bindoon WA 6502, Australia",116.1832068,-31.2902068
1679,3856,"Toongabbie VIC 3856, Australia",146.5392256,-38.0326139
1680,5605,"Butler SA 5605, Australia",136.018188,-34.4192193
1681,821,"Australia 821, B1821BYQ Villa Fiorito, Buenos Aires, Argentina",-58.4386041,-34.7175006
1682,3795,"Silvan VIC 3795, Australia",145.4305486,-37.8342877
1683,4224,"Tugun QLD 4224, Australia",153.4919105,-28.1469507
1684,3378,"Tatyoon VIC 3378, Australia",143.0244018,-37.5026752
1685,4455,"Orange Hill QLD 4455, Australia",148.7871121,-26.5713754
1686,3937,"Red Hill South VIC 3937, Australia",145.0383133,-38.3687813
1687,3239,"Gellibrand VIC 3239, Australia",143.4122052,-38.5619202
1688,2534,"Werri Beach NSW 2534, Australia",150.7911697,-34.7373565
1689,5608,"Whyalla Norrie SA 5608, Australia",137.5324525,-33.0338321
1690,6560,"Wundowie WA 6560, Australia",116.3603652,-31.7501607
1691,2864,"Cudal NSW 2864, Australia",148.6687118,-33.353549
1692,2703,"Yanco NSW 2703, Australia",146.3936145,-34.6260147
1693,4718,"Roundstone QLD 4718, Australia",149.9744783,-24.5729805
1694,7186,"Saltwater River TAS 7186, Australia",147.6929029,-43.0208489
1695,2733,"Niemur NSW 2733, Australia",144.1720041,-35.0600117
1696,6525,"Port Denison WA 6525, Australia",115.0465991,-29.2906134
1697,839,"Australia 839, Solidaridad, Voluntad y Trabajo, 89317 Tampico, Tamps., Mexico",-97.8517318,22.312117
1698,4720,"Emerald QLD 4720, Australia",147.5532762,-24.0139022
1699,2706,"Darlington Point NSW 2706, Australia",145.8690603,-34.6280192
1700,4067,"St Lucia QLD 4067, Australia",153.0000416,-27.4991588
1701,2690,"Australia 2690, C1296ABH CABA, Argentina",-58.3849055,-34.6462983
1702,7210,"Lake Leake TAS 7210, Australia",147.6479099,-41.9609817
1703,6174,"Golden Bay WA 6174, Australia",115.7634366,-32.4262528
1704,3482,"Warmur VIC 3482, Australia",142.8312661,-36.1476587
1705,5440,"South Australia 5440, Australia",140.3481835,-31.3172034
1706,3792,"The Patch VIC 3792, Australia",145.3973329,-37.8887708
1707,4673,"Waterloo QLD 4673, Australia",152.0516681,-24.7197
1708,2784,"Bullaburra NSW 2784, Australia",150.4167407,-33.7279709
1709,5115,"Munno Para Downs SA 5115, Australia",138.6890334,-34.6514466
1710,2583,"New South Wales 2583, Australia",149.3800105,-34.2977169
1711,3815,"Bunyip VIC 3815, Australia",145.7245012,-38.0771825
1712,4730,"Camoola QLD 4730, Australia",143.2180495,-23.8164969
1713,5204,"Rapid Bay SA 5204, Australia",138.1995591,-35.5878122
1714,3816,"Modella VIC 3816, Australia",145.7800733,-38.086187
1715,5461,"Hoskin Corner SA 5461, Australia",138.4387577,-34.0789018
1716,6180,"Lakelands WA 6180, Australia",115.7752703,-32.4764663
1717,376,"Australia 376, B1752DTH Lomas del Mirador, Buenos Aires, Argentina",-58.5362569,-34.6720614
1718,6236,"Henty WA 6236, Australia",115.8758354,-33.4470807
1719,4151,"Coorparoo QLD 4151, Australia",153.0619877,-27.5009968
1720,3929,"Flinders VIC 3929, Australia",144.9721978,-38.4574538
1721,4819,"Horseshoe Bay QLD 4819, Australia",146.8451379,-19.1547801
1722,3916,"Point Leo VIC 3916, Australia",145.0548502,-38.4161358
1723,2387,"Rowena NSW 2387, Australia",148.96649,-29.7110242
1724,3659,"Tallarook VIC 3659, Australia",145.1155133,-37.1126329
1725,3991,"Bass VIC 3991, Australia",145.4582381,-38.4734903
1726,7022,"South Arm TAS 7022, Australia",147.4263497,-43.0329872
1727,3453,"Ravenswood South VIC 3453, Australia",144.2374759,-36.9265571
1728,7275,"Glengarry TAS 7275, Australia",146.8739436,-41.3302463
1729,5400,"Wasleys SA 5400, Australia",138.6589406,-34.4458725
1730,6044,"Karakin WA 6044, Australia",115.3548713,-30.9330772
1731,3787,"Sassafras VIC 3787, Australia",145.353065,-37.8645935
1732,3735,"Bowmans Forest VIC 3735, Australia",146.5840737,-36.5231859
1733,2655,"French Park NSW 2655, Australia",147.1464245,-35.279554
1734,3878,"Eagle Point VIC 3878, Australia",147.6779106,-37.9067566
1735,811,"Australia 811, Solidaridad, Voluntad y Trabajo, 89317 Tampico, Tamps., Mexico",-97.8528454,22.3117687
1736,2356,"Gwabegar NSW 2356, Australia",148.96649,-30.5436583
1737,3563,"Lockington VIC 3563, Australia",144.4999001,-36.2606223
1738,3822,"Gainsborough VIC 3822, Australia",146.0361469,-38.1797383
1739,280,"Australia 280, Oceanía Boulevares, 25290 Saltillo, Coah., Mexico",-100.9675532,25.4469559
1740,6258,"Dixvale WA 6258, Australia",116.5137964,-34.3611727
1741,4849,"Damper Creek QLD 4849, Australia",146.1588712,-18.3022077
1742,2425,"Booral NSW 2425, Australia",152.0282394,-32.4809178
1743,7187,"Koonya TAS 7187, Australia",147.8206282,-43.0808492
1744,2127,"Sydney Olympic Park NSW 2127, Australia",151.0675147,-33.840308
1745,4407,"Nangwee QLD 4407, Australia",151.1982604,-27.5330018
1746,2301,"Australia 2301, Cdad. Autónoma de Buenos Aires, Argentina",-58.3811671,-34.6454164
1747,4810,"Cape Cleveland QLD 4810, Australia",147.0379125,-19.35682
1748,2705,"Leeton NSW 2705, Australia",146.3376699,-34.4808824
1749,3469,"Glenlofty VIC 3469, Australia",143.2395973,-37.1727781
1750,4809,"Barratta QLD 4809, Australia",147.1399099,-19.5702853
1751,2653,"Westdale NSW 2653, Australia",148.052689,-35.7869336
1752,6041,"Gabbadah WA 6041, Australia",115.5917918,-31.3537325
1753,4071,"4071 Australia Dr, Lexington Park, MD 20653, USA",-76.4685113,38.2585054
1754,3273,"Hexham VIC 3273, Australia",142.6814062,-37.9654484
1755,6507,"Dandaragan WA 6507, Australia",115.5681084,-30.6953762
1756,850,"Australia 850, Solidaridad, Voluntad y Trabajo, 89317 Tampico, Tamps., Mexico",-97.8513783,22.3122907
1757,3902,"Bumberrah VIC 3902, Australia",147.8140428,-37.8149759
1758,5473,"Gladstone SA 5473, Australia",138.37886,-33.2582737
1759,5723,"South Australia 5723, Australia",135.2993862,-28.7292604
1760,2669,"New South Wales 2669, Australia",146.6513853,-33.6678012
1761,5278,"Wepar SA 5278, Australia",140.700134,-37.5715319
1762,2716,"Jerilderie NSW 2716, Australia",145.7133909,-35.1438001
1763,3749,"Bruarong VIC 3749, Australia",146.8536008,-36.3378001
1764,2791,"Errowanbang NSW 2791, Australia",149.1271385,-33.6022084
1765,6501,"Muchea WA 6501, Australia",115.9231471,-31.5382441
1766,3462,"Sandon VIC 3462, Australia",144.0630048,-37.0911657
1767,3779,"Marysville VIC 3779, Australia",146.0696009,-37.6356131
1768,3522,"Glenhope East VIC 3522, Australia",144.7631754,-37.0314398
1769,308,"Australia 308, Oceanía Boulevares, 25290 Saltillo, Coah., Mexico",-100.9675395,25.4471697
1770,6446,"Grass Patch WA 6446, Australia",121.7195459,-33.1836614
1771,5055,"Australia 5055, B1712MJI Castelar, Buenos Aires, Argentina",-58.6418282,-34.7021804
1772,5301,"Netherton SA 5301, Australia",140.1009527,-35.5247462
1773,4465,"Dunkeld QLD 4465, Australia",147.9737653,-26.4853725
1774,3701,"Victoria 3701, Australia",147.3722545,-36.5560587
1775,226,"Australia 226, Futuro Nogalar, 66480 San Nicolás de los Garza, N.L., Mexico",-100.2814399,25.7127363
1776,5356,"Dutton SA 5356, Australia",139.2435998,-34.4061799
1777,730,"Australia 730, B1752DTP Lomas del Mirador, Buenos Aires, Argentina",-58.5393762,-34.6740568
1778,3413,"Ozenkadnook VIC 3413, Australia",141.2213044,-36.7355842
1779,3732,"Myrrhee VIC 3732, Australia",146.3153013,-36.7449213
1780,2739,"Buronga NSW 2739, Australia",142.1806128,-34.1427659
1781,3314,"Bulart VIC 3314, Australia",142.0639245,-37.4235761
1782,6285,"Prevelly WA 6285, Australia",115.3311689,-34.0060747
1783,2377,"Australia 2377, Conjunto Urbano Orizaba, Mexicali, B.C., Mexico",-115.5149756,32.6396382
1784,3243,"Barwon Downs VIC 3243, Australia",143.8020236,-38.4455968
1785,3281,"Winslow VIC 3281, Australia",142.5532048,-38.2466034
1786,3738,"Ovens VIC 3738, Australia",146.7749116,-36.6120774
1787,6721,"Western Australia 6721, Australia",118.5797981,-20.8780141
1788,3869,"Yinnar South VIC 3869, Australia",146.3712327,-38.3637637
1789,2807,"Koorawatha NSW 2807, Australia",148.577239,-34.0130993
1790,4829,"Wills QLD 4829, Australia",139.6911374,-23.5827727
1791,3640,"Katunga VIC 3640, Australia",145.4693163,-36.0111562
1792,3427,"Diggers Rest VIC 3427, Australia",144.6862995,-37.6153848
1793,6620,"Western Australia 6620, Australia",116.702495,-29.2508071
1794,4107,"Salisbury QLD 4107, Australia",153.0353622,-27.5499147
1795,6237,"Boyanup WA 6237, Australia",115.6865054,-33.4891504
1796,6290,"East Augusta WA 6290, Australia",115.1177654,-34.2819216
1797,3370,"Ullina VIC 3370, Australia",143.8020236,-37.261355
1798,6728,"Western Australia 6728, Australia",125.5657862,-17.0965983
1799,5502,"Grace Plains SA 5502, Australia",138.5187229,-34.4801861
1800,2466,"Iluka NSW 2466, Australia",153.3623524,-29.3884679
1801,6432,"Victory Heights WA 6432, Australia",121.4970294,-30.7876854
1802,3733,"Whitfield VIC 3733, Australia",146.4160017,-36.748307
1803,6280,"Acton Park WA 6280, Australia",115.3311689,-33.7555447
1804,2828,"Tonderburine NSW 2828, Australia",148.8289611,-31.2107509
1805,4497,"Daymar QLD 4497, Australia",148.8673144,-28.6370311
1806,4601,"Boonara QLD 4601, Australia",152.0666213,-26.1833489
1807,3786,"Ferny Creek VIC 3786, Australia",145.3309395,-37.8759058
1808,3617,"Byrneside VIC 3617, Australia",145.1706992,-36.4005389
1809,2402,"Coolatai NSW 2402, Australia",150.4892292,-29.2936438
1810,2353,"Moonbi NSW 2353, Australia",151.0704263,-30.9728211
1811,2717,"Coomealla NSW 2717, Australia",142.0851258,-34.0796702
1812,3744,"Wandiligong VIC 3744, Australia",146.9773826,-36.7907956
1813,3685,"Boorhaman North VIC 3685, Australia",146.4495924,-36.0564816
1814,6304,"East Beverley WA 6304, Australia",116.9381434,-32.1371569
1815,2397,"Bellata NSW 2397, Australia",149.5642369,-29.9061308
1816,6069,"Ellenbrook WA 6069, Australia",116.005922,-31.7645555
1817,6448,"Gibson WA 6448, Australia",121.856261,-33.5881933
1818,2738,"Mallee NSW 2738, Australia",142.4891909,-34.2057057
1819,2479,"Bangalow NSW 2479, Australia",153.5098019,-28.713311
1820,5495,"Port Germein SA 5495, Australia",138.0208484,-32.8889644
1821,5265,"Field SA 5265, Australia",139.7319925,-35.7090259
1822,4895,"Starcke QLD 4895, Australia",145.3186989,-15.9452239
1823,4697,"Raglan QLD 4697, Australia",150.7911697,-23.8116708
1824,2568,"Menangle NSW 2568, Australia",150.7098171,-34.1380681
1825,3518,"Fentons Creek VIC 3518, Australia",143.6068646,-36.424265
1826,3549,"Robinvale Irrigation District Section B VIC 3549, Australia",142.7455935,-34.7552395
1827,403,"403/6-14 Castle St, Castle Hill NSW 2154, Australia",151.0063622,-33.7299431
1828,2629,"Old Adaminaby NSW 2629, Australia",148.7831534,-36.0002232
1829,2311,"Mount Rivers NSW 2311, Australia",151.4668962,-32.2611927
1830,6220,"Warawarrup WA 6220, Australia",116.0886704,-33.0016541
1831,4704,"Yaamba QLD 4704, Australia",150.361674,-23.129409
1832,3565,"Kotta VIC 3565, Australia",144.5327632,-36.186252
1833,4717,"Blackwater QLD 4717, Australia",148.8799357,-23.5831866
1834,4757,"Eungella QLD 4757, Australia",148.5086818,-21.2156464
1835,5140,"Greenhill SA 5140, Australia",138.7015768,-34.9526096
1836,4716,"Thangool QLD 4716, Australia",150.5747799,-24.4872826
1837,7291,"Carrick TAS 7291, Australia",147.0184513,-41.5489842
1838,3718,"Molesworth VIC 3718, Australia",145.5136433,-37.1696241
1839,2398,"Gurley NSW 2398, Australia",149.7948904,-29.6707647
1840,2328,"Dalswinton NSW 2328, Australia",150.6285091,-32.466267
1841,2404,"Elcombe NSW 2404, Australia",150.6749653,-30.014234
1842,3614,"Toolamba VIC 3614, Australia",145.325409,-36.4899607
1843,5333,"Pata SA 5333, Australia",140.4721736,-34.5170872
1844,3468,"Mount Lonarch VIC 3468, Australia",143.4122052,-37.1974706
1845,5174,"Sellicks Beach SA 5174, Australia",138.4887224,-35.3370306
1846,2867,"Baldry NSW 2867, Australia",148.6915912,-32.9342431
1847,3431,"Riddells Creek VIC 3431, Australia",144.6753231,-37.4525468
1848,7172,"Wattle Hill TAS 7172, Australia",147.6082338,-42.7276445
1849,3475,"Cochranes Creek VIC 3475, Australia",143.5202874,-36.6942531
1850,3821,"Ellinbank VIC 3821, Australia",146.002705,-38.0844084
1851,2559,"Claymore NSW 2559, Australia",150.794076,-34.050553
1852,6038,"Alkimos WA 6038, Australia",115.6805868,-31.6171563
1853,5603,"Verran SA 5603, Australia",136.2474381,-33.8733858
1854,800,"Australia 800, B1752DTR Lomas del Mirador, Buenos Aires, Argentina",-58.5399559,-34.6744145
1855,5136,"Norton Summit SA 5136, Australia",138.7442455,-34.9174787
1856,5160,"Lonsdale SA 5160, Australia",138.4937213,-35.106587
1857,3766,"Kalorama VIC 3766, Australia",145.3862638,-37.8194936
1858,3683,"Chiltern Valley VIC 3683, Australia",146.5840737,-36.1761422
1859,3232,"Lorne VIC 3232, Australia",143.9324048,-38.528668
1860,5525,"5525 Australia Dr, Lexington Park, MD 20653, USA",-76.4685456,38.2585593
1861,5464,"Koolunga SA 5464, Australia",138.3589086,-33.6765832
1862,3540,"Oakvale VIC 3540, Australia",143.5202874,-35.8651458
1863,3428,"Bulla VIC 3428, Australia",144.7961441,-37.6342319
1864,4408,"Bell QLD 4408, Australia",151.3035248,-26.8136945
1865,3309,"Digby VIC 3309, Australia",141.5360368,-37.7888212
1866,4888,"Ravenshoe QLD 4888, Australia",145.4471613,-17.5839985
1867,6231,"6231 Australia Dr, Lexington Park, MD 20653, USA",-76.4685623,38.2585855
1868,4426,"Jackson North QLD 4426, Australia",149.6103349,-26.6635632
1869,4707,"St Lawrence QLD 4707, Australia",149.5358038,-22.3455275
1870,3412,"Goroke VIC 3412, Australia",141.4939853,-36.6744115
1871,5576,"Honiton SA 5576, Australia",137.5668376,-35.0282251
1872,7023,"Opossum Bay TAS 7023, Australia",147.4094671,-42.9928881
1873,5210,"Mount Compass SA 5210, Australia",138.6288642,-35.3589696
1874,3992,"Ryanston VIC 3992, Australia",145.6023644,-38.5123976
1875,3624,"Girgarre VIC 3624, Australia",144.9501708,-36.4031385
1876,2342,"Currabubula NSW 2342, Australia",150.6052865,-31.1929989
1877,6932,"6932 Australia Way W, Clearwater, FL 33763, USA",-82.7397328,27.996818
1878,7259,"Targa TAS 7259, Australia",147.3862417,-41.3420719
1879,4626,"Riverleigh QLD 4626, Australia",151.0471355,-25.8311568
1880,3637,"Yalca VIC 3637, Australia",145.2922335,-35.9530351
1881,7178,"Murdunna TAS 7178, Australia",147.8939551,-42.9554818
1882,6074,"Sawyers Valley WA 6074, Australia",116.2540856,-31.9747933
1883,3279,"Ballangeich VIC 3279, Australia",142.6279608,-38.1923617
1884,6103,"Rivervale WA 6103, Australia",115.9201904,-31.9608819
1885,6123,"Whitby WA 6123, Australia",116.0000104,-32.2898615
1886,3746,"Eldorado VIC 3746, Australia",146.5280168,-36.3225392
1887,4699,"Bajool QLD 4699, Australia",150.6285091,-23.6268212
1888,6705,"Western Australia 6705, Australia",116.0413889,-24.4080807
1889,2771,"Australia 2771, Cdad. Autónoma de Buenos Aires, Argentina",-58.3860557,-34.6465825
1890,3594,"Nyah VIC 3594, Australia",143.3582223,-35.1526896
1891,3813,"Tynong VIC 3813, Australia",145.6356577,-38.0477423
1892,273,"273 Australia St, Newtown NSW 2042, Australia",151.1783091,-33.8969886
1893,467,"Australia 467, B1752DTI Lomas del Mirador, Buenos Aires, Argentina",-58.537034,-34.6725616
1894,3755,"Yan Yean VIC 3755, Australia",145.1486206,-37.5474779
1895,5555,"Lake View SA 5555, Australia",137.8032284,-33.8149381
1896,6148,"Ferndale WA 6148, Australia",115.8965353,-32.0349098
1897,3839,"3839 Australia Dr, Lexington Park, MD 20653, USA",-76.4685059,38.2584968
1898,4403,"Brymaroo QLD 4403, Australia",151.592059,-27.3710071
1899,315,"315/1-25 Captain Robertson Ave, Golden Grove SA 5125, Australia",138.7251727,-34.7696952
1900,5344,"Glossop SA 5344, Australia",140.5446161,-34.2730065
1901,3474,"3474 Australia Way W, Clearwater, FL 33763, USA",-82.7397576,27.9970053
1902,3364,"Barkstead VIC 3364, Australia",143.9541563,-37.3708363
1903,6209,"Furnissdale WA 6209, Australia",115.7930198,-32.5517284
1904,351,"351, Broadbeach Waters QLD 4218, Australia",153.4296721,-28.0364682
1905,5094,"Cavan SA 5094, Australia",138.56876,-34.8038009
1906,2439,"Kerewong NSW 2439, Australia",152.6148504,-31.6342174
1907,2481,"Tyagarah NSW 2481, Australia",153.568808,-28.6283277
1908,2865,"Manildra NSW 2865, Australia",148.6001005,-33.1521836
1909,6115,"6115 Australia Dr, Lexington Park, MD 20653, USA",-76.4685595,38.2585812
1910,6535,"Gregory WA 6535, Australia",114.6192899,-28.2831844
1911,2846,"Glen Davis NSW 2846, Australia",150.0722053,-33.1446203
1912,5570,"Clinton Centre SA 5570, Australia",137.9416114,-34.2583548
1913,3966,"Hazel Park VIC 3966, Australia",146.4383942,-38.6286899
1914,3275,"Mailors Flat VIC 3275, Australia",142.4625357,-38.2901504
1915,4798,"Mentmore QLD 4798, Australia",148.7717042,-20.8119331
1916,3885,"Victoria 3885, Australia",148.2804541,-37.2938907
1917,4380,"Storm King QLD 4380, Australia",151.6538052,-28.7588427
1918,7052,"Blackmans Bay TAS 7052, Australia",147.3203772,-43.0090716
1919,5371,"Shea-Oak Log SA 5371, Australia",138.7492675,-34.4921044
1920,3490,"Victoria 3490, Australia",141.5991643,-35.3571245
1921,2465,"Harwood NSW 2465, Australia",153.244462,-29.4168813
1922,6022,"Hamersley WA 6022, Australia",115.8137261,-31.8514757
1923,3741,"Bright VIC 3741, Australia",147.0562333,-36.882628
1924,3890,"Tonghi Creek VIC 3890, Australia",149.1960526,-37.5621735
1925,5234,"Birdwood SA 5234, Australia",138.9706803,-34.821959
1926,4881,"Kuranda QLD 4881, Australia",145.6333317,-16.8167422
1927,4488,"Nebine QLD 4488, Australia",147.1013188,-28.1767542
1928,2345,"Garthowen NSW 2345, Australia",150.8376769,-30.9158156
1929,2128,"Silverwater NSW 2128, Australia",151.0442244,-33.8343506
1930,6713,"Dampier Archipelago WA 6713, Australia",116.5137964,-20.5356175
1931,5372,"Freeling SA 5372, Australia",138.8196226,-34.4378904
1932,2359,"Bakers Creek NSW 2359, Australia",151.0005643,-30.1352024
1933,6503,"Breera WA 6503, Australia",115.7575196,-31.1689573
1934,5414,"Manoora SA 5414, Australia",138.8196226,-33.9941359
1935,4424,"Drillham South QLD 4424, Australia",149.9835959,-26.6413968
1936,5342,"Monash SA 5342, Australia",140.5756887,-34.2003327
1937,2675,"New South Wales 2675, Australia",145.6689636,-33.2853898
1938,4721,"Laglan QLD 4721, Australia",147.6290138,-22.8318768
1939,7267,"Turners Marsh TAS 7267, Australia",147.1333157,-41.2709385
1940,412,"Australia 412, B1752DTJ Lomas del Mirador, Buenos Aires, Argentina",-58.5365606,-34.6722613
1941,3407,"Balmoral VIC 3407, Australia",141.8100218,-37.2543103
1942,3460,"Daylesford VIC 3460, Australia",144.1610974,-37.3405241
1943,3726,"Bungeet VIC 3726, Australia",146.002705,-36.3378842
1944,6034,"Eglinton WA 6034, Australia",115.6687491,-31.5877637
1945,836,"Australia 836, Solidaridad, Voluntad y Trabajo, 89317 Tampico, Tamps., Mexico",-97.8519338,22.312125
1946,6213,"Etmilyn WA 6213, Australia",116.0886704,-32.6655306
1947,3665,"Locksley VIC 3665, Australia",145.3807298,-36.8222633
1948,7470,"Rosebery TAS 7470, Australia",145.5425955,-41.8041385
1949,5600,"South Australia 5600, Australia",136.9028375,-32.882929
1950,4605,"Redgate QLD 4605, Australia",151.8409214,-26.1309297
1951,4354,"Kilbirnie QLD 4354, Australia",151.8643252,-27.3244055
1952,4412,"Brigalow QLD 4412, Australia",150.7911697,-26.9142824
1953,5264,"Meningie East SA 5264, Australia",139.4872858,-35.9032413
1954,4789,"Australia 4789, B1712MJC Castelar, Buenos Aires, Argentina",-58.6412118,-34.7001596
1955,2876,"Gunningbland NSW 2876, Australia",147.8708157,-33.1071907
1956,4877,"Killaloe QLD 4877, Australia",145.4652682,-16.5257098
1957,7007,"Mount Nelson TAS 7007, Australia",147.3230375,-42.9206944
1958,3388,"Banyena VIC 3388, Australia",142.6600232,-36.6090828
1959,3933,"Moorooduc VIC 3933, Australia",145.1265477,-38.2501593
1960,5121,"Penfield Gardens SA 5121, Australia",138.6288642,-34.6634406
1961,3882,"Nicholson VIC 3882, Australia",147.7573,-37.8071978
1962,4743,"Glenden QLD 4743, Australia",148.1144193,-21.3539003
1963,5131,"Upper Hermitage SA 5131, Australia",138.76936,-34.7947178
1964,6401,"Irishtown WA 6401, Australia",116.749645,-31.5044585
1965,2707,"Coleambally NSW 2707, Australia",145.7578403,-34.8075597
1966,3287,"Minhamite VIC 3287, Australia",142.2974988,-38.0416972
1967,3330,"Rokewood VIC 3330, Australia",143.7152249,-37.9359743
1968,3959,"Fish Creek VIC 3959, Australia",146.0696009,-38.760009
1969,4355,"Glenaven QLD 4355, Australia",152.0545612,-27.2609101
1970,5269,"Custon SA 5269, Australia",140.9080913,-36.3754344
1971,5220,"Parndana SA 5220, Australia",137.2557429,-35.7822614
1972,4001,"4001 Australia Dr, Lexington Park, MD 20653, USA",-76.4685097,38.2585028
1973,3278,"Purnim West VIC 3278, Australia",142.6065939,-38.2755738
1974,6262,"Crowea WA 6262, Australia",116.1359431,-34.6134577
1975,5242,"Balhannah SA 5242, Australia",138.8095665,-34.9764499
1976,2704,"Australia 2704, Cdad. Autónoma de Buenos Aires, Argentina",-58.3850705,-34.6463371
1977,7083,"7083 Australia Dr, Lexington Park, MD 20653, USA",-76.4685824,38.258617
1978,7150,"South Bruny TAS 7150, Australia",147.2679116,-43.3937074
1979,7265,"Winnaleah TAS 7265, Australia",147.8064483,-41.0393927
1980,6281,"Eagle Bay WA 6281, Australia",115.0821842,-33.6107557
1981,5138,"Basket Range SA 5138, Australia",138.7743842,-34.929881
1982,4346,"Marburg QLD 4346, Australia",152.5941917,-27.5659238
1983,3663,"Mangalore VIC 3663, Australia",145.1596592,-36.9383316
1984,6043,"Breton Bay WA 6043, Australia",115.4496624,-31.1701738
1985,2624,"Perisher Valley NSW 2624, Australia",148.4002165,-36.4030689
1986,457,"457 Railway Parade, Hurstville NSW 2220, Australia",151.1052212,-33.9659156
1987,3334,"Mount Doran VIC 3334, Australia",144.0630048,-37.7625944
1988,222,"Australia 222, Futuro Nogalar, 66480 San Nicolás de los Garza, N.L., Mexico",-100.2817324,25.7129094
1989,5470,"Yacka SA 5470, Australia",138.4987208,-33.5670227
1990,5731,"South Australia 5731, Australia",140.3481835,-28.8338937
1991,3586,"Bulga VIC 3586, Australia",143.5094722,-35.2818109
1992,6251,"Brazier WA 6251, Australia",115.8758354,-33.6976567
1993,5151,"Piccadilly SA 5151, Australia",138.7316925,-34.978774
1994,4738,"Koumala QLD 4738, Australia",149.2420166,-21.62205
1995,4705,"Marlborough QLD 4705, Australia",149.1960526,-22.5108293
1996,2201,"Australia 2201, San Luis, 21160 Mexicali, B.C., Mexico",-115.5123153,32.6396317
1997,2372,"New South Wales 2372, Australia",151.9813913,-29.1323998
1998,4417,"Weribone QLD 4417, Australia",149.0675595,-27.1542602
1999,4490,"Widgeegoara QLD 4490, Australia",145.6689636,-28.1112414
2000,5275,"South Australia 5275, Australia",140.1009527,-36.697806
2001,2625,"Thredbo NSW 2625, Australia",148.2975552,-36.499567
2002,2252,"Australia 2252, Conchalí, Región Metropolitana, Chile",-70.6777671,-33.3928558
2003,3525,"Wooroonook VIC 3525, Australia",143.4338092,-36.2125211
2004,3419,"Kaniva VIC 3419, Australia",141.2213044,-36.3672353
2005,7182,"Port Arthur TAS 7182, Australia",147.9243011,-43.1331509
2006,2415,"Nooroo NSW 2415, Australia",151.8643252,-32.2537173
2007,3225,"Swan Island VIC 3225, Australia",144.6643482,-38.2407088
2008,2490,"North Tumbulgum NSW 2490, Australia",153.4685065,-28.2663062
2009,6302,"Cold Harbour WA 6302, Australia",116.5137964,-32.022557
2010,4600,"Oakview QLD 4600, Australia",152.215754,-26.1229125
2011,3217,"Mount Duneed VIC 3217, Australia",144.3248554,-38.2617284
2012,2818,"Terrabella NSW 2818, Australia",148.806055,-32.4158549
2013,7254,"Pipers Brook TAS 7254, Australia",147.240896,-41.1251491
2014,3989,"3989 Australia Dr, Lexington Park, MD 20653, USA",-76.4685094,38.2585024
2015,4802,"Flametree QLD 4802, Australia",148.7169163,-20.2674989
2016,4468,"Morven QLD 4468, Australia",147.0111681,-26.569158
2017,6528,"Walkaway WA 6528, Australia",114.8567482,-28.9800384
2018,5374,"Mount Mary SA 5374, Australia",139.284143,-34.1626435
2019,4830,"Burketown QLD 4830, Australia",138.8799972,-17.5800577
2020,4004,"4/448 Boundary St, Spring Hill QLD 4004, Australia",153.0231638,-27.4607671
2021,7214,"Mangana TAS 7214, Australia",147.9465902,-41.5180471
2022,820,"Australia 820, B1821BYR Villa Fiorito, Buenos Aires, Argentina",-58.438612,-34.7177216
2023,6333,"William Bay WA 6333, Australia",117.0794082,-34.8849782
2024,3572,"Prairie VIC 3572, Australia",144.3248554,-36.3147326
2025,3477,"Tottington VIC 3477, Australia",143.1749726,-36.7208653
2026,7107,"7107 Australia Dr, Lexington Park, MD 20653, USA",-76.4685829,38.2586179
2027,4364,"Brookstead QLD 4364, Australia",151.4513347,-27.7569394
2028,3762,"Bylands VIC 3762, Australia",144.9721978,-37.3564385
2029,3230,"Anglesea VIC 3230, Australia",144.1501922,-38.3850062
2030,3026,"Laverton North VIC 3026, Australia",144.7796581,-37.8294185
2031,5270,"Swede Flat SA 5270, Australia",140.5549719,-36.4029199
2032,3583,"Tresco VIC 3583, Australia",143.6827007,-35.5135995
2033,5170,"Maslin Beach SA 5170, Australia",138.4837239,-35.2301549
2034,2726,"Cooneys Creek NSW 2726, Australia",148.3032562,-34.7739342
2035,6252,"Mullalyup WA 6252, Australia",115.9586253,-33.7520336
2036,2873,"New South Wales 2873, Australia",147.1915504,-32.2241884
2037,4260,"4260 Australia Way W, Clearwater, FL 33763, USA",-82.739752,27.9969627
2038,2715,"New South Wales 2715, Australia",143.2180495,-33.7309634
2039,2555,"Badgerys Creek NSW 2555, Australia",150.7504879,-33.8787051
2040,5233,"Forreston SA 5233, Australia",138.8900659,-34.8074268
2041,3559,"Avonmore VIC 3559, Australia",144.8291259,-36.5430106
2042,2950,"Australia 2950, C1296 CABA, Argentina",-58.3884967,-34.646783
2043,4144,"4144 Australia Way W, Clearwater, FL 33763, USA",-82.7397528,27.996969
2044,5268,"Bordertown SA 5268, Australia",140.8040271,-36.4269352
2045,5410,"Linwood SA 5410, Australia",138.739224,-34.3312582
2046,6850,"6850 Australia Way W, Clearwater, FL 33763, USA",-82.7397334,27.9968225
2047,2874,"Tullamore NSW 2874, Australia",147.5985807,-32.6250881
2048,4381,"Glen Aplin QLD 4381, Australia",151.8774985,-28.7388192
2049,2123,"Australia 2123, Conchalí, Región Metropolitana, Chile",-70.6771831,-33.3920887
2050,3921,"French Island VIC 3921, Australia",145.3364703,-38.3489348
2051,5556,"North Beach SA 5556, Australia",137.6553601,-33.8904356
2052,4416,"Nangram QLD 4416, Australia",150.1341328,-26.9267532
2053,2732,"Noorong NSW 2732, Australia",144.1283863,-35.4668501
2054,3962,"Toora North VIC 3962, Australia",146.3488562,-38.6183432
2055,822,"Australia 822, Solidaridad, Voluntad y Trabajo, 89317 Tampico, Tamps., Mexico",-97.8525088,22.3119635
2056,7162,"Woodbridge TAS 7162, Australia",147.2140173,-43.1614802
2057,2426,"Langley Vale NSW 2426, Australia",152.5796026,-31.8260586
2058,4513,"Australia 4513, B1712MIE Castelar, Buenos Aires, Argentina",-58.6401312,-34.6967569
2059,6346,"Western Australia 6346, Australia",119.9740534,-33.5815102
2060,7185,"Premaydena TAS 7185, Australia",147.7583192,-43.0563133
2061,4857,"Silkwood QLD 4857, Australia",146.0208179,-17.7470929
2062,517,"Australia 517, B1752DTK Lomas del Mirador, Buenos Aires, Argentina",-58.5374792,-34.6728433
2063,3760,"Smiths Gully VIC 3760, Australia",145.2867055,-37.6267001
2064,5360,"Nain SA 5360, Australia",138.9102087,-34.4471113
2065,3871,"Allambee Reserve VIC 3871, Australia",146.1812023,-38.4049813
2066,3276,"Woolsthorpe VIC 3276, Australia",142.4891909,-38.0951382
2067,6372,"Yealering WA 6372, Australia",117.6200138,-32.6275771
2068,5413,"Apoinga SA 5413, Australia",138.9202828,-34.1275602
2069,871,"Australia 871, B1752DTQ Lomas del Mirador, Buenos Aires, Argentina",-58.540672,-34.6748779
2070,5057,"Australia 5057, B1712MJI Castelar, Buenos Aires, Argentina",-58.6418318,-34.7021932
2071,5552,"Port Arthur SA 5552, Australia",137.9614096,-34.1015997
2072,3589,"Woorinen North VIC 3589, Australia",143.4662269,-35.2667175
2073,3491,"Patchewollock VIC 3491, Australia",142.1063337,-35.394936
2074,6564,"Clackline WA 6564, Australia",116.5196956,-31.7094264
2075,366,"Australia 366, B1752DTH Lomas del Mirador, Buenos Aires, Argentina",-58.5361815,-34.6720105
2076,456,"Australia 456, B1752DTJ Lomas del Mirador, Buenos Aires, Argentina",-58.5369776,-34.6725258
2077,5482,"Booleroo Centre SA 5482, Australia",138.3589086,-32.8593312
2078,4754,"Benholme QLD 4754, Australia",148.8382733,-21.2242265
2079,7268,"North Lilydale TAS 7268, Australia",147.2408258,-41.2768005
2080,3317,"Harrow VIC 3317, Australia",141.5781151,-37.1477475
2081,2585,"Galong NSW 2585, Australia",148.5315297,-34.6006042
2082,6336,"Mindarabin WA 6336, Australia",118.3929417,-33.9076796
2083,711,"Progress Rd, Richlands QLD 4077, Australia",152.949822,-27.5978873
2084,6936,"6936 Australia Way W, Clearwater, FL 33763, USA",-82.7397327,27.9968178
2085,3724,"3724 Australia Way W, Clearwater, FL 33763, USA",-82.7397558,27.9969918
2086,4799,"Bloomsbury QLD 4799, Australia",148.6236338,-20.6881443
2087,3332,"Lethbridge VIC 3332, Australia",144.1065864,-37.9633341
2088,7180,"Taranna TAS 7180, Australia",147.8701537,-43.0617175
2089,235,"235/23 St Quentin Ave, Claremont WA 6010, Australia",115.7797309,-31.9824847
2090,4375,"Cottonvale QLD 4375, Australia",151.9489674,-28.519717
2091,6337,"Western Australia 6337, Australia",119.1390642,-33.8817547
2092,4185,"4185 Australia Dr, Lexington Park, MD 20653, USA",-76.468514,38.2585096
2093,3374,"Great Western VIC 3374, Australia",142.8955875,-37.1596728
2094,7154,"7154 Australia Way W, Clearwater, FL 33763, USA",-82.7397312,27.996806
2095,4418,"Guluguba QLD 4418, Australia",150.0953406,-26.2422842
2096,4347,"Grantham QLD 4347, Australia",152.1904182,-27.5912673
2097,6125,"Hopeland WA 6125, Australia",115.9704503,-32.3755625
2098,3613,"3613 Australian Cloud Dr, Las Vegas, NV 89135, USA",-115.3329345,36.1240497
2099,3333,"Meredith VIC 3333, Australia",144.0194472,-37.8585983
2100,7276,"Gravelly Beach TAS 7276, Australia",146.9660668,-41.2790163
2101,6966,"6966 Australia Way W, Clearwater, FL 33763, USA",-82.7397325,27.9968162
2102,2405,"New South Wales 2405, Australia",149.5642369,-28.8981206
2103,2877,"New South Wales 2877, Australia",146.382423,-32.8686201
2104,4230,"Robina QLD 4230, Australia",153.3852008,-28.077581
2105,6443,"Western Australia 6443, Australia",124.1531947,-31.9046219
2106,6228,"Waterloo WA 6228, Australia",115.7693535,-33.3347411
2107,3753,"Beveridge VIC 3753, Australia",144.9832134,-37.4822825
2108,3751,"Woodstock VIC 3751, Australia",145.0603633,-37.5365105
2109,835,"Australia 835, Solidaridad, Voluntad y Trabajo, 89317 Tampico, Tamps., Mexico",-97.8518613,22.3120617
2110,3546,"Cocamba VIC 3546, Australia",142.9599661,-35.0979662
2111,3727,"Almonds VIC 3727, Australia",145.958135,-36.2467001
2112,3521,"Pyalong VIC 3521, Australia",144.851121,-37.0989702
2113,4478,"Windeyer QLD 4478, Australia",146.382423,-24.9865124
2114,3607,"Tabilk VIC 3607, Australia",145.1706992,-36.8378153
2115,3893,"Tambo Crossing VIC 3893, Australia",147.8026919,-37.4768667
2116,301,"301 Ord St, Fremantle WA 6160, Australia",115.7557705,-32.0520174
2117,5240,"Lenswood SA 5240, Australia",138.8246514,-34.9138333
2118,4025,"St Helena Island QLD 4025, Australia",153.4154233,-27.0873207
2119,6286,"Witchcliffe WA 6286, Australia",115.0703229,-34.0838725
2120,335,"335/6 - 14 Castle St, Castle Hill NSW 2154, Australia",151.0062258,-33.7307077
2121,6485,"Nalkain WA 6485, Australia",117.4086488,-31.1854805
2122,3433,"Monegeetta VIC 3433, Australia",144.7796581,-37.399104
2123,7670,"7670 Australia Way W, Clearwater, FL 33763, USA",-82.7397275,27.9967781
2124,4522,"Australia 4522, B1712MIF Castelar, Buenos Aires, Argentina",-58.6401508,-34.6968121
2125,2309,"Australia 2309, Conjunto Urbano Orizaba, Mexicali, B.C., Mexico",-115.5143347,32.6396505
2126,4363,"Southbrook QLD 4363, Australia",151.7155622,-27.6834647
2127,7071,"7071 Australia Dr, Lexington Park, MD 20653, USA",-76.4685821,38.2586166
2128,4625,"Dundarrah QLD 4625, Australia",151.6070583,-25.6051205
2129,4382,"Ballandean QLD 4382, Australia",151.8643252,-28.8279553
2130,6120,"Unit 6120/570 Lygon St, Carlton VIC 3053, Australia",144.9694316,-37.7931559
2131,6472,"Western Australia 6472, Australia",118.0186087,-29.9849684
2132,4423,"Glenmorgan QLD 4423, Australia",149.6766801,-27.2481697
2133,4219,"Burleigh Heads QLD 4219, Australia",153.438277,-28.1116562
2134,6367,"Kondinin WA 6367, Australia",118.3929417,-32.4203845
2135,5401,"Alma SA 5401, Australia",138.6589406,-34.2615181
2136,3857,"Cowwarr VIC 3857, Australia",146.6850587,-38.0132354
2137,5100,"Australia 5100, Castelar, Buenos Aires, Argentina",-58.6419137,-34.7024797
2138,5572,"Arthurton SA 5572, Australia",137.7834888,-34.2284298
2139,6226,"Roelands WA 6226, Australia",115.8640062,-33.292782
2140,3269,"Waarre VIC 3269, Australia",143.1104044,-38.6344019
2141,5421,"Terowie SA 5421, Australia",139.0211225,-33.1438506
2142,5725,"Olympic Dam SA 5725, Australia",136.7478493,-30.4464984
2143,4875,"Thursday Island QLD 4875, Australia",142.2193697,-10.5799693
2144,5106,"Parafield SA 5106, Australia",138.6363818,-34.7927625
2145,6913,"6913 Australia Dr, Lexington Park, MD 20653, USA",-76.4685784,38.2586107
2146,4744,"Moranbah QLD 4744, Australia",147.825395,-21.9614108
2147,4402,"Cooyar QLD 4402, Australia",151.8175207,-26.9690985
2148,6369,"Woolocutty WA 6369, Australia",118.9528645,-32.1158025
2149,2202,"Australia 2202, B1610ALB Ricardo Rojas, Buenos Aires, Argentina",-58.6739303,-34.4563408
2150,4824,"Kuridala QLD 4824, Australia",140.3481835,-19.9853306
2151,6338,"Western Australia 6338, Australia",118.2058768,-34.2820735
2152,4422,"Inglestone QLD 4422, Australia",149.7487272,-27.5894981
2153,3415,"Miram VIC 3415, Australia",141.3784817,-36.3811882
2154,4874,"Wenlock QLD 4874, Australia",141.8707759,-12.6318718
2155,5480,"Laura SA 5480, Australia",138.37886,-33.07232
2156,2597,"Australia 2597, C1296ABE CABA, Argentina",-58.3838812,-34.6460618
2157,4677,"Seventeen Seventy QLD 4677, Australia",151.5580962,-24.3287726
2158,6317,"Bullock Hills WA 6317, Australia",117.6904167,-33.6278441
2159,7209,"Ross TAS 7209, Australia",147.6020553,-42.101126
2160,5481,"Wongyarra SA 5481, Australia",138.1995591,-33.01787
2161,3529,"Nullawil VIC 3529, Australia",143.1965079,-35.845391
2162,3231,"Fairhaven VIC 3231, Australia",144.0521131,-38.451657
2163,3424,"Albacutya VIC 3424, Australia",141.9791849,-35.8357024
2164,7027,"Colebrook TAS 7027, Australia",147.3373288,-42.5433272
2165,7026,"Campania TAS 7026, Australia",147.4454484,-42.6170473
2166,2879,"New South Wales 2879, Australia",142.8741407,-32.3693586
2167,288,"Australia 288, B1752DTF Lomas del Mirador, Buenos Aires, Argentina",-58.5354145,-34.6715062
2168,3739,"Eurobin VIC 3739, Australia",146.8423556,-36.6332007
2169,5144,"Carey Gully SA 5144, Australia",138.7743842,-34.966565
2170,6562,"Bakers Hill WA 6562, Australia",116.4429944,-31.8058901
2171,4709,"Tieri QLD 4709, Australia",148.343171,-23.0351671
2172,5491,"West Bundaleer SA 5491, Australia",138.598804,-33.180034
2173,5056,"Australia 5056, B1712MJJ Castelar, Buenos Aires, Argentina",-58.6418303,-34.7021877
2174,2361,"Ashford NSW 2361, Australia",151.1869325,-29.2477204
2175,6322,"Tenterden WA 6322, Australia",117.4321452,-34.4108131
2176,6630,"Western Australia 6630, Australia",115.8521764,-26.7303217
2177,3009,"Australia 3009, Cdad. Autónoma de Buenos Aires, Argentina",-58.3895461,-34.6468333
2178,5407,"5407 Australia Dr, Lexington Park, MD 20653, USA",-76.4685428,38.2585549
2179,6536,"Western Australia 6536, Australia",114.2390498,-27.4756012
2180,2513,"Australia 2513, B1610ALG Ricardo Rojas, Buenos Aires, Argentina",-58.677713,-34.4582283
2181,4493,"Hungerford QLD 4493, Australia",144.409873,-28.9972216
2182,220,"220 Cavill Mall, Surfers Paradise QLD 4217, Australia",153.4292689,-28.0022858
2183,6288,"Scott River WA 6288, Australia",115.2126293,-34.1779168
2184,845,"Australia 845, Solidaridad, Voluntad y Trabajo, 89317 Tampico, Tamps., Mexico",-97.851491,22.312191
2185,3580,"Koondrook VIC 3580, Australia",144.1174856,-35.6445701
2186,2658,"Ryan NSW 2658, Australia",146.9661233,-35.5374394
2187,6398,"Broke WA 6398, Australia",116.6553351,-34.7808363
2188,6517,"Carnamah WA 6517, Australia",115.8994923,-29.722497
2189,3661,"128 Wimble St, Seymour VIC 3661, Australia",145.156752,-37.0268463
2190,2475,"Tooloom NSW 2475, Australia",152.4269361,-28.5241278
2191,265,"265 High St, Epping VIC 3076, Australia",145.0170654,-37.6539267
2192,7112,"Nicholls Rivulet TAS 7112, Australia",147.1092455,-43.1426974
2193,6901,"6901 Australia Dr, Lexington Park, MD 20653, USA",-76.4685781,38.2586103
2194,510,"510, Bentley WA 6102, Australia",115.8938786,-32.0096898
2195,7211,"Epping Forest TAS 7211, Australia",147.4289618,-41.7954517
2196,526,"Australia 526, B1752DTL Lomas del Mirador, Buenos Aires, Argentina",-58.5376199,-34.6729319
2197,2922,"Australia 2922, C1296 CABA, Argentina",-58.3880284,-34.6467557
2198,6392,"Dardadine WA 6392, Australia",116.749645,-33.3528239
2199,2406,"New South Wales 2406, Australia",149.0906869,-28.8378813
2200,6923,"6923 Australia Dr, Lexington Park, MD 20653, USA",-76.4685786,38.2586111
2201,2736,"Tooleybuc NSW 2736, Australia",143.3690158,-34.9942345
2202,304,"304 Heaths Rd, Werribee VIC 3029, Australia",144.6773596,-37.8760072
2203,4492,"Thargomindah QLD 4492, Australia",143.045893,-27.8201
2204,2709,"Australia 2709, Cdad. Autónoma de Buenos Aires, Argentina",-58.3851774,-34.6463637
2205,3670,"Baddaginnie VIC 3670, Australia",145.8690603,-36.6394628
2206,5309,"Mindarie SA 5309, Australia",140.265662,-34.996704
2207,5521,"Redhill SA 5521, Australia",138.2194523,-33.5267674
2208,5452,"Watervale SA 5452, Australia",138.6489134,-33.9710045
2209,5631,"Cockaleechie SA 5631, Australia",135.7142063,-34.2818276
2210,6924,"6924 Australia Way W, Clearwater, FL 33763, USA",-82.7397328,27.9968185
2211,2180,"Australia 2180, Conchalí, Región Metropolitana, Chile",-70.6770075,-33.3924657
2212,3650,"3650 Australia Way W, Clearwater, FL 33763, USA",-82.7397564,27.9969958
2213,3778,"Fernshaw VIC 3778, Australia",145.6467583,-37.553614
2214,6612,"Western Australia 6612, Australia",117.3616476,-29.193466
2215,607,"Australia 607, B1752DTM Lomas del Mirador, Buenos Aires, Argentina",-58.5382651,-34.6733401
2216,2369,"Stannifer NSW 2369, Australia",151.2102442,-29.9529375
2217,3533,"Lake Tyrrell VIC 3533, Australia",142.7884171,-35.3404178
2218,6707,"Western Australia 6707, Australia",114.2390498,-22.6773469
2219,2399,"Pallamallawa NSW 2399, Australia",150.1647697,-29.4257975
2220,6172,"Port Kennedy WA 6172, Australia",115.7516025,-32.3760083
2221,305,"305/1 Lucinda Ave, Kellyville NSW 2155, Australia",150.9600276,-33.7288808
2222,5337,"5337 Australia Dr, Lexington Park, MD 20653, USA",-76.4685412,38.2585523
2223,4029,"Herston QLD 4029, Australia",153.0272674,-27.4471992
2224,6235,"6235 Australia Dr, Lexington Park, MD 20653, USA",-76.4685624,38.2585856
2225,5237,"Milendella SA 5237, Australia",139.2233389,-34.786338
2226,3789,"Sherbrooke VIC 3789, Australia",145.3641298,-37.8963853
2227,5308,"Galga SA 5308, Australia",139.9777136,-34.7722978
2228,4374,"Dalveen QLD 4374, Australia",151.9711114,-28.4893282
2229,3923,"Rhyll VIC 3923, Australia",145.2756505,-38.4724137
2230,4823,"Carpentaria QLD 4823, Australia",141.6834275,-20.975595
2231,6328,"Green Range WA 6328, Australia",118.5797981,-34.5142501
2232,6909,"6909 Australia Dr, Lexington Park, MD 20653, USA",-76.4685783,38.2586106
2233,4206,"4206 Australia Way W, Clearwater, FL 33763, USA",-82.7397524,27.9969657
2234,3705,"Cudgewa VIC 3705, Australia",147.8026919,-36.1622621
2235,5231,"Millbrook SA 5231, Australia",138.8598651,-34.7490901
2236,2809,"Greenethorpe NSW 2809, Australia",148.3945107,-34.0414059
2237,7469,"Granville Harbour TAS 7469, Australia",145.1811766,-41.9147711
2238,3354,"3354 Australia Way W, Clearwater, FL 33763, USA",-82.7397585,27.9970118
2239,6943,"6943 Australia Dr, Lexington Park, MD 20653, USA",-76.4685791,38.2586118
2240,5132,"Paracombe SA 5132, Australia",138.7743842,-34.8472894
2241,6077,"Gnangara WA 6077, Australia",115.8640062,-31.7529847
2242,5357,"McBean Pound SA 5357, Australia",139.6503106,-34.4199277
2243,2451,"Australia 2451, B1610ALE Ricardo Rojas, Buenos Aires, Argentina",-58.6768109,-34.4577321
2244,5455,"Hilltown SA 5455, Australia",138.6589406,-33.7064182
2245,2389,"Australia 2389, Cdad. Autónoma de Buenos Aires, Argentina",-58.3816612,-34.6455191
2246,3686,"3686 Australia Way W, Clearwater, FL 33763, USA",-82.7397561,27.9969938
2247,5302,"South Australia 5302, Australia",140.5964124,-35.7191587
2248,6276,"6276 Australia Way W, Clearwater, FL 33763, USA",-82.7397375,27.9968536
2249,2274,"Australia 2274, Conchalí, Región Metropolitana, Chile",-70.6781849,-33.3930144
2250,3339,"3339 Australian Cir, Winter Park, FL 32792, USA",-81.3039117,28.6152456
2251,4496,"South Talwood QLD 4496, Australia",149.3339956,-28.4615936
2252,4588,"Australia 4588, B1712MIF Castelar, Buenos Aires, Argentina",-58.640363,-34.6974653
2253,5580,"Curramulka SA 5580, Australia",137.7834888,-34.666651
2254,6724,"6724 Australia Way W, Clearwater, FL 33763, USA",-82.7397343,27.9968293
2255,3270,"Peterborough VIC 3270, Australia",142.8793838,-38.5949819
2256,5001,"Australia 5001, B1712MJI Castelar, Buenos Aires, Argentina",-58.6417297,-34.7018346
2257,2237,"Australia 2237, B1610ALA Ricardo Rojas, Buenos Aires, Argentina",-58.6746375,-34.4567165
2258,3740,"Porepunkah VIC 3740, Australia",146.8760951,-36.8264122
2259,3430,"Clarkefield VIC 3430, Australia",144.8071366,-37.497542
2260,2755,"Australia 2755, B1610ALK Ricardo Rojas, Buenos Aires, Argentina",-58.6808661,-34.4600452
2261,5320,"Lindley SA 5320, Australia",139.4466005,-33.9294188
2262,2697,"Australia 2697, C1296ABG CABA, Argentina",-58.3849097,-34.6462992
2263,5139,"Forest Range SA 5139, Australia",138.8045391,-34.9239285
2264,7230,"7230 Australia Way W, Clearwater, FL 33763, USA",-82.7397306,27.9968019
2265,4489,"Wyandra QLD 4489, Australia",146.1142253,-27.3280856
2266,6375,"Adamsvale WA 6375, Australia",117.8780275,-32.3364811
2267,7051,"7051 Australia Dr, Lexington Park, MD 20653, USA",-76.4685816,38.2586158
2268,6396,"Frankland River WA 6396, Australia",116.9381434,-34.3028954
2269,5133,"Inglewood SA 5133, Australia",138.7944857,-34.800439
2270,5276,"Bray SA 5276, Australia",139.9777136,-37.2644147
2271,6320,"Moonies Hill WA 6320, Australia",117.6904167,-34.1222453
2272,2727,"Adjungbilly NSW 2727, Australia",148.4401655,-35.0518395
2273,4251,"4251 Australia Dr, Lexington Park, MD 20653, USA",-76.4685156,38.2585121
2274,3768,"3768 Australia Way W, Clearwater, FL 33763, USA",-82.7397555,27.9969894
2275,2812,"Australia 2812, C1296ABL CABA, Argentina",-58.3866879,-34.6466709
2276,5554,"Kadina SA 5554, Australia",137.7243139,-34.0020113
2277,284,"284 Darling Dr, Sydney NSW 2000, Australia",151.1989749,-33.8710991
2278,2649,"Laurel Hill NSW 2649, Australia",148.3032562,-35.8017999
2279,3972,"3972 Australia Way W, Clearwater, FL 33763, USA",-82.739754,27.9969783
2280,5303,"Parilla SA 5303, Australia",140.7208989,-35.2849868
2281,2215,"Australia 2215, B1610ALA Ricardo Rojas, Buenos Aires, Argentina",-58.6742039,-34.4564861
2282,4661,"Australia 4661, B1712MJA Castelar, Buenos Aires, Argentina",-58.640819,-34.6988993
2283,5558,"Nalyappa SA 5558, Australia",137.625836,-34.1251832
2284,6751,"Western Australia 6751, Australia",117.5495846,-22.7235265
2285,5262,"Frances SA 5262, Australia",140.8872648,-36.8261652
2286,6935,"6935 Australian St, Jupiter, FL 33458, USA",-80.1410443,26.9460795
2287,4822,"Albion QLD 4822, Australia",143.045893,-20.031224
2288,3704,"Koetong VIC 3704, Australia",147.5306312,-36.1192035
2289,837,"Australia 837, Solidaridad, Voluntad y Trabajo, 89317 Tampico, Tamps., Mexico",-97.8517795,22.3120862
2290,6616,"Latham WA 6616, Australia",116.5609857,-29.7542682
2291,4126,"4126 Australia Way W, Clearwater, FL 33763, USA",-82.7397529,27.99697
2292,706,"Australia 706, B1752DTP Lomas del Mirador, Buenos Aires, Argentina",-58.5391948,-34.673945
2293,5416,"Farrell Flat SA 5416, Australia",138.7794089,-33.8294999
2294,725,"Australia 725, B1752DTO Lomas del Mirador, Buenos Aires, Argentina",-58.5392486,-34.6739782
2295,5485,"Wilmington SA 5485, Australia",138.1200592,-32.6132039
2296,2504,"2504 Australia Dr, Raleigh, NC 27610, USA",-78.6218665,35.7454752
2297,5434,"South Australia 5434, Australia",138.558749,-31.701689
2298,5451,"Undalya SA 5451, Australia",138.6589406,-34.039841
2299,5680,"South Australia 5680, Australia",134.3236557,-32.2048282
2300,3267,"Scotts Creek VIC 3267, Australia",143.0781416,-38.467729
2301,5520,"Bumbunga SA 5520, Australia",138.1995591,-33.8326543
2302,4314,"Australia 4314, B1712MIB Castelar, Buenos Aires, Argentina",-58.6394884,-34.6947096
2303,4675,"Australia 4675, B1712MJA Castelar, Buenos Aires, Argentina",-58.6408733,-34.6990791
2304,5471,"Gulnare SA 5471, Australia",138.4587382,-33.476513
2305,4480,"Eromanga QLD 4480, Australia",143.7369154,-26.7342767
2306,2482,"Koonyum Range NSW 2482, Australia",153.4154233,-28.5204603
2307,3527,"Towaninny South VIC 3527, Australia",143.2611514,-36.0005012
2308,2492,"Australia 2492, C1296ABD CABA, Argentina",-58.3827665,-34.6457881
2309,2839,"New South Wales 2839, Australia",146.741207,-29.4010291
2310,6216,"Unit 6216/570 Lygon St, Carlton VIC 3053, Australia",144.9692137,-37.7931343
2311,3512,"Panitya VIC 3512, Australia",141.095836,-35.1673606
2312,6770,"Western Australia 6770, Australia",127.9784585,-18.8198631
2313,831,"Australia 831, Solidaridad, Voluntad y Trabajo, 89317 Tampico, Tamps., Mexico",-97.8520254,22.3120129
2314,5412,"Woolshed Flat SA 5412, Australia",138.739224,-34.1465459
2315,6760,"Western Australia 6760, Australia",119.9740534,-21.0487557
2316,5195,"Australia 5195, B1712MJK Castelar, Buenos Aires, Argentina",-58.6422297,-34.703523
2317,4706,"Ogmore QLD 4706, Australia",149.7487272,-22.6263321
2318,3306,"3306 Australian Ct, West Palm Beach, FL 33407, USA",-80.0686651,26.7432012
2319,3164,"Australia 3164, Cdad. Autónoma de Buenos Aires, Argentina",-58.3911106,-34.6469059
2320,6638,"Western Australia 6638, Australia",118.1122679,-28.3404414
2321,3213,"Batesford VIC 3213, Australia",144.2811537,-37.9873525
2322,252,"252 Queen St, Brisbane City QLD 4000, Australia",153.0247378,-27.4703651
2323,3864,"Glenaladale VIC 3864, Australia",147.304453,-37.8199648
2324,4733,"Corfield QLD 4733, Australia",143.2180495,-22.1870756
2325,3886,"Newmerella VIC 3886, Australia",148.42875,-37.7514308
2326,2501,"Australia 2501, C1296ABE CABA, Argentina",-58.3828734,-34.6458149
2327,317,"317 Hooker Blvd, Broadbeach Waters QLD 4218, Australia",153.4292574,-28.0358949
2328,221,"221 Derrimut Rd, Werribee VIC 3029, Australia",144.6795892,-37.8762635
2329,5633,"Lock SA 5633, Australia",135.7900209,-33.5972924
2330,3494,"Colignan VIC 3494, Australia",141.8945505,-34.4480025
2331,5148,"Australia 5148, Castelar, Buenos Aires, Argentina",-58.6420749,-34.7030119
2332,4695,"Bracewell QLD 4695, Australia",150.9783868,-23.810368
2333,4719,"Camboon QLD 4719, Australia",150.1184797,-25.1114621
2334,6240,"Lowden WA 6240, Australia",115.9586253,-33.5434759
2335,2401,"Gravesend NSW 2401, Australia",150.3500838,-29.5555212
2336,5601,"Port Bonython SA 5601, Australia",137.5864964,-32.9317056
2337,3292,"Nelson VIC 3292, Australia",141.1198886,-38.0625136
2338,3069,"Australia 3069, Cdad. Autónoma de Buenos Aires, Argentina",-58.3908632,-34.6468944
2339,2855,"Australia 2855, C1296ABK CABA, Argentina",-58.3871966,-34.6467039
2340,6227,"Burekup WA 6227, Australia",115.816684,-33.3242404
2341,3393,"Lah VIC 3393, Australia",142.4039296,-36.2167744
2342,5306,"Wynarka SA 5306, Australia",139.7319925,-35.119745
2343,5415,"Stanley SA 5415, Australia",138.7794089,-33.9036859
2344,3662,"Puckapunyal VIC 3662, Australia",144.9171412,-36.9514451
2345,7360,"7360 Australia Way W, Clearwater, FL 33763, USA",-82.7397297,27.9967949
2346,3329,"Barunah Park VIC 3329, Australia",143.88892,-37.9976266
2347,3157,"Australia 3157, B1610ALS Ricardo Rojas, Buenos Aires, Argentina",-58.6862338,-34.4629066
2348,4063,"4063/19 Robina Town Centre Access, Robina QLD 4230, Australia",153.3854542,-28.0773585
2349,2721,"Quandialla NSW 2721, Australia",147.6892483,-34.0173794
2350,2803,"Crowther NSW 2803, Australia",148.5315297,-34.120537
2351,6407,"Watercarrin WA 6407, Australia",117.2205771,-31.5666837
2352,3423,"Jeparit VIC 3423, Australia",141.9791849,-36.134382
2353,6238,"6238 Australia Way W, Clearwater, FL 33763, USA",-82.7397378,27.9968556
2354,5690,"South Australia 5690, Australia",131.9196471,-30.1519003
2355,6954,"6954 Australia Way W, Clearwater, FL 33763, USA",-82.7397326,27.9968168
2356,241,"241 Hamilton Rd, Chermside QLD 4032, Australia",153.0326141,-27.384117
2357,2695,"Australia 2695, C1296ABG CABA, Argentina",-58.3848891,-34.6462945
2358,7726,"7726 Australia Way W, Clearwater, FL 33763, USA",-82.7397271,27.996775
2359,7001,"7001 Australia Dr, Lexington Park, MD 20653, USA",-76.4685804,38.258614
2360,3626,"3626 Australia Way W, Clearwater, FL 33763, USA",-82.7397565,27.9969971
2361,5652,"Wudinna SA 5652, Australia",135.4121561,-33.0665995
2362,6284,"Baudin WA 6284, Australia",115.3074646,-33.8652006
2363,3900,"Cobberas VIC 3900, Australia",147.8708157,-36.9009009
2364,5208,"5208 Australia Dr, Fayetteville, NC 28306, USA",-78.9547259,34.9864105
2365,6355,"Western Australia 6355, Australia",119.1390642,-33.0617524
2366,606,"Australia 606, Portales de Aragón, 25290 Saltillo, Coah., Mexico",-100.9662787,25.4501391
2367,3420,"Telopea Downs VIC 3420, Australia",141.095836,-36.0603124
2368,6214,"Coolup WA 6214, Australia",115.7811869,-32.7545745
2369,511,"511 Old Castle Hill Rd, Castle Hill NSW 2154, Australia",151.0067033,-33.7293708
2370,5462,"Blyth SA 5462, Australia",138.4587382,-33.8470065
2371,2270,"Australia 2270, San Luis, 21160 Mexicali, B.C., Mexico",-115.5135317,32.6396953
2372,6352,"Merilup WA 6352, Australia",118.1590786,-33.2656807
2373,2949,"Australia 2949, C1296 CABA, Argentina",-58.3884967,-34.646783
2374,4427,"Clifford QLD 4427, Australia",149.3841339,-26.6167701
2375,623,"Australia 623, B1752DTM Lomas del Mirador, Buenos Aires, Argentina",-58.5383942,-34.6734248
2376,4739,"Carmila QLD 4739, Australia",149.3339956,-21.8119895
2377,2734,"Tooranie NSW 2734, Australia",143.7803147,-35.1178199
2378,5472,"Georgetown SA 5472, Australia",138.4187846,-33.3859808
2379,2764,"Australia 2764, Popular Nacionalista, 21165 Mexicali, B.C., Mexico",-115.5206339,32.6397233
2380,5641,"South Australia 5641, Australia",136.1326778,-32.9883959
2381,6916,"51-53 Kewdale Road,, Welshpool WA 6106, Australia",115.8285591,-31.913351
2382,3395,"Kenmare VIC 3395, Australia",142.4039296,-35.9172982
2383,2817,"Australia 2817, C1296ABK CABA, Argentina",-58.3867573,-34.6466754
2384,3967,"Hedley VIC 3967, Australia",146.5392256,-38.6705951
2385,330,"Chancellery Building, Murdoch WA 6150, Australia",115.835741,-32.0659354
2386,6079,"Melaleuca WA 6079, Australia",115.9231471,-31.7507557
2387,5350,"Rosedale SA 5350, Australia",138.8347102,-34.5777151
2388,6468,"Kalannie WA 6468, Australia",117.2676116,-29.9848066
2389,5431,"South Australia 5431, Australia",138.6388879,-32.7105779
2390,6460,"Walyormouring WA 6460, Australia",116.8439147,-31.2289795
2391,5263,"Coonawarra SA 5263, Australia",140.8248263,-37.294215
2392,5710,"South Australia 5710, Australia",137.3706554,-32.7860621
2393,3576,"Durham Ox VIC 3576, Australia",143.9324048,-36.1415403
2394,5609,"Whyalla Jenkins SA 5609, Australia",137.7243139,-32.822392
2395,5340,"Murtho SA 5340, Australia",140.8872648,-34.1492214
2396,307,"Australia 307, Valle del Nogalar, 66484 San Nicolás de los Garza, N.L., Mexico",-100.2806237,25.7122843
2397,6444,"6444 Australia Way W, Clearwater, FL 33763, USA",-82.7397363,27.9968445
2398,6324,"Forest Hill WA 6324, Australia",117.6904167,-34.6140779
2399,7292,"Quamby Bend TAS 7292, Australia",146.9135998,-41.4768372
2400,262,"Australia 262, B1752DTF Lomas del Mirador, Buenos Aires, Argentina",-58.5352589,-34.6714115
2401,5117,"Angle Vale SA 5117, Australia",138.6539268,-34.6416029
2402,337,"Australia 337, B1752DTG Lomas del Mirador, Buenos Aires, Argentina",-58.5359169,-34.671832
2403,2524,"Australia 2524, C1296ABF CABA, Argentina",-58.3831162,-34.6458817
2404,4803,"Whitsundays QLD 4803, Australia",148.9521567,-20.3554219
2405,5243,"Oakbank SA 5243, Australia",138.8498018,-34.9746306
2406,3709,"Pine Mountain VIC 3709, Australia",147.6892483,-36.0696807
2407,263,"263 Australia St, Newtown NSW 2042, Australia",151.1782226,-33.8967957
2408,6513,"Gunyidi WA 6513, Australia",116.0886704,-30.1989775
2409,6532,"Western Australia 6532, Australia",114.7142918,-26.9468463
2410,7393,"7393 Australia Dr, Lexington Park, MD 20653, USA",-76.4685897,38.2586285
2411,4454,"Baffle West QLD 4454, Australia",148.1892921,-25.4338215
2412,7647,"7647 Australia Dr, Lexington Park, MD 20653, USA",-76.4685957,38.2586379
2413,5381,"Brady Creek SA 5381, Australia",139.0817124,-33.8956642
2414,5454,"Euromina SA 5454, Australia",138.598804,-33.4777612
2415,2899,"Australia 2899, Popular Nacionalista, 21165 Mexicali, B.C., Mexico",-115.5224985,32.6397378
2416,3834,"3834 Australia Way W, Clearwater, FL 33763, USA",-82.739755,27.9969858
2417,7113,"Franklin TAS 7113, Australia",146.9848853,-43.0925056
2418,7203,"7203 Australia Dr, Lexington Park, MD 20653, USA",-76.4685852,38.2586215
2419,6256,"Maranup WA 6256, Australia",116.1832068,-34.0649274
2420,6202,"6202 Australia Way W, Clearwater, FL 33763, USA",-82.739738,27.9968576
2421,402,"Australia 500-402, B1752DTJ Lomas del Mirador, Buenos Aires, Argentina",-58.5364469,-34.6721892
2422,6522,"Holmwood WA 6522, Australia",115.5681084,-29.1421485
2423,3541,"3541 Australia Dr, Lexington Park, MD 20653, USA",-76.4684988,38.2584858
2424,6126,"Keysbrook WA 6126, Australia",116.0295671,-32.4363721
2425,6518,"Eneabba WA 6518, Australia",115.3785719,-29.873483
2426,6516,"Jurien Bay WA 6516, Australia",115.1177654,-30.2938314
2427,3898,"Cassilis VIC 3898, Australia",147.5079912,-37.022052
2428,6963,"6963 Australia Dr, Lexington Park, MD 20653, USA",-76.4685795,38.2586126
2429,6383,"Mount Stirling WA 6383, Australia",117.4556388,-31.9754952
2430,2351,"Australia 2351, Simental, 21160 Mexicali, B.C., Mexico",-115.5146016,32.6397316
2431,6537,"Western Australia 6537, Australia",113.5728501,-25.732342
2432,4579,"Australia 4579, B1712MIE Castelar, Buenos Aires, Argentina",-58.6403489,-34.6974192
2433,3653,"3653 Australia Dr, Lexington Park, MD 20653, USA",-76.4685015,38.2584899
2434,506,"506/188 Pitt St, Sydney NSW 2000, Australia",151.20914,-33.8701176
2435,3581,"Lake Charm VIC 3581, Australia",143.8020236,-35.6026039
2436,6951,"6951 Australia Dr, Lexington Park, MD 20653, USA",-76.4685793,38.2586121
2437,5026,"Australia 5026, B1712MJJ Castelar, Buenos Aires, Argentina",-58.6417744,-34.7019918
2438,6218,"Yarloop WA 6218, Australia",115.8640062,-32.9571735
2439,2313,"Australia 2313, Cdad. Autónoma de Buenos Aires, Argentina",-58.3810202,-34.6453956
2440,3092,"Australia 3092, Cdad. Autónoma de Buenos Aires, Argentina",-58.3903372,-34.64687
2441,4222,"Southport QLD 4222, Australia",153.3807784,-27.9627982
2442,4410,"Jandowae QLD 4410, Australia",151.10998,-26.7813787
2443,489,"Australia 489, B1752DTI Lomas del Mirador, Buenos Aires, Argentina",-58.5372318,-34.672687
2444,5321,"Cadell SA 5321, Australia",139.7933279,-34.0848077
2445,6623,"Western Australia 6623, Australia",116.1359431,-29.1982083
2446,213,"213/23 St Quentin Ave, Claremont WA 6010, Australia",115.7796731,-31.9822591
2447,5180,"Australia 5180, Castelar, Buenos Aires, Argentina",-58.6421824,-34.7033667
2448,2788,"Australia 2788, Cdad. Autónoma de Buenos Aires, Argentina",-58.386224,-34.6466159
2449,2182,"Australia 2182, Conchalí, Región Metropolitana, Chile",-70.6770854,-33.3924917
2450,3353,"3353 Australia Dr, Lexington Park, MD 20653, USA",-76.4684944,38.2584788
2451,6753,"Western Australia 6753, Australia",119.7889248,-22.9798905
2452,312,"312/312 Roghan Rd, Taigum QLD 4018, Australia",153.0426637,-27.342159
2453,5640,"Jamieson SA 5640, Australia",136.400872,-33.5787333
2454,4890,"Howitt QLD 4890, Australia",141.1794546,-17.5123583
2455,5991,"5991 Australia Dr, Lexington Park, MD 20653, USA",-76.4685566,38.2585766
2456,4204,"4204 Australia Way W, Clearwater, FL 33763, USA",-82.7397524,27.9969658
2457,5346,"Cobdogla SA 5346, Australia",140.4153139,-34.2374624
2458,211,"211 Heaths Rd, Werribee VIC 3029, Australia",144.6786352,-37.8761633
2459,4315,"Australia 4315, B1712MIA Castelar, Buenos Aires, Argentina",-58.6394961,-34.694735
2460,3692,"3692 Australia Way W, Clearwater, FL 33763, USA",-82.7397561,27.9969935
2461,7766,"7766 Australia Way W, Clearwater, FL 33763, USA",-82.7397268,27.9967729
2462,6161,"Rottnest Island WA 6161, Australia",115.5148137,-32.0035186
2463,6431,"Western Australia 6431, Australia",125.5657862,-29.5392065
2464,2678,"Charles Sturt University NSW 2678, Australia",147.3581255,-35.0612323
2465,5550,"South Hummocks SA 5550, Australia",138.1995591,-34.2009379
2466,6323,"Kendenup WA 6323, Australia",117.5730639,-34.458602
2467,6642,"Western Australia 6642, Australia",119.0459927,-25.2069933
2468,7468,"Strahan TAS 7468, Australia",145.4170575,-42.1828342
2469,2496,"Australia 2496, C1296ABD CABA, Argentina",-58.3828091,-34.6457987
2470,5149,"Australia 5149, B1712MJK Castelar, Buenos Aires, Argentina",-58.6420782,-34.703023
2471,3399,"3399 Australian Cir, Winter Park, FL 32792, USA",-81.3032254,28.615292
2472,2310,"Australia 2310, Conchalí, Región Metropolitana, Chile",-70.6790696,-33.393335
2473,3853,"3853 Australia Dr, Lexington Park, MD 20653, USA",-76.4685062,38.2584973
2474,504,"Australia 504, B1752DTL Lomas del Mirador, Buenos Aires, Argentina",-58.5374692,-34.6728371
2475,4585,"Australia 4585, B1712MIE Castelar, Buenos Aires, Argentina",-58.6403674,-34.6974797
2476,6343,"Pingrup WA 6343, Australia",118.8596804,-33.5438705
2477,2332,"Australia 2332, Conchalí, Región Metropolitana, Chile",-70.6792306,-33.3934926
2478,319,"319 Hooker Blvd, Broadbeach QLD 4218, Australia",153.4292113,-28.0360125
2479,5411,"Tarlee SA 5411, Australia",138.76936,-34.2604738
2480,2826,"Bogan NSW 2826, Australia",147.5985807,-31.8950912
2481,2279,"Australia 2279, B1610ALC Ricardo Rojas, Buenos Aires, Argentina",-58.6752137,-34.4570246
2482,431,"Australia 431, B1752DTI Lomas del Mirador, Buenos Aires, Argentina",-58.5367288,-34.672368
2483,6395,"Jingalup WA 6395, Australia",117.0794082,-34.0632655
2484,7257,"Cape Barren Island TAS 7257, Australia",148.2014489,-40.3982432
2485,5483,"Melrose SA 5483, Australia",138.1796732,-32.8051307
2486,2424,"Number One NSW 2424, Australia",152.0282394,-31.6440437
2487,6609,"Nugadong WA 6609, Australia",116.6553351,-30.2482196
2488,2591,"Australia 2591, C1296ABE CABA, Argentina",-58.3838192,-34.6460472
2489,4050,"4050 Arthur Hwy, Murdunna TAS 7178, Australia",147.866865,-42.948985
2490,2436,"Australia 2436, C1296ABD CABA, Argentina",-58.38217,-34.6456401
2491,2645,"Urana NSW 2645, Australia",146.2482277,-35.3139098
2492,2385,"Australia 2385, Cdad. Autónoma de Buenos Aires, Argentina",-58.3816118,-34.6455088
2493,616,None,None,None
2494,6315,None,None,None
2495,5036,None,None,None
2496,6072,"Mahogany Creek WA 6072, Australia",116.1329888,-31.9142343
2497,4876,None,None,None
2498,6959,None,None,None
2499,3831,None,None,None
2500,2467,None,None,None
2501,5720,None,None,None
2502,4892,None,None,None
2503,5311,"South Australia 5311, Australia",140.7624493,-34.5909184
2504,3110,None,None,None
2505,7409,"7409 Australia Dr, Lexington Park, MD 20653, USA",-76.4685901,38.2586291
2506,3780,None,None,None
2507,3532,None,None,None
2508,4727,None,None,None
2509,6099,None,None,None
2510,3596,None,None,None
2511,6331,None,None,None
2512,6234,None,None,None
2513,7100,None,None,None
2514,3408,None,None,None
2515,7255,None,None,None
2516,2862,None,None,None
2517,215,None,None,None
2518,834,None,None,None
2519,214,None,None,None
2520,4276,None,None,None
2521,6989,None,None,None
2522,4724,None,None,None
2523,450,None,None,None
2524,4653,None,None,None
2525,4923,None,None,None
2526,7163,None,None,None
2527,395,None,None,None
2528,5071,None,None,None
